[{"title": "title", "phone": "phone", "rating": "rating", "review": "review", "address": "address", "website": "website", "post_code": "-"}, {"title": "Best Friend Dog Care", "phone": "+61 401 615 437", "rating": "5", "review": "43", "address": "--Not Provided--", "website": "https://bestfrienddogcare.com.au/", "post_code": "-"}, {"title": "Sherlock Bones", "phone": "+61 433 364 364", "rating": "4.7", "review": "14", "address": "--Not Provided--", "website": "http://www.sherlockbones.com.au/", "post_code": "-"}, {"title": "Advance Behavioural Training", "phone": "+61 431 301 118", "rating": "4.8", "review": "170", "address": "Athol Park SA, Australia", "website": "http://www.advancebehaviouraltraining.com.au/", "post_code": "2560"}, {"title": "Canine Connect", "phone": "--Not Provided--", "rating": "4.5", "review": "71", "address": "Adelaide SA, Australia", "website": "http://www.canineconnect.com.au/", "post_code": "5006"}, {"title": "Beyond Dogs", "phone": "+61 435 311 535", "rating": "5", "review": "22", "address": "Plympton Park SA, Australia", "website": "https://www.beyonddogs.au/", "post_code": "5038"}, {"title": "Simple Steps Dog Training Adelaide", "phone": "--Not Provided--", "rating": "5", "review": "10", "address": "--Not Provided--", "website": "http://www.simplestepsdogtraining.com/", "post_code": "-"}, {"title": "Southern Districts Kennel and Obedience Dog Club", "phone": "+61 8 8386 1933", "rating": "4.7", "review": "83", "address": "Goodwood SA, Australia", "website": "https://www.sdkodc.com/", "post_code": "7010"}, {"title": "OzcorpK9", "phone": "+61 404 752 187", "rating": "4.8", "review": "51", "address": "--Not Provided--", "website": "http://www.ozcorpk9.com.au/", "post_code": "-"}, {"title": "Northern Districts Kennel & Obedience Club", "phone": "+61 8 8380 9866", "rating": "4.4", "review": "23", "address": "Elizabeth Downs SA, Australia", "website": "https://www.facebook.com/Northern-Districts-Kennel-and-Obedience-Club-Inc-176375715722638/", "post_code": "5112"}, {"title": "Dog Knows Training and Behaviour Consulting", "phone": "+61 414 446 878", "rating": "5", "review": "5", "address": "--Not Provided--", "website": "http://www.dogknows.com.au/", "post_code": "-"}, {"title": "Canine Behavioural School", "phone": "+61 481 395 337", "rating": "5", "review": "14", "address": "Felixstow SA, Australia", "website": "https://www.caninebehaviouralschool.com.au/", "post_code": "5070"}, {"title": "Puppy Matters Co", "phone": "+61 410 959 673", "rating": "5", "review": "22", "address": "--Not Provided--", "website": "http://www.puppymattersco.com.au/", "post_code": "-"}, {"title": "Direct K9 Adelaide", "phone": "+61 451 824 278", "rating": "5", "review": "16", "address": "--Not Provided--", "website": "https://directk9.com.au/", "post_code": "-"}, {"title": "Woodville Community Dog Training Centre Inc", "phone": "+61 429 185 385", "rating": "4", "review": "23", "address": "Woodville South SA, Australia", "website": "http://woodvilledogtraining.com.au/", "post_code": "5011"}, {"title": "Pawsitive Training", "phone": "--Not Provided--", "rating": "5", "review": "27", "address": "Bowden SA, Australia", "website": "http://www.pawsitive-training.net/", "post_code": "5007"}, {"title": "Forward Thinking Dog Training and Mobility", "phone": "+61 491 757 837", "rating": "5", "review": "6", "address": "--Not Provided--", "website": "http://www.forwardthinkingdogtraining.com.au/", "post_code": "-"}, {"title": "Adelaide K9 Services", "phone": "+61 413 067 769", "rating": "5", "review": "9", "address": "Walkerville SA, Australia", "website": "http://www.adelaidek9.com.au/", "post_code": "5081"}, {"title": "South Australian Obedience Dog Club", "phone": "+61 8 8223 6626", "rating": "4.5", "review": "34", "address": "South Parklands SA, Australia", "website": "https://www.saobediencedogclub.com.au/", "post_code": "3205"}, {"title": "Denali Dog Training", "phone": "+61 452 466 031", "rating": "4.8", "review": "34", "address": "Ridgehaven SA, Australia", "website": "https://denalidogtraining.com.au/", "post_code": "5097"}, {"title": "Port Adelaide Obedience Dog Club Inc.", "phone": "+61 408 854 990", "rating": "4.4", "review": "14", "address": "--Not Provided--", "website": "http://www.paodc.com.au/", "post_code": "-"}, {"title": "AlfaDog", "phone": "+61 405 539 381", "rating": "4.6", "review": "12", "address": "Glenelg North SA, Australia", "website": "https://www.alfadog.com.au/", "post_code": "5045"}, {"title": "Positive Dog Training", "phone": "+61 418 886 698", "rating": "3.5", "review": "22", "address": "--Not Provided--", "website": "http://positivedogtraining.com.au/", "post_code": "-"}, {"title": "Noarlunga City Obedience Dog Club", "phone": "+61 481 845 050", "rating": "4.6", "review": "20", "address": "Morphett Vale SA, Australia", "website": "http://noarlungadogclub.net/", "post_code": "5162"}, {"title": "Canine Interaction", "phone": "+61 432 247 999", "rating": "5", "review": "11", "address": "Croydon Park SA, Australia", "website": "https://canineinteraction.com.au/", "post_code": "3136"}, {"title": "SuperDogs Positive Behavioural Training", "phone": "--Not Provided--", "rating": "4.3", "review": "7", "address": "--Not Provided--", "website": "https://www.superdogstraining.net/", "post_code": "-"}, {"title": "Klever Kanine Dog Obedience School", "phone": "+61 409 840 726", "rating": "4.7", "review": "11", "address": "--Not Provided--", "website": "https://kleverkanine.com.au/", "post_code": "-"}, {"title": "Dover Gardens Kennel & Obedience Club Inc.", "phone": "+61 493 368 178", "rating": "4.5", "review": "20", "address": "--Not Provided--", "website": "http://www.doverdog.org.au", "post_code": "-"}, {"title": "Wolfpack Dog Training", "phone": "+61 413 975 296", "rating": "5", "review": "16", "address": "Aberfoyle Park SA, Australia", "website": "http://www.wolfpackdogtraining.com/", "post_code": "5159"}, {"title": "Dog Training Adelaide", "phone": "+61 475 440 783", "rating": "3.4", "review": "12", "address": "Ingle Farm SA, Australia", "website": "https://dogtrainingadelaide.net.au/", "post_code": "5098"}, {"title": "Puppy Partners", "phone": "+61 408 089 555", "rating": "5", "review": "16", "address": "Ridgehaven SA, Australia", "website": "https://www.puppypartners.com.au/", "post_code": "5097"}, {"title": "Bark Busters Home Dog Training Adelaide East & Hills", "phone": "+61 1800 067 710", "rating": "3.7", "review": "3", "address": "--Not Provided--", "website": "https://barkbusters.com.au/dog_trainers/sue-good/", "post_code": "-"}, {"title": "Refreshing Paws Dog Training", "phone": "+61 411 317 212", "rating": "5", "review": "16", "address": "Craigburn Farm SA, Australia", "website": "http://www.refreshingpawsdogtraining.com.au/", "post_code": "5051"}, {"title": "Tails of Success: Dog Training", "phone": "--Not Provided--", "rating": "5", "review": "3", "address": "--Not Provided--", "website": "https://tailsofsuccess-dogtraining.com/", "post_code": "-"}, {"title": "Canine Assist", "phone": "+61 484 694 520", "rating": "5", "review": "7", "address": "Morphett Vale SA, Australia", "website": "http://www.canine-assist.com.au/", "post_code": "5162"}, {"title": "German Shepherd Dog Club Of Sa Inc", "phone": "+61 8 8353 7895", "rating": "4.5", "review": "23", "address": "West Beach SA, Australia", "website": "http://www.gsdcsa.org.au/", "post_code": "3003"}, {"title": "Help At Hound", "phone": "--Not Provided--", "rating": "5", "review": "2", "address": "--Not Provided--", "website": "http://www.helpathound.com.au/", "post_code": "-"}, {"title": "Dogwise Daycare", "phone": "+61 452 101 029", "rating": "5", "review": "83", "address": "Cheltenham SA, Australia", "website": "http://www.dogwisedaycare.com.au/", "post_code": "3192"}, {"title": "DOGS ETC", "phone": "+61 404 464 793", "rating": "4.6", "review": "13", "address": "--Not Provided--", "website": "http://www.dogsetc.com.au/", "post_code": "-"}, {"title": "All Breeds Dog Training", "phone": "+61 475 440 783", "rating": "3.3", "review": "8", "address": "Paradise SA, Australia", "website": "https://allbreedsdogtraining.com/", "post_code": "4217"}, {"title": "Paws & Reward", "phone": "+61 432 885 874", "rating": "4.7", "review": "15", "address": "--Not Provided--", "website": "http://pawsandreward.com.au/", "post_code": "-"}, {"title": "School For Dogs Aldinga Bay", "phone": "--Not Provided--", "rating": "4.6", "review": "17", "address": "Aldinga Beach SA, Australia", "website": "http://www.sfdab.org.au/", "post_code": "5173"}, {"title": "Elite Canine", "phone": "+61 432 156 441", "rating": "5", "review": "1", "address": "--Not Provided--", "website": "http://www.elitecanine.com.au/", "post_code": "-"}, {"title": "For the love of your dog", "phone": "+61 411 460 233", "rating": "5", "review": "2", "address": "Goodwood SA, Australia", "website": "https://www.fortheloveofyourdog.com/", "post_code": "7010"}, {"title": "Robert Parkinson Dog Trainer", "phone": "+61 458 551 954", "rating": "5", "review": "3", "address": "Manningham SA, Australia", "website": "http://robert-parkinson.com/", "post_code": "5086"}, {"title": "SuperDogs Positive Behavioural Training", "phone": "--Not Provided--", "rating": "5", "review": "3", "address": "--Not Provided--", "website": "https://www.superdogstraining.net/", "post_code": "-"}, {"title": "Dogs Matter - Dog Behaviour & Training In Melbourne", "phone": "--Not Provided--", "rating": "No ratings", "review": "No reviews", "address": "--Not Provided--", "website": "http://www.dogsmatter.com.au/", "post_code": "-"}, {"title": "Eves Dog Salon", "phone": "+61 8 8363 7444", "rating": "4.4", "review": "10", "address": "Evandale SA, Australia", "website": "https://eves-dog-salon.business.site/", "post_code": "7212"}, {"title": "Contento Canines", "phone": "+61 431 590 630", "rating": "5", "review": "2", "address": "--Not Provided--", "website": "http://www.contentocanines.com.au/", "post_code": "-"}, {"title": "Best Friend Dog Care Adelaide- Dog Training & Behaviour -We travel to you servicing Adelaide CBD and surrounding suburbs", "phone": "+61 401 615 437", "rating": "No ratings", "review": "No reviews", "address": "--Not Provided--", "website": "http://www.bestfrienddogcare.com.au/", "post_code": "-"}, {"title": "MYK9Design", "phone": "--Not Provided--", "rating": "5", "review": "8", "address": "Goodwood SA, Australia", "website": "https://www.etsy.com/au/shop/MYK9Design", "post_code": "7010"}, {"title": "Dog B Mod", "phone": "+61 412 738 444", "rating": "No ratings", "review": "No reviews", "address": "--Not Provided--", "website": "https://www.facebook.com/DogBMod/", "post_code": "-"}, {"title": "Refreshing Paws Dog Training", "phone": "+61 411 317 212", "rating": "No ratings", "review": "No reviews", "address": "Goodwood SA, Australia", "website": "http://www.refreshingpawsdogtraining.com.au/", "post_code": "7010"}, {"title": "Denali Dog Training", "phone": "+61 452 466 031", "rating": "No ratings", "review": "No reviews", "address": "--Not Provided--", "website": "https://denalidogtraining.com.au/", "post_code": "-"}, {"title": "Dynamic Dogs Training and Massage", "phone": "+61 418 700 533", "rating": "No ratings", "review": "No reviews", "address": "Goodwood SA, Australia", "website": "http://www.dynamicdogs.myfreesites.net/", "post_code": "7010"}, {"title": "Therapy Dogs", "phone": "+61 481 293 370", "rating": "4.5", "review": "2", "address": "--Not Provided--", "website": "http://www.therapeuticdogservices.org/", "post_code": "-"}, {"title": "Beau's Pet Hotel", "phone": "+61 8 8115 6080", "rating": "4.5", "review": "231", "address": "Adelaide Airport SA, Australia", "website": "https://beaus.org.au/", "post_code": "5006"}, {"title": "Crafty Canines Training Academy", "phone": "--Not Provided--", "rating": "No ratings", "review": "No reviews", "address": "--Not Provided--", "website": "http://www.craftycanines.com.au/", "post_code": "-"}, {"title": "Angelwhisperer Wellness Services Doggy Day Spa", "phone": "+61 408 830 900", "rating": "5", "review": "1", "address": "--Not Provided--", "website": "https://www.angelwhisperer.com.au/", "post_code": "-"}, {"title": "Little Rascals Petcare", "phone": "+61 427 089 993", "rating": "No ratings", "review": "No reviews", "address": "--Not Provided--", "website": "http://www.littlerascalspetcare.com.au/", "post_code": "-"}, {"title": "Harmony Dogs Australia", "phone": "+61 8 7288 2661", "rating": "No ratings", "review": "No reviews", "address": "Hackham SA, Australia", "website": "https://www.harmonydogsaus.com.au/", "post_code": "5163"}, {"title": "Dog Club", "phone": "+61 406 887 125", "rating": "5", "review": "2", "address": "St Marys SA, Australia", "website": "http://www.dogclubsa.com/", "post_code": "3021"}, {"title": "Gawler Dog Training Club", "phone": "+61 421 369 567", "rating": "4", "review": "14", "address": "--Not Provided--", "website": "http://www.gawlerdogtrainingclubinc.org.au/", "post_code": "-"}, {"title": "Live Love Bark - Mobile & Salon Dog Grooming", "phone": "+61 476 499 141", "rating": "4.8", "review": "18", "address": "Munno Para West SA, Australia", "website": "https://livelovebark.business.site/?utm_source=gmb&utm_medium=referral", "post_code": "5115"}, {"title": "Canine Connect", "phone": "--Not Provided--", "rating": "5", "review": "2", "address": "Clarendon SA, Australia", "website": "http://www.canineconnect.com.au/", "post_code": "5157"}, {"title": "SitDropStay Adelaide", "phone": "+61 1300 306 887", "rating": "4.8", "review": "40", "address": "Mount Pleasant SA, Australia", "website": "http://sitdropstay.com/dog-training-adelaide/", "post_code": "3930"}, {"title": "Wolfpack Dog Training", "phone": "--Not Provided--", "rating": "No ratings", "review": "No reviews", "address": "--Not Provided--", "website": "http://www.wolfpackdogtraining.com/", "post_code": "-"}, {"title": "DogFX", "phone": "+61 8 8269 6622", "rating": "4.4", "review": "100", "address": "Prospect SA, Australia", "website": "http://dogfx.com.au/", "post_code": "5082"}, {"title": "Crafty Canines", "phone": "+61 427 082 925", "rating": "No ratings", "review": "No reviews", "address": "--Not Provided--", "website": "http://www.craftycanines.com.au/", "post_code": "-"}, {"title": "Ari and Me Doggy Daycare", "phone": "+61 420 228 506", "rating": "4.7", "review": "54", "address": "Golden Grove SA, Australia", "website": "http://www.ariandmedoggydaycare.com.au/", "post_code": "3851"}, {"title": "Little Dog Daycare", "phone": "+61 8 8151 1203", "rating": "5", "review": "27", "address": "North Adelaide SA, Australia", "website": "https://www.littledogdaycare.com.au/", "post_code": "3978"}, {"title": "Take The Lead Canine Services", "phone": "+61 429 036 445", "rating": "4.9", "review": "96", "address": "Middle Beach SA, Australia", "website": "https://taketheleadau.com.au/", "post_code": "6056"}, {"title": "Scholars in Collars", "phone": "--Not Provided--", "rating": "4.5", "review": "10", "address": "--Not Provided--", "website": "http://www.scholarsincollars.com.au/", "post_code": "-"}, {"title": "Bluey the Griff", "phone": "--Not Provided--", "rating": "No ratings", "review": "No reviews", "address": "--Not Provided--", "website": "https://blueythegriff.business.site/?utm_source=gmb&utm_medium=referral", "post_code": "-"}, {"title": "National K9 Services", "phone": "+61 419 175 582", "rating": "5", "review": "9", "address": "--Not Provided--", "website": "http://nk9s.com.au/", "post_code": "-"}, {"title": "Paws & Reward", "phone": "+61 432 885 874", "rating": "No ratings", "review": "No reviews", "address": "--Not Provided--", "website": "https://pawsandreward.com.au/", "post_code": "-"}, {"title": "Taylored Dog Training", "phone": "+61 422 056 455", "rating": "No ratings", "review": "No reviews", "address": "--Not Provided--", "website": "http://www.tayloreddogtraining.com.au/", "post_code": "-"}, {"title": "Barker Behaviour and Training", "phone": "--Not Provided--", "rating": "5", "review": "5", "address": "Mount Barker SA, Australia", "website": "http://www.barkerbehaviour.com.au/", "post_code": "3930"}, {"title": "Boutique Paws", "phone": "+61 1300 697 297", "rating": "3.1", "review": "151", "address": "Parkside SA, Australia", "website": "https://www.boutiquepaws.com.au/", "post_code": "4825"}, {"title": "Adelaide Plains Kennel & Obedience Club", "phone": "--Not Provided--", "rating": "5", "review": "2", "address": "Lewiston SA, Australia", "website": "https://www.facebook.com/groups/453827048156115/?ref=share", "post_code": "5501"}, {"title": "A Dog's ABC's", "phone": "+61 8 8523 2004", "rating": "5", "review": "1", "address": "Aldinga Beach SA, Australia", "website": "http://www.dogtraining-gawlerbarossa.websyte.com.au/", "post_code": "5173"}, {"title": "Adelaide Canine Behaviour and Training", "phone": "--Not Provided--", "rating": "5", "review": "5", "address": "Manningham SA, Australia", "website": "https://adelaidedogtraining.com.au/", "post_code": "5086"}, {"title": "Advance Behavioural Training", "phone": "+61 431 301 118", "rating": "4.8", "review": "170", "address": "Evandale SA, Australia", "website": "http://www.advancebehaviouraltraining.com.au/", "post_code": "7212"}, {"title": "Canine Connect", "phone": "--Not Provided--", "rating": "4.5", "review": "71", "address": "Hackham SA, Australia", "website": "http://www.canineconnect.com.au/", "post_code": "5163"}, {"title": "Dogwise Daycare", "phone": "+61 452 101 029", "rating": "5", "review": "83", "address": "Munno Para West SA, Australia", "website": "http://www.dogwisedaycare.com.au/", "post_code": "5115"}, {"title": "Adelaide K9 Services", "phone": "+61 413 067 769", "rating": "5", "review": "9", "address": "Clarendon SA, Australia", "website": "http://www.adelaidek9.com.au/", "post_code": "5157"}, {"title": "Canine Assist", "phone": "+61 484 694 520", "rating": "5", "review": "7", "address": "Mount Pleasant SA, Australia", "website": "http://www.canine-assist.com.au/", "post_code": "3930"}, {"title": "Beyond Dogs", "phone": "+61 435 311 535", "rating": "5", "review": "22", "address": "--Not Provided--", "website": "https://www.beyonddogs.au/", "post_code": "-"}, {"title": "AlfaDog", "phone": "+61 405 539 381", "rating": "4.6", "review": "12", "address": "Aldinga Beach SA, Australia", "website": "https://www.alfadog.com.au/", "post_code": "5173"}, {"title": "Denali Dog Training", "phone": "+61 452 466 031", "rating": "4.8", "review": "34", "address": "Manningham SA, Australia", "website": "https://denalidogtraining.com.au/", "post_code": "5086"}, {"title": "Refreshing Paws Dog Training", "phone": "+61 411 317 212", "rating": "5", "review": "16", "address": "Evandale SA, Australia", "website": "http://www.refreshingpawsdogtraining.com.au/", "post_code": "7212"}, {"title": "Canine Interaction", "phone": "+61 432 247 999", "rating": "5", "review": "11", "address": "Hackham SA, Australia", "website": "https://canineinteraction.com.au/", "post_code": "5163"}, {"title": "Dog Training Adelaide", "phone": "+61 475 440 783", "rating": "3.4", "review": "12", "address": "Munno Para West SA, Australia", "website": "https://dogtrainingadelaide.net.au/", "post_code": "5115"}, {"title": "Live Love Bark - Mobile & Salon Dog Grooming", "phone": "+61 476 499 141", "rating": "4.8", "review": "18", "address": "Clarendon SA, Australia", "website": "https://livelovebark.business.site/?utm_source=gmb&utm_medium=referral", "post_code": "5157"}, {"title": "Ari and Me Doggy Daycare", "phone": "+61 420 228 506", "rating": "4.7", "review": "54", "address": "Mount Pleasant SA, Australia", "website": "http://www.ariandmedoggydaycare.com.au/", "post_code": "3930"}, {"title": "Puppy Partners", "phone": "+61 408 089 555", "rating": "5", "review": "16", "address": "Aldinga Beach SA, Australia", "website": "https://www.puppypartners.com.au/", "post_code": "5173"}, {"title": "Wolfpack Dog Training", "phone": "+61 413 975 296", "rating": "5", "review": "16", "address": "Manningham SA, Australia", "website": "http://www.wolfpackdogtraining.com/", "post_code": "5086"}, {"title": "Noarlunga City Obedience Dog Club", "phone": "+61 481 845 050", "rating": "4.6", "review": "20", "address": "Evandale SA, Australia", "website": "http://noarlungadogclub.net/", "post_code": "7212"}, {"title": "All Breeds Dog Training", "phone": "+61 475 440 783", "rating": "3.3", "review": "8", "address": "Hackham SA, Australia", "website": "https://allbreedsdogtraining.com/", "post_code": "5163"}, {"title": "Doghouse Daycare and Grooming", "phone": "+61 8 8293 6791", "rating": "4.7", "review": "86", "address": "Munno Para West SA, Australia", "website": "https://www.doghousedaycare.com.au/contact-us/", "post_code": "5115"}, {"title": "German Shepherd Dog Club Of Sa Inc", "phone": "+61 8 8353 7895", "rating": "4.5", "review": "23", "address": "Clarendon SA, Australia", "website": "http://www.gsdcsa.org.au/", "post_code": "5157"}, {"title": "DogFX", "phone": "+61 8 8269 6622", "rating": "4.4", "review": "100", "address": "Mount Pleasant SA, Australia", "website": "http://dogfx.com.au/", "post_code": "3930"}, {"title": "Dogcity Daycare West - Thebarton", "phone": "+61 8 8363 5088", "rating": "4.8", "review": "75", "address": "--Not Provided--", "website": "https://dogcity.com.au/", "post_code": "-"}, {"title": "Eves Dog Salon", "phone": "+61 8 8363 7444", "rating": "4.4", "review": "10", "address": "Aldinga Beach SA, Australia", "website": "https://eves-dog-salon.business.site/", "post_code": "5173"}, {"title": "Dogcity Daycare South - Keswick", "phone": "+61 8 8363 5088", "rating": "4.8", "review": "33", "address": "Manningham SA, Australia", "website": "https://dogcity.com.au/", "post_code": "5086"}, {"title": "Little Dog Daycare", "phone": "+61 8 8151 1203", "rating": "5", "review": "27", "address": "Evandale SA, Australia", "website": "https://www.littledogdaycare.com.au/", "post_code": "7212"}, {"title": "Robert Parkinson Dog Trainer", "phone": "+61 458 551 954", "rating": "5", "review": "3", "address": "Hackham SA, Australia", "website": "http://robert-parkinson.com/", "post_code": "5163"}, {"title": "Dog Club", "phone": "+61 406 887 125", "rating": "5", "review": "2", "address": "Munno Para West SA, Australia", "website": "http://www.dogclubsa.com/", "post_code": "5115"}, {"title": "Take The Lead Canine Services", "phone": "+61 429 036 445", "rating": "4.9", "review": "96", "address": "Clarendon SA, Australia", "website": "https://taketheleadau.com.au/", "post_code": "5157"}, {"title": "Harmony Dogs Australia", "phone": "+61 8 7288 2661", "rating": "No ratings", "review": "No reviews", "address": "Mount Pleasant SA, Australia", "website": "https://www.harmonydogsaus.com.au/", "post_code": "3930"}, {"title": "Little Rascals Pet Care", "phone": "+61 8 8371 4445", "rating": "4.6", "review": "28", "address": "Manningham SA, Australia", "website": "http://www.littlerascalspetcare.com.au/", "post_code": "5086"}, {"title": "Casey k9 Care Mobile Dog Wash and Grooming", "phone": "+61 422 550 750", "rating": "4.6", "review": "10", "address": "Evandale SA, Australia", "website": "http://www.caseyk9care.com/", "post_code": "7212"}, {"title": "SitDropStay Adelaide", "phone": "+61 1300 306 887", "rating": "4.8", "review": "40", "address": "Hackham SA, Australia", "website": "http://sitdropstay.com/dog-training-adelaide/", "post_code": "5163"}, {"title": "Happy Pet Helpers ~ Dog Walking | Pet Taxi | Moblie Pet Store", "phone": "+61 407 214 456", "rating": "4.8", "review": "6", "address": "Munno Para West SA, Australia", "website": "http://www.happypethelpers.com.au/", "post_code": "5115"}, {"title": "PetCloud Pet Sitting Adelaide", "phone": "+61 1300 667 785", "rating": "No ratings", "review": "No reviews", "address": "Mount Pleasant SA, Australia", "website": "https://www.petcloud.com.au/?UTM_source=GMB_listing&UTM_medium=organic&utm_source=google&utm_medium=organic&utm_campaign=Google%20My%20Business&utm_content=PetCloud%20Pet%20Sitting%20Adelaide&utm_term=plcid_16123804773610833950", "post_code": "3930"}, {"title": "Simple Steps Dog Training Adelaide", "phone": "+61 419 808 224", "rating": "5", "review": "10", "address": "--Not Provided--", "website": "http://www.simplestepsdogtraining.com/", "post_code": "-"}, {"title": "Southern Districts Kennel and Obedience Dog Club", "phone": "+61 8 8386 1933", "rating": "4.7", "review": "83", "address": "Morphett Vale SA, Australia", "website": "https://www.sdkodc.com/", "post_code": "5162"}, {"title": "Klever Kanine Dog Obedience School", "phone": "+61 409 840 726", "rating": "4.7", "review": "11", "address": "Ridgehaven SA, Australia", "website": "https://kleverkanine.com.au/", "post_code": "5097"}, {"title": "Port Adelaide Obedience Dog Club Inc.", "phone": "+61 408 854 990", "rating": "4.4", "review": "14", "address": "Osborne SA, Australia", "website": "http://www.paodc.com.au/", "post_code": "4806"}, {"title": "Dover Gardens Kennel & Obedience Club Inc.", "phone": "--Not Provided--", "rating": "4.5", "review": "20", "address": "Mitchell Park SA, Australia", "website": "http://www.doverdog.org.au", "post_code": "4465"}, {"title": "SuperDogs Positive Behavioural Training", "phone": "--Not Provided--", "rating": "4.3", "review": "7", "address": "Happy Valley SA, Australia", "website": "https://www.superdogstraining.net/", "post_code": "5159"}, {"title": "Dogwise Daycare", "phone": "--Not Provided--", "rating": "5", "review": "83", "address": "Cheltenh SA, Australia", "website": "http://www.dogwisedaycare.com.au/", "post_code": "-"}, {"title": "Canine Assist", "phone": "--Not Provided--", "rating": "5", "review": "7", "address": "Morphett Vale SA, Australia", "website": "http://www.canine-assist.com.au/", "post_code": "5162"}, {"title": "Robert Parkinson Dog Trainer", "phone": "+61 458 551 954", "rating": "5", "review": "3", "address": "Manningh SA, Australia", "website": "http://robert-parkinson.com/", "post_code": "-"}, {"title": "Gawler Dog Training Club", "phone": "+61 421 369 567", "rating": "4", "review": "14", "address": "Willaston SA, Australia", "website": "http://www.gawlerdogtrainingclubinc.org.au/", "post_code": "5118"}, {"title": "Scholars in Collars", "phone": "+61 400 205 667", "rating": "4.5", "review": "10", "address": "--Not Provided--", "website": "http://www.scholarsincollars.com.au/", "post_code": "-"}, {"title": "Take The Lead Canine Services", "phone": "--Not Provided--", "rating": "4.9", "review": "96", "address": "Middle Beach SA, Australia", "website": "https://taketheleadau.com.au/", "post_code": "6056"}, {"title": "Ari and Me Doggy Daycare", "phone": "--Not Provided--", "rating": "4.7", "review": "54", "address": "Golden Grove SA, Australia", "website": "http://www.ariandmedoggydaycare.com.au/", "post_code": "3851"}, {"title": "A Dog's ABC's", "phone": "+61 8 8523 2004", "rating": "5", "review": "1", "address": "Evanston Park SA, Australia", "website": "http://www.dogtraining-gawlerbarossa.websyte.com.au/", "post_code": "5116"}]