[{"title": "Four Paw", "phone": "+61 7 3369 5175", "rating": "4.7", "review": "78", "address": "Red Hill QLD, Australia", "website": "http://www.fourpaw.com.au/", "post_code": "3496"}, {"title": "The Grooming Salon", "phone": "+61 447 970 555", "rating": "4.6", "review": "104", "address": "Greenslopes QLD, Australia", "website": "http://www.thegroomingsalon.com.au/", "post_code": "4120"}, {"title": "KOOHIKI Spa & Pets Grooming Salon", "phone": "+61 7 3162 9637", "rating": "4.7", "review": "95", "address": "Runcorn QLD, Australia", "website": "http://koohiki.com.au/", "post_code": "4113"}, {"title": "Paws On Logan", "phone": "+61 432 563 880", "rating": "4.8", "review": "40", "address": "Greenslopes QLD, Australia", "website": "https://www.facebook.com/pawsonlytton/", "post_code": "4120"}, {"title": "Little Dog Studio", "phone": "+61 423 370 341", "rating": "4.9", "review": "53", "address": "Nundah QLD, Australia", "website": "http://www.littledogstudio.com.au/", "post_code": "4012"}, {"title": "Friends with Fur - Cannon Hill", "phone": "+61 7 3393 9351", "rating": "4.4", "review": "90", "address": "Cannon Hill QLD, Australia", "website": "http://www.friendswithfur.com.au/", "post_code": "4170"}, {"title": "Mr Teddy Bear", "phone": "--Not Provided--", "rating": "4.5", "review": "132", "address": "Bowen Hills QLD, Australia", "website": "http://www.mrteddybear.com.au/", "post_code": "4805"}, {"title": "All Fur Love Mobile Pet Care", "phone": "+61 422 422 404", "rating": "4.3", "review": "41", "address": "--Not Provided--", "website": "http://www.allfurlove.com.au/", "post_code": "-"}, {"title": "Doggy Day Care Brisbane", "phone": "--Not Provided--", "rating": "4.6", "review": "75", "address": "South Brisbane QLD, Australia", "website": "http://www.doggydaycarebrisbane.com.au/", "post_code": "3205"}, {"title": "The Laundromutt Dog Grooming", "phone": "+61 405 991 001", "rating": "4.7", "review": "24", "address": "--Not Provided--", "website": "http://www.thelaundromutt.dog/", "post_code": "-"}, {"title": "Mr Potts dog grooming", "phone": "+61 439 691 307", "rating": "4.9", "review": "88", "address": "Albion QLD, Australia", "website": "http://www.mrpottsgrooming.com/", "post_code": "2527"}, {"title": "Aussie Pooch Mobile Dog Wash Keperra", "phone": "+61 1300 369 369", "rating": "5.0", "review": "24", "address": "--Not Provided--", "website": "https://www.aussiepm.com.au/dog-wash-grooming/keperra", "post_code": "-"}, {"title": "A & S Dog Grooming", "phone": "+61 421 574 524", "rating": "4.4", "review": "59", "address": "Carseldine QLD, Australia", "website": "https://a-s-dog-grooming.business.site/?utm_source=gmb&utm_medium=referral", "post_code": "4034"}, {"title": "Bella & Beau Dog Grooming Boutique", "phone": "+61 7 3172 5172", "rating": "4.5", "review": "34", "address": "Acacia Ridge QLD, Australia", "website": "http://www.bellabeaugrooming.com.au/", "post_code": "4110"}, {"title": "Chuppi Dog Grooming", "phone": "+61 481 268 095", "rating": "4.9", "review": "38", "address": "Everton Park QLD, Australia", "website": "http://chuppi.com/", "post_code": "4053"}, {"title": "Ruff Ruff Dog Grooming & Daycare", "phone": "+61 427 833 156", "rating": "5.0", "review": "25", "address": "Murarrie QLD, Australia", "website": "https://www.ruffruff.com.au/", "post_code": "4172"}, {"title": "The Pet Pad", "phone": "+61 7 3216 0888", "rating": "4.5", "review": "108", "address": "Newstead QLD, Australia", "website": "http://www.thepetpad.com.au/", "post_code": "7250"}, {"title": "Hollywood Hounds", "phone": "+61 426 295 224", "rating": "4.4", "review": "38", "address": "Morningside QLD, Australia", "website": "https://www.hollywoodhounds.com.au/", "post_code": "4170"}, {"title": "Blue Wheelers Nundah", "phone": "+61 456 797 443", "rating": "4.8", "review": "27", "address": "--Not Provided--", "website": "https://www.bluewheelers.com.au/mobile-dog-grooming/nundah-qld", "post_code": "-"}, {"title": "La Casa de Pooch", "phone": "+61 7 3162 0200", "rating": "4.3", "review": "87", "address": "Geebung QLD, Australia", "website": "http://www.lacasadepooch.net/", "post_code": "4034"}, {"title": "Wooftopia (Formerly Hairy Barkers) Dog Grooming & Daycare", "phone": "+61 7 3161 7408", "rating": "4.2", "review": "38", "address": "Upper Mount Gravatt QLD, Australia", "website": "http://www.wooftopia.com.au/", "post_code": "4209"}, {"title": "James Home Services Mobile Pet Grooming & Hydrobath - Yeronga", "phone": "+61 415 370 340", "rating": "4.7", "review": "12", "address": "--Not Provided--", "website": "https://www.jameshomeservices.com.au/mobile-pet-grooming-hydrobath/", "post_code": "-"}, {"title": "Tiny Tails Dog Grooming Salon", "phone": "+61 422 042 447", "rating": "4.5", "review": "118", "address": "Wynnum West QLD, Australia", "website": "http://www.tinytails.com.au/", "post_code": "4178"}, {"title": "Barkley and Pips Dog Groomers", "phone": "+61 7 3519 6115", "rating": "4.8", "review": "59", "address": "Bundba QLD, Australia", "website": "http://www.barkleyandpips.com/", "post_code": "-"}, {"title": "CC\u2019s Pampered Pups", "phone": "+61 423 652 535", "rating": "5.0", "review": "54", "address": "Kedron QLD, Australia", "website": "http://ccspamperedpups.myonlineappointment.com/", "post_code": "4031"}, {"title": "Yapyaps Pooch Parlour", "phone": "+61 448 855 151", "rating": "4.2", "review": "55", "address": "Hilton QLD, Australia", "website": "https://yapyaps.com.au/", "post_code": "6163"}, {"title": "Peticulous", "phone": "+61 7 3848 2379", "rating": "4.8", "review": "38", "address": "Mansfield QLD, Australia", "website": "http://www.peticulous.com.au/", "post_code": "4122"}, {"title": "Barkers Bazaar Mobile Dog Wash and Groom", "phone": "+61 493 054 525", "rating": "4.8", "review": "37", "address": "--Not Provided--", "website": "http://www.barkersbazaardoggrooming.com/", "post_code": "-"}, {"title": "Pooch Avenue", "phone": "+61 1300 994 334", "rating": "4.8", "review": "150", "address": "Slacks Creek QLD, Australia", "website": "http://www.poochavenue.com.au/", "post_code": "4127"}, {"title": "James' Mobile Pet Grooming & Hydrobath Morningside, Murarrie & Surrounds", "phone": "+61 1800 152 632", "rating": "5.0", "review": "7", "address": "--Not Provided--", "website": "http://www.jameshomeservices.com.au/", "post_code": "-"}, {"title": "The Cats' Pyjamas Cat Grooming", "phone": "+61 409 612 123", "rating": "4.9", "review": "42", "address": "Fitzgibbon QLD, Australia", "website": "http://www.thecatspyjamas.au/", "post_code": "4018"}, {"title": "The Trusty Dog Wash", "phone": "+61 435 096 062", "rating": "5.0", "review": "50", "address": "Carina QLD, Australia", "website": "http://www.thetrustydogwash.com.au/", "post_code": "4152"}, {"title": "Aloha Hound The Organic Dog Grooming Spa", "phone": "+61 493 449 752", "rating": "4.7", "review": "61", "address": "Loganholme QLD, Australia", "website": "https://m.facebook.com/alohahound/", "post_code": "4129"}, {"title": "Happy woofs Dog Grooming", "phone": "+61 421 188 978", "rating": "4.6", "review": "47", "address": "Lawnton QLD, Australia", "website": "http://www.happywoofs.com.au/", "post_code": "4501"}, {"title": "My Dogs Daycare", "phone": "--Not Provided--", "rating": "4.9", "review": "84", "address": "Wilston QLD, Australia", "website": "http://www.mydogsdaycare.com.au/", "post_code": "4051"}, {"title": "Pawsitive Pet Grooming", "phone": "+61 7 3219 1011", "rating": "4.3", "review": "106", "address": "Mount Gravatt East QLD, Australia", "website": "http://pawsitivepetgrooming.com.au/?utm_source=gmb&utm_medium=referral", "post_code": "3930"}, {"title": "Puptopia", "phone": "--Not Provided--", "rating": "4.5", "review": "104", "address": "Bowen Hills QLD, Australia", "website": "https://puptopia.com.au/", "post_code": "4805"}, {"title": "Pups N Potions | Dog Grooming", "phone": "+61 448 524 590", "rating": "4.7", "review": "18", "address": "Mount Gravatt QLD, Australia", "website": "http://www.facebook.com/pupsnpotionsgrooming", "post_code": "3930"}, {"title": "Bam and Moo Holistic Dog Grooming", "phone": "--Not Provided--", "rating": "4.9", "review": "27", "address": "Warner QLD, Australia", "website": "https://m.facebook.com/Bamandmoo/", "post_code": "4500"}, {"title": "Perfect Tails Pet Grooming", "phone": "+61 435 500 218", "rating": "4.9", "review": "22", "address": "Salisbury QLD, Australia", "website": "https://www.facebook.com/perfecttailspetgrooming/", "post_code": "4107"}, {"title": "Paws & Relax", "phone": "--Not Provided--", "rating": "4.9", "review": "111", "address": "Hilton QLD, Australia", "website": "http://www.pawsandrelax.com.au/", "post_code": "6163"}, {"title": "QPETS", "phone": "--Not Provided--", "rating": "4.2", "review": "39", "address": "Sunnybank QLD, Australia", "website": "https://www.instagram.com/qpetsbrissy/", "post_code": "4109"}, {"title": "Furry Kids At Play", "phone": "+61 419 541 008", "rating": "4.1", "review": "50", "address": "Hawthorne QLD, Australia", "website": "http://www.furrykidsathome.com.au/", "post_code": "4171"}, {"title": "Paws Only Grooming Salon Spa & Boutique", "phone": "+61 405 646 999", "rating": "4.8", "review": "19", "address": "Upper Mount Gravatt QLD, Australia", "website": "http://facebook.com/pawsonlybne", "post_code": "4209"}, {"title": "The Hound Hutt", "phone": "--Not Provided--", "rating": "4.8", "review": "51", "address": "Stafford QLD, Australia", "website": "http://www.thehoundhutt.com.au/", "post_code": "4053"}, {"title": "Darra Dog Grooming", "phone": "+61 427 637 288", "rating": "4.9", "review": "20", "address": "Darra QLD, Australia", "website": "https://www.facebook.com/darradoggrooming/", "post_code": "4076"}, {"title": "The Pooch Palace", "phone": "+61 7 3300 4319", "rating": "4.4", "review": "70", "address": "The Gap QLD, Australia", "website": "http://thepoochpalace.com.au/", "post_code": "4061"}, {"title": "4 Paws Dog Grooming", "phone": "+61 7 3269 2405", "rating": "4.5", "review": "68", "address": "Sandgate QLD, Australia", "website": "http://4pawsgroomers.com.au/", "post_code": "4017"}, {"title": "K9 CHIC Grooming boutique", "phone": "+61 7 3488 0188", "rating": "4.6", "review": "117", "address": "Cleveland QLD, Australia", "website": "https://k9chic.com.au/", "post_code": "4810"}, {"title": "Barkin Beautiful Grooming Studio & Small Doggie Playgroup", "phone": "+61 7 3823 4567", "rating": "4.2", "review": "46", "address": "Capalaba QLD, Australia", "website": "http://www.barkinbeautiful.com.au/", "post_code": "4157"}, {"title": "Sapphire Blues Pet Companions", "phone": "+61 1300 083 194", "rating": "5.0", "review": "32", "address": "Annerley QLD, Australia", "website": "http://www.sapphire-blues.com/home", "post_code": "4103"}, {"title": "DOGUE Bulimba", "phone": "--Not Provided--", "rating": "4.1", "review": "87", "address": "Bulimba QLD, Australia", "website": "https://dogue.com.au/pet-shops/bulimba/", "post_code": "4171"}, {"title": "Aussie Pooch Mobile Dog Wash Boondall", "phone": "+61 1300 369 369", "rating": "4.6", "review": "9", "address": "--Not Provided--", "website": "https://www.aussiepm.com.au/dog-wash-grooming/boondall", "post_code": "-"}, {"title": "Kelz K9 Kutz", "phone": "+61 401 102 181", "rating": "4.9", "review": "13", "address": "Carina QLD, Australia", "website": "https://www.facebook.com/kelzk9kutz/", "post_code": "4152"}, {"title": "PupperCuts", "phone": "+61 493 040 297", "rating": "4.8", "review": "56", "address": "Shailer Park QLD, Australia", "website": "http://www.puppercuts.com.au/", "post_code": "4128"}, {"title": "Our Salon West Ipswich", "phone": "+61 7 3432 5200", "rating": "5.0", "review": "20", "address": "West Ipswich QLD, Australia", "website": "https://www.bestfriendspets.com.au/services/grooming?utm_source=googlemybusiness&utm_medium=organic&utm_campaign=gmb-website", "post_code": "3003"}, {"title": "Awesome Pawsome - Mobile Pet Grooming & Wash", "phone": "+61 407 244 515", "rating": "4.1", "review": "14", "address": "Hendra QLD, Australia", "website": "http://awesomepawsome.com.au/", "post_code": "4011"}, {"title": "RID - A - FLEA Mobile Dog Wash", "phone": "+61 417 024 663", "rating": "5.0", "review": "17", "address": "--Not Provided--", "website": "http://frank0027.wixsite.com/mobile-dog-wash", "post_code": "-"}, {"title": "Tail Waggerz", "phone": "+61 448 809 666", "rating": "4.9", "review": "93", "address": "Albany Creek QLD, Australia", "website": "https://tailwaggerz.com.au/", "post_code": "4035"}, {"title": "Louise's Pet Grooming", "phone": "+61 421 111 036", "rating": "4.6", "review": "98", "address": "Buccan QLD, Australia", "website": "http://www.louisespetgrooming.com/", "post_code": "4207"}, {"title": "Clover Dog Design (Dog Grooming Salon)", "phone": "+61 407 024 851", "rating": "4.9", "review": "37", "address": "Forest Lake QLD, Australia", "website": "https://www.cloverdogdesign.com.au/", "post_code": "4078"}, {"title": "Wagglebumz Pet Grooming", "phone": "+61 420 848 170", "rating": "5.0", "review": "14", "address": "Mount Gravatt East QLD, Australia", "website": "http://wagglebumz.com.au/", "post_code": "3930"}, {"title": "Shear Designz", "phone": "+61 7 3889 0333", "rating": "4.8", "review": "95", "address": "Petrie QLD, Australia", "website": "https://www.facebook.com/Shear-Designz-159211300779020/", "post_code": "4502"}, {"title": "Aristocats Feline Day Spa", "phone": "+61 478 661 877", "rating": "4.7", "review": "43", "address": "Kenmore QLD, Australia", "website": "http://www.aristocats.com.au/", "post_code": "4069"}, {"title": "Essential Dog Grooming", "phone": "+61 419 117 961", "rating": "5.0", "review": "10", "address": "Kuraby QLD, Australia", "website": "http://www.essentialdoggrooming.com.au/", "post_code": "4112"}, {"title": "Jen\u2019s Dog Grooming", "phone": "--Not Provided--", "rating": "5.0", "review": "10", "address": "--Not Provided--", "website": "https://www.facebook.com/jensdoggroomingelimbah", "post_code": "-"}, {"title": "Jim's Dog Wash Collingwood Park", "phone": "--Not Provided--", "rating": "4.8", "review": "5", "address": "--Not Provided--", "website": "http://www.jimsdogwash.net.au/", "post_code": "-"}, {"title": "Paddington Pups", "phone": "--Not Provided--", "rating": "4.7", "review": "213", "address": "Milton QLD, Australia", "website": "http://www.paddingtonpups.com.au/", "post_code": "2538"}, {"title": "Dog L\u2019amour Grooming", "phone": "+61 460 588 303", "rating": "5.0", "review": "8", "address": "Highgate Hill QLD, Australia", "website": "https://doglamour.com.au/", "post_code": "4101"}, {"title": "Hair of The Dog Grooming Salon", "phone": "+61 438 339 615", "rating": "4.8", "review": "14", "address": "Manly West QLD, Australia", "website": "http://www.hodgrooming.com.au/", "post_code": "2095"}, {"title": "The Dog Boutique", "phone": "+61 435 838 890", "rating": "5.0", "review": "12", "address": "Westlake QLD, Australia", "website": "https://www.facebook.com/thedogboutiquebrisbane/", "post_code": "4074"}, {"title": "Petite Paws Dog Grooming Salon", "phone": "+61 412 873 247", "rating": "5.0", "review": "9", "address": "Keperra QLD, Australia", "website": "https://petite-paws-dog-and-cat-grooming-salon.business.site/?utm_source=gmb&utm_medium=referral", "post_code": "4054"}, {"title": "Blue Wheelers Jindalee", "phone": "--Not Provided--", "rating": "5.0", "review": "5", "address": "--Not Provided--", "website": "http://www.bluewheelers.com.au/mobile-dog-grooming/jindalee-qld/", "post_code": "-"}, {"title": "Paw FX Grooming Salon", "phone": "+61 422 488 976", "rating": "5.0", "review": "8", "address": "Bracken Ridge QLD, Australia", "website": "http://pawfx.com.au/", "post_code": "4017"}, {"title": "Dog Father Pet Grooming", "phone": "+61 426 874 305", "rating": "5.0", "review": "58", "address": "Algester QLD, Australia", "website": "https://www.dogfatherpetgrooming.com/", "post_code": "4115"}, {"title": "Show Stoppers Luxury Dog Grooming Salon", "phone": "+61 455 681 555", "rating": "4.7", "review": "27", "address": "Victoria Point QLD, Australia", "website": "https://www.facebook.com/SHOWSTOPPERSGROOMING/", "post_code": "4165"}, {"title": "Graceville Paws", "phone": "--Not Provided--", "rating": "5.0", "review": "51", "address": "Graceville QLD, Australia", "website": "http://www.gracevillepaws.com.au/", "post_code": "4075"}, {"title": "Cheeky Chops Pet Grooming", "phone": "+61 491 678 348", "rating": "5.0", "review": "7", "address": "--Not Provided--", "website": "http://www.cheekychopspetgrooming.com.au/", "post_code": "-"}, {"title": "The Dog Den", "phone": "+61 7 3399 4888", "rating": "4.6", "review": "16", "address": "Morningside QLD, Australia", "website": "http://www.dogden.com.au/", "post_code": "4170"}, {"title": "Blue Wheelers North Lakes", "phone": "+61 419 364 444", "rating": "5.0", "review": "11", "address": "--Not Provided--", "website": "http://www.bluewheelers.com.au/mobile-dog-grooming/north-lakes-qld/", "post_code": "-"}, {"title": "Blue Wheelers Mango Hill", "phone": "+61 439 786 780", "rating": "4.5", "review": "11", "address": "--Not Provided--", "website": "http://www.bluewheelers.com.au/mobile-dog-grooming/blue-wheelers-mango-hill/", "post_code": "-"}, {"title": "Best Friends Pets Macgregor", "phone": "--Not Provided--", "rating": "4.6", "review": "465", "address": "Macgregor QLD, Australia", "website": "https://www.bestfriendspets.com.au/store-locator/macgregor?utm_source=googlemybusiness&utm_medium=organic&utm_campaign=gmb-website", "post_code": "2615"}, {"title": "Blue Wheelers Lawnton", "phone": "+61 415 168 413", "rating": "4.8", "review": "11", "address": "--Not Provided--", "website": "https://www.bluewheelers.com.au/mobile-dog-grooming/lawnton-qld/", "post_code": "-"}, {"title": "The Dog Haus Grooming and Day Spa", "phone": "+61 428 974 019", "rating": "4.3", "review": "6", "address": "New Farm QLD, Australia", "website": "https://doghausgrooming.com.au/", "post_code": "2794"}, {"title": "Nose 2 Tail", "phone": "+61 403 159 571", "rating": "5.0", "review": "7", "address": "--Not Provided--", "website": "http://www.nose2tail.com.au/", "post_code": "-"}, {"title": "Blue Wheelers Wynnum", "phone": "+61 405 226 883", "rating": "5.0", "review": "6", "address": "--Not Provided--", "website": "http://www.bluewheelers.com.au/mobile-dog-grooming/wynnum-qld/", "post_code": "-"}, {"title": "Aussie Pooch Mobile Dog Wash The Gap", "phone": "+61 1300 369 369", "rating": "5.0", "review": "3", "address": "--Not Provided--", "website": "http://www.aussiepm.com.au/dog-wash-grooming/the-gap", "post_code": "-"}, {"title": "Petbarn Mitchelton", "phone": "--Not Provided--", "rating": "4.5", "review": "561", "address": "Mitchelton QLD, Australia", "website": "https://www.petbarn.com.au/store-finder/mitchelton?utm_source=google&utm_medium=organic&utm_campaign=local_seo&utm_term=mitchelton", "post_code": "4053"}, {"title": "Little Red Wolf - Mobile Dog Grooming", "phone": "+61 412 623 978", "rating": "4.6", "review": "9", "address": "Brighton QLD, Australia", "website": "http://www.littleredwolf.com.au/", "post_code": "3186"}, {"title": "Salon 154", "phone": "+61 7 3899 5972", "rating": "4.5", "review": "15", "address": "Hawthorne QLD, Australia", "website": "http://www.bulimbavet.com/", "post_code": "4171"}, {"title": "The Barking Lot", "phone": "+61 7 3379 9932", "rating": "4.9", "review": "14", "address": "Graceville QLD, Australia", "website": "http://www.thebarkinglot.com.au/", "post_code": "4075"}, {"title": "Windarra Pet Spa", "phone": "+61 405 640 225", "rating": "5.0", "review": "9", "address": "Bunya QLD, Australia", "website": "https://www.windarrapetspa.com.au/", "post_code": "4055"}, {"title": "Petbarn", "phone": "--Not Provided--", "rating": "4.5", "review": "402", "address": "Virginia QLD, Australia", "website": "https://www.petbarn.com.au/store-finder/virginia?utm_source=google&utm_medium=organic&utm_campaign=local_seo&utm_term=virginia", "post_code": "4014"}, {"title": "Stylist to the Dogs", "phone": "+61 7 3419 2707", "rating": "4.8", "review": "21", "address": "Narangba QLD, Australia", "website": "http://www.stylisttothedogs.com.au/", "post_code": "4504"}, {"title": "Sudz & Bubbles", "phone": "+61 422 197 115", "rating": "4.8", "review": "16", "address": "--Not Provided--", "website": "http://www.sudzbubbles.com.au/", "post_code": "-"}, {"title": "Petbarn Cannon Hill", "phone": "--Not Provided--", "rating": "4.4", "review": "364", "address": "Cannon Hill QLD, Australia", "website": "https://www.petbarn.com.au/store-finder/cannon-hill?utm_source=google&utm_medium=organic&utm_campaign=local_seo&utm_term=cannon-hill", "post_code": "4170"}, {"title": "Petstock Coorparoo", "phone": "--Not Provided--", "rating": "4.5", "review": "230", "address": "Coorparoo QLD, Australia", "website": "https://www.petstock.com.au/pages/store/petstock-coorparoo?utm_source=google&utm_medium=organic&utm_campaign=Google%20My%20Business&utm_content=PETstock%20Coorparoo%20-%20Coorparoo&utm_term=plcid_9689042591946603593", "post_code": "4151"}, {"title": "Barkers grooming daycare", "phone": "+61 7 3278 0537", "rating": "4.9", "review": "47", "address": "Sherwood QLD, Australia", "website": "http://www.barkersgrooming.com.au/", "post_code": "4075"}, {"title": "Ellie's Dog Grooming Inala - BY APPOINTMENT ONLY", "phone": "+61 405 080 112", "rating": "5.0", "review": "3", "address": "--Not Provided--", "website": "https://www.facebook.com/cheekypupsgrooming", "post_code": "-"}, {"title": "Jim\u2019s Dog Wash and Grooming (Thornlands)", "phone": "--Not Provided--", "rating": "5.0", "review": "6", "address": "--Not Provided--", "website": "https://jimsdogwash.net.au/", "post_code": "-"}, {"title": "Petbarn Kenmore", "phone": "--Not Provided--", "rating": "4.4", "review": "302", "address": "Kenmore QLD, Australia", "website": "https://www.petbarn.com.au/store-finder/kenmore?utm_source=google&utm_medium=organic&utm_campaign=local_seo&utm_term=kenmore", "post_code": "4069"}, {"title": "Ellen\u2019s Dog Grooming", "phone": "+61 423 479 927", "rating": "4.7", "review": "15", "address": "Alexandra Hills QLD, Australia", "website": "https://www.facebook.com/Ellens-Dog-Grooming-2309816435897010/", "post_code": "4161"}, {"title": "Aussie Pooch Mobile Dog Wash Kenmore", "phone": "+61 1300 369 369", "rating": "4.5", "review": "2", "address": "--Not Provided--", "website": "https://www.aussiepm.com.au/dog-wash-grooming/kenmore", "post_code": "-"}, {"title": "Blue Wheelers Chermside West", "phone": "+61 408 183 966", "rating": "5.0", "review": "3", "address": "--Not Provided--", "website": "http://www.bluewheelers.com.au/mobile-dog-grooming/chermside-qld/", "post_code": "-"}, {"title": "Aussie Pooch Mobile Dog Wash Sunnybank Hills", "phone": "+61 1300 369 369", "rating": "5.0", "review": "3", "address": "--Not Provided--", "website": "https://www.aussiepm.com.au/dog-wash-grooming/sunnybank-hills", "post_code": "-"}, {"title": "Petstock Indooroopilly", "phone": "--Not Provided--", "rating": "4.5", "review": "151", "address": "Indooroopilly QLD, Australia", "website": "https://www.petstock.com.au/pages/store/petstock-indooroopilly?utm_source=google&utm_medium=organic&utm_campaign=Google%20My%20Business&utm_content=PETstock%20Indooroopilly%20-%20Indooroopilly&utm_term=plcid_16670477785018428790", "post_code": "4068"}, {"title": "Heidi's Mobile Pet Grooming", "phone": "+61 1300 434 347", "rating": "4.3", "review": "55", "address": "--Not Provided--", "website": "http://www.heidismobilepetgrooming.com.au/?utm_source=google&utm_medium=organic&utm_campaign=Google%20My%20Business%20Page", "post_code": "-"}, {"title": "Tails and Whiskers Mobile Pet Spa", "phone": "+61 404 456 122", "rating": "5.0", "review": "2", "address": "--Not Provided--", "website": "http://www.tailsandwhiskers.com.au/", "post_code": "-"}, {"title": "Best Friends Pets Virginia", "phone": "+61 7 3865 3967", "rating": "4.6", "review": "507", "address": "Virginia QLD, Australia", "website": "https://www.bestfriendspets.com.au/store-locator/virginia?utm_source=googlemybusiness&utm_medium=organic&utm_campaign=gmb-website", "post_code": "4014"}, {"title": "Petstock Carindale", "phone": "--Not Provided--", "rating": "4.3", "review": "143", "address": "Carindale QLD, Australia", "website": "https://www.petstock.com.au/pages/store/petstock-carindale?utm_source=google&utm_medium=organic&utm_campaign=Google%20My%20Business&utm_content=PETstock%20Carindale%20-%20Carindale&utm_term=plcid_2120743092685704463", "post_code": "4152"}, {"title": "Beck's Dog Grooming", "phone": "+61 466 258 855", "rating": "5.0", "review": "3", "address": "Inala QLD, Australia", "website": "https://www.facebook.com/BecksDogGrooming/", "post_code": "4077"}, {"title": "GlamPet", "phone": "+61 7 3059 9159", "rating": "5.0", "review": "6", "address": "West End QLD, Australia", "website": "http://www.gpvet.com/grooming", "post_code": "3003"}, {"title": "What the Pup Grooming Studio", "phone": "+61 421 170 340", "rating": "5.0", "review": "2", "address": "--Not Provided--", "website": "http://www.whatthepup.com.au/", "post_code": "-"}, {"title": "Petbarn Windsor", "phone": "--Not Provided--", "rating": "4.5", "review": "273", "address": "Windsor QLD, Australia", "website": "https://www.petbarn.com.au/store-finder/windsor?utm_source=google&utm_medium=organic&utm_campaign=local_seo&utm_term=windsor", "post_code": "4030"}, {"title": "Aussie Pooch Mobile Dog Wash West Belconnen", "phone": "+61 1300 369 369", "rating": "5.0", "review": "2", "address": "--Not Provided--", "website": "https://www.aussiepm.com.au/dog-wash-grooming/west-belconnen", "post_code": "-"}, {"title": "BRISBANE PET MOTEL", "phone": "--Not Provided--", "rating": "4.6", "review": "210", "address": "Boondall QLD, Australia", "website": "https://brisbane-pet-motel.business.site/", "post_code": "4034"}, {"title": "Aussie Pooch Mobile Dog wash and Grooming Victoria Point", "phone": "+61 439 904 011", "rating": "4.4", "review": "7", "address": "Victoria Point QLD, Australia", "website": "https://aussie-pooch-mobile-dog-wash-and-grooming-victoria.business.site/", "post_code": "4165"}, {"title": "Blue Wheelers Regents Park", "phone": "+61 1300 659 055", "rating": "5.0", "review": "3", "address": "--Not Provided--", "website": "http://www.bluewheelers.com.au/mobile-dog-grooming/regents-park-qld/", "post_code": "-"}, {"title": "Blue Wheelers Victoria Point", "phone": "+61 1300 659 055", "rating": "4.0", "review": "4", "address": "--Not Provided--", "website": "http://www.bluewheelers.com.au/mobile-dog-grooming/victoriapoint-qld/", "post_code": "-"}, {"title": "Jim's Dog Wash Upper Mount Gravatt", "phone": "--Not Provided--", "rating": "5.0", "review": "1", "address": "--Not Provided--", "website": "https://jimsdogwash.net.au/", "post_code": "-"}, {"title": "Aussie Pooch Mobile Dog Wash Albany Creek", "phone": "+61 1300 369 369", "rating": "5.0", "review": "2", "address": "--Not Provided--", "website": "https://www.aussiepm.com.au/dog-wash-grooming/albany-creek", "post_code": "-"}, {"title": "The Links Pet Centre - Pet Boarding Brisbane", "phone": "--Not Provided--", "rating": "4.4", "review": "127", "address": "Goodna QLD, Australia", "website": "http://thelinkspetcentre.com.au/", "post_code": "4300"}, {"title": "Aussie Pooch Mobile Dog Wash Carseldine", "phone": "+61 1300 369 369", "rating": "5.0", "review": "1", "address": "--Not Provided--", "website": "https://www.aussiepm.com.au/dog-wash-grooming/carseldine", "post_code": "-"}, {"title": "The Links Pet Centre - Pet Boarding Brisbane", "phone": "--Not Provided--", "rating": "4.4", "review": "127", "address": "Goodna QLD, Australia", "website": "http://thelinkspetcentre.com.au/", "post_code": "4300"}, {"title": "Petstock Albany Creek", "phone": "--Not Provided--", "rating": "4.4", "review": "125", "address": "Albany Creek QLD, Australia", "website": "https://www.petstock.com.au/pages/store/petstock-albany-creek?utm_source=google&utm_medium=organic&utm_campaign=Google%20My%20Business&utm_content=PETstock%20Albany%20Creek%20-%20Albany%20Creek&utm_term=plcid_4724297883850133744", "post_code": "4035"}, {"title": "Aussie Pooch Mobile Dog Wash Holland Park", "phone": "+61 1300 369 369", "rating": "5.0", "review": "1", "address": "--Not Provided--", "website": "https://www.aussiepm.com.au/dog-wash-grooming/holland-park", "post_code": "-"}, {"title": "Blue Wheelers Kenmore", "phone": "+61 402 111 587", "rating": "5.0", "review": "2", "address": "--Not Provided--", "website": "https://www.bluewheelers.com.au/mobile-dog-grooming/kenmore-qld/", "post_code": "-"}, {"title": "Snazzy Paws Dog Grooming", "phone": "--Not Provided--", "rating": "5.0", "review": "1", "address": "--Not Provided--", "website": "https://m.facebook.com/Snazzypaws?refsrc=https://www.facebook.com/Snazzypaws", "post_code": "-"}, {"title": "Petstock Keperra", "phone": "--Not Provided--", "rating": "4.1", "review": "174", "address": "Keperra QLD, Australia", "website": "https://www.petstock.com.au/pages/store/petstock-keperra?utm_source=google&utm_medium=organic&utm_campaign=Google%20My%20Business&utm_content=PETstock%20Keperra%20-%20Keperra&utm_term=plcid_8927306263030676945", "post_code": "4054"}, {"title": "Wynnum Dog Grooming", "phone": "+61 480 297 979", "rating": "4.9", "review": "17", "address": "Wynnum West QLD, Australia", "website": "https://www.facebook.com/Wynnum-Dog-Grooming", "post_code": "4178"}, {"title": "Jim's Dog Wash Rothwell", "phone": "--Not Provided--", "rating": "5.0", "review": "2", "address": "--Not Provided--", "website": "http://www.jimsdogwash.net.au/", "post_code": "-"}, {"title": "GROOMZ Professional Dog Grooming", "phone": "+61 422 645 173", "rating": "5.0", "review": "6", "address": "Stafford Heights QLD, Australia", "website": "https://groomzpdg.com.au/", "post_code": "4053"}, {"title": "iGroom Pet Pampering", "phone": "+61 481 331 736", "rating": "5.0", "review": "7", "address": "Redland Bay QLD, Australia", "website": "http://igroomdogs.com.au/", "post_code": "4165"}, {"title": "Australian Animal Oral Care", "phone": "--Not Provided--", "rating": "5.0", "review": "1", "address": "South Brisbane QLD, Australia", "website": "http://www.australiananimaloralcare.com/", "post_code": "3205"}, {"title": "Jim's Dog Wash Fitzgibbon", "phone": "--Not Provided--", "rating": "5.0", "review": "1", "address": "Fitzgibbon QLD, Australia", "website": "https://jimsdogwash.net.au/franchisees/wavell-heights/", "post_code": "4018"}, {"title": "Dash DogWash Narangba", "phone": "+61 473 650 350", "rating": "5.0", "review": "1", "address": "--Not Provided--", "website": "https://dashdogwash.com.au/mobile-dog-grooming/narangba-qld/", "post_code": "-"}, {"title": "Blue Wheelers Rothwell", "phone": "+61 458 373 183", "rating": "5.0", "review": "1", "address": "--Not Provided--", "website": "https://www.bluewheelers.com.au/mobile-dog-grooming/rothwell-qld/", "post_code": "-"}, {"title": "Hanrob Pet Hotels Brisbane", "phone": "+61 1300 426 762", "rating": "4.3", "review": "298", "address": "Eagle Farm QLD, Australia", "website": "https://hanrob.com.au/locations/brisbane/", "post_code": "4009"}, {"title": "Puppy Cut-Z Professional Dog Grooming", "phone": "--Not Provided--", "rating": "4.2", "review": "19", "address": "North Lakes QLD, Australia", "website": "https://m.facebook.com/Puppy-Cut-z-199846843429372/", "post_code": "3978"}, {"title": "Petstock Oxley", "phone": "--Not Provided--", "rating": "4.3", "review": "217", "address": "Oxley QLD, Australia", "website": "https://www.petstock.com.au/pages/store/petstock-oxley?utm_source=google&utm_medium=organic&utm_campaign=Google%20My%20Business&utm_content=PETstock%20Oxley%20-%20Oxley&utm_term=plcid_4377836685068630594", "post_code": "4075"}, {"title": "Paradise Pups", "phone": "+61 421 167 813", "rating": "5.0", "review": "1", "address": "Deception Bay QLD, Australia", "website": "http://fb.me/ParadisePupsGrooming", "post_code": "4508"}, {"title": "Pet Care and Clip", "phone": "+61 414 944 999", "rating": "4.7", "review": "24", "address": "Tarragindi QLD, Australia", "website": "http://petcareandclip.book.app/", "post_code": "4121"}, {"title": "Wynnum Dog Grooming", "phone": "+61 480 297 979", "rating": "4.9", "review": "17", "address": "Wynnum West QLD, Australia", "website": "https://www.facebook.com/Wynnum-Dog-Grooming", "post_code": "4178"}, {"title": "Puppy Cut-Z Professional Dog Grooming", "phone": "--Not Provided--", "rating": "4.2", "review": "19", "address": "North Lakes QLD, Australia", "website": "https://m.facebook.com/Puppy-Cut-z-199846843429372/", "post_code": "3978"}]