[{"title": "Fur Get Me Not - Dog Training & Behaviour", "phone": "+61 402 767 821", "rating": "4.9", "review": "95", "address": "--Not Provided--", "website": "http://www.furgetmenot.com.au/", "post_code": "-"}, {"title": "Jordan Dog Training", "phone": "+61 7 3264 8180", "rating": "4.9", "review": "203", "address": "--Not Provided--", "website": "http://jordandogtraining.com.au/", "post_code": "-"}, {"title": "Pawsitive Connection Pty Ltd", "phone": "+61 499 044 687", "rating": "4.8", "review": "48", "address": "--Not Provided--", "website": "http://www.pawsitiveconnection.com.au/", "post_code": "-"}, {"title": "Dog Bizness", "phone": "+61 422 351 097", "rating": "4.9", "review": "167", "address": "--Not Provided--", "website": "http://www.dogbizness.com.au/", "post_code": "-"}, {"title": "Bark Busters Brisbane North", "phone": "+61 1800 067 710", "rating": "4.9", "review": "72", "address": "--Not Provided--", "website": "http://brisbanedogtrainers.com/?utm_source=gmb&utm_medium=referral", "post_code": "-"}, {"title": "Urban Dog Training", "phone": "+61 7 3342 0568", "rating": "4.1", "review": "112", "address": "Carindale QLD, Australia", "website": "http://www.urbandogtraining.com.au/", "post_code": "4152"}, {"title": "Brisbane Dog Training Club", "phone": "--Not Provided--", "rating": "4.5", "review": "22", "address": "Oxley QLD, Australia", "website": "http://www.bdtc.org.au/", "post_code": "4075"}, {"title": "Luna Rae Dog Training", "phone": "+61 423 472 437", "rating": "5.0", "review": "28", "address": "--Not Provided--", "website": "https://www.facebook.com/LunaRaeDogTraining", "post_code": "-"}, {"title": "The Paw Professor", "phone": "+61 402 843 768", "rating": "4.8", "review": "68", "address": "Brookfield QLD, Australia", "website": "http://www.thepawprofessor.com.au/", "post_code": "4069"}, {"title": "Dog Training Begins", "phone": "+61 411 698 803", "rating": "5.0", "review": "33", "address": "--Not Provided--", "website": "https://www.begins.com.au/", "post_code": "-"}, {"title": "CLEAR Dog Training", "phone": "+61 468 990 050", "rating": "4.8", "review": "38", "address": "Wynnum QLD, Australia", "website": "http://www.cleardogtraining.com/", "post_code": "4178"}, {"title": "Bonnies Dog Obedience & Puppy School", "phone": "+61 7 3300 2959", "rating": "4.7", "review": "38", "address": "The Gap QLD, Australia", "website": "http://www.bonnies.com.au/", "post_code": "4061"}, {"title": "Craig A. Murray Dog Training", "phone": "+61 7 3200 5421", "rating": "5.0", "review": "253", "address": "Loganlea QLD, Australia", "website": "https://www.dogschool.com.au/", "post_code": "4131"}, {"title": "Your Dog Coach", "phone": "--Not Provided--", "rating": "5.0", "review": "54", "address": "--Not Provided--", "website": "http://www.yourdogcoach.com.au/", "post_code": "-"}, {"title": "IdaBoss Dog Training", "phone": "+61 405 365 572", "rating": "5.0", "review": "26", "address": "--Not Provided--", "website": "http://idabossdogtraining.com.au/", "post_code": "-"}, {"title": "Top Dog Pawformance", "phone": "+61 499 768 041", "rating": "5.0", "review": "16", "address": "--Not Provided--", "website": "https://topdogpawformance.com/?utm_source=google&utm_medium=organic&utm_campaign=GMB", "post_code": "-"}, {"title": "Tail Blazers Dog Training", "phone": "+61 466 656 056", "rating": "5.0", "review": "20", "address": "--Not Provided--", "website": "https://www.tailblazersdogtraining.com.au/", "post_code": "-"}, {"title": "Mad Dogs & Englishmen Brisbane - Dog Walking, Dog Training & Doggy Day Care", "phone": "+61 420 452 029", "rating": "4.9", "review": "135", "address": "--Not Provided--", "website": "http://www.maddogsdogwalking.com.au/", "post_code": "-"}, {"title": "Embark Pet Care", "phone": "+61 424 166 167", "rating": "5.0", "review": "9", "address": "--Not Provided--", "website": "https://embarkpetcare.com.au/", "post_code": "-"}, {"title": "Synergy Dog Training", "phone": "+61 421 810 904", "rating": "5.0", "review": "27", "address": "--Not Provided--", "website": "http://www.synergydogtraining.com.au/", "post_code": "-"}, {"title": "The Canine Classroom", "phone": "+61 499 440 909", "rating": "4.5", "review": "13", "address": "Teneriffe QLD, Australia", "website": "https://www.thecanineclassroom.com.au/", "post_code": "4005"}, {"title": "K9Clarity Brisbane", "phone": "+61 424 789 349", "rating": "5.0", "review": "20", "address": "--Not Provided--", "website": "http://www.k9clarity.com.au/", "post_code": "-"}, {"title": "Positive Response Dog Training", "phone": "+61 7 3459 2121", "rating": "4.9", "review": "241", "address": "--Not Provided--", "website": "http://www.positiveresponse.net.au/", "post_code": "-"}, {"title": "Best Paw Forward Dog Training", "phone": "+61 452 193 375", "rating": "4.7", "review": "15", "address": "--Not Provided--", "website": "http://www.bestpawforward.com.au/", "post_code": "-"}, {"title": "Ilona Dog training", "phone": "+61 424 232 172", "rating": "5.0", "review": "18", "address": "Aspley QLD, Australia", "website": "http://ilonadogtraining.com/", "post_code": "4034"}, {"title": "Gem Dog Training", "phone": "+61 452 663 408", "rating": "5.0", "review": "12", "address": "--Not Provided--", "website": "https://www.gemdogtraining.com.au/", "post_code": "-"}, {"title": "Dogtraining101", "phone": "+61 424 364 101", "rating": "4.6", "review": "53", "address": "--Not Provided--", "website": "http://www.dogtraining101.net/", "post_code": "-"}, {"title": "DSDT - DogSense Dog Training & Pet Services", "phone": "+61 497 868 666", "rating": "5.0", "review": "22", "address": "--Not Provided--", "website": "https://dsdt-dogsense-dog-training-pet-services.business.site/", "post_code": "-"}, {"title": "Excel Dog Training & Boarding Kennels", "phone": "+61 410 584 681", "rating": "4.9", "review": "41", "address": "Greenbank QLD, Australia", "website": "http://www.exceldogtraining.com.au/", "post_code": "4124"}, {"title": "Chapter One Dog Training", "phone": "+61 437 555 494", "rating": "5.0", "review": "16", "address": "--Not Provided--", "website": "https://chapteronedogtraining.com.au/", "post_code": "-"}, {"title": "Tricks N' Treats Training", "phone": "+61 449 595 458", "rating": "5.0", "review": "7", "address": "--Not Provided--", "website": "https://tricks-n-treats.square.site/", "post_code": "-"}, {"title": "Doggy Dogma - Dog Training", "phone": "+61 466 965 364", "rating": "4.3", "review": "23", "address": "Silkstone QLD, Australia", "website": "http://www.doggydogma.com.au/", "post_code": "4304"}, {"title": "Centenary Dog Obedience", "phone": "+61 492 846 113", "rating": "4.0", "review": "26", "address": "Jindalee QLD, Australia", "website": "http://www.centenarydogobedience.com.au/", "post_code": "4074"}, {"title": "Positive Response Dog Training", "phone": "+61 7 3459 2121", "rating": "4.0", "review": "11", "address": "--Not Provided--", "website": "https://www.positiveresponse.com.au/", "post_code": "-"}, {"title": "Wolfhouse", "phone": "+61 435 221 558", "rating": "4.9", "review": "130", "address": "Eagle Farm QLD, Australia", "website": "http://www.wolfhouse.com.au/", "post_code": "4009"}, {"title": "Captain K9 Gaz Jackson", "phone": "+61 419 773 022", "rating": "5.0", "review": "5", "address": "--Not Provided--", "website": "http://www.gazjackson.com/", "post_code": "-"}, {"title": "Teamwork Dogs", "phone": "+61 427 123 123", "rating": "4.3", "review": "16", "address": "Taigum QLD, Australia", "website": "http://www.teamworkdogs.com.au/", "post_code": "4018"}, {"title": "Dogman Downunder", "phone": "+61 407 131 277", "rating": "4.9", "review": "26", "address": "West Ipswich QLD, Australia", "website": "http://www.dogmandownunder.com.au/", "post_code": "3003"}, {"title": "Caboolture Sports Dog Obedience Club", "phone": "+61 450 902 520", "rating": "4.6", "review": "40", "address": "Morayfield QLD, Australia", "website": "https://www.caboolturedogobedience.com.au/", "post_code": "4506"}, {"title": "Coltrandi Pet Boarding & Training Centre kennels Cattery", "phone": "+61 7 3245 3411", "rating": "4.7", "review": "126", "address": "Gumdale QLD, Australia", "website": "http://www.coltrandi.com/", "post_code": "4154"}, {"title": "Astrolas Dog Training And Services", "phone": "+61 460 623 169", "rating": "5.0", "review": "5", "address": "--Not Provided--", "website": "https://www.astrolas.com.au/", "post_code": "-"}, {"title": "Brisbane Agility Dog Club", "phone": "--Not Provided--", "rating": "4.6", "review": "8", "address": "Carina QLD, Australia", "website": "http://brisbaneagilitydogs.com/", "post_code": "4152"}, {"title": "Metro Dog Club", "phone": "+61 422 895 776", "rating": "5.0", "review": "9", "address": "Chermside QLD, Australia", "website": "https://www.metrodogclub.com/", "post_code": "4032"}, {"title": "Pupz & Co. Daycare & Training", "phone": "+61 431 182 138", "rating": "5.0", "review": "22", "address": "Bowen Hills QLD, Australia", "website": "http://www.pupzco.com.au/", "post_code": "4805"}, {"title": "Infinite Canine: Yani Botha", "phone": "--Not Provided--", "rating": "5.0", "review": "6", "address": "--Not Provided--", "website": "https://infinitecanine.simplybook.me/", "post_code": "-"}, {"title": "Hide 'n' Seek Nosework", "phone": "+61 411 500 092", "rating": "4.9", "review": "15", "address": "Hemmant QLD, Australia", "website": "http://www.hidenseeknosework.com.au/", "post_code": "4174"}, {"title": "Animal Haus Behaviour and Training", "phone": "+61 477 676 312", "rating": "5.0", "review": "5", "address": "--Not Provided--", "website": "http://www.animalhausbehaviour.com.au/", "post_code": "-"}, {"title": "Mind Body & Bowl", "phone": "+61 411 500 092", "rating": "5.0", "review": "6", "address": "--Not Provided--", "website": "http://www.mindbodyandbowl.com.au/", "post_code": "-"}, {"title": "SOS Dogs", "phone": "+61 431 601 954", "rating": "4.1", "review": "8", "address": "Paddington QLD, Australia", "website": "http://sosdogs.com.au/", "post_code": "4064"}, {"title": "The Bounding Hound: School 4 Dogs", "phone": "+61 404 492 854", "rating": "5.0", "review": "5", "address": "--Not Provided--", "website": "http://theboundinghound.com.au/", "post_code": "-"}, {"title": "ALLDOGS Security & Training", "phone": "+61 7 3808 2677", "rating": "4.7", "review": "20", "address": "Cornubia QLD, Australia", "website": "https://alldogssecurity.com/", "post_code": "4130"}, {"title": "The Evolved Canine", "phone": "+61 411 941 011", "rating": "5.0", "review": "8", "address": "Hemmant QLD, Australia", "website": "https://theevolvedcanine.square.site/", "post_code": "4174"}, {"title": "Fellowship of the Paws Dog Training", "phone": "+61 438 781 328", "rating": "5.0", "review": "33", "address": "Thornlands QLD, Australia", "website": "http://fellowshipofthepaws.com.au/", "post_code": "4164"}, {"title": "Agility Dog Club Of Queensland", "phone": "--Not Provided--", "rating": "5.0", "review": "21", "address": "Tivoli QLD, Australia", "website": "https://adcq.com.au/", "post_code": "4305"}, {"title": "Complete K9 Brisbane", "phone": "+61 451 290 180", "rating": "5.0", "review": "90", "address": "--Not Provided--", "website": "https://completek9brisbane.com.au/", "post_code": "-"}, {"title": "Snoot Services", "phone": "+61 493 415 271", "rating": "5.0", "review": "5", "address": "--Not Provided--", "website": "http://www.snootservices.com.au/", "post_code": "-"}, {"title": "One on One Dog Training", "phone": "+61 414 498 642", "rating": "5.0", "review": "68", "address": "Cashmere QLD, Australia", "website": "http://www.oneononedogtraining.com.au/", "post_code": "4500"}, {"title": "Positive Response Dog Training", "phone": "+61 7 3459 2121", "rating": "4.9", "review": "27", "address": "--Not Provided--", "website": "http://www.positiveresponse.net.au/", "post_code": "-"}, {"title": "Sulli\u2019s Dog Training", "phone": "+61 401 580 799", "rating": "5.0", "review": "12", "address": "Alexandra Hills QLD, Australia", "website": "https://www.facebook.com/sullisdogtraining", "post_code": "4161"}, {"title": "Bark Busters Gold Coast North", "phone": "+61 1800 067 710", "rating": "4.8", "review": "25", "address": "--Not Provided--", "website": "http://www.barkbusters.com.au/", "post_code": "-"}, {"title": "Empower Assistance Dogs", "phone": "+61 7 3200 5421", "rating": "5.0", "review": "8", "address": "Loganlea QLD, Australia", "website": "http://empowerassistancedogs.org.au/", "post_code": "4131"}, {"title": "Dogtraining101", "phone": "+61 424 364 101", "rating": "5.0", "review": "3", "address": "--Not Provided--", "website": "http://www.dogtraining101.net/", "post_code": "-"}, {"title": "Dogtraining101", "phone": "+61 424 364 101", "rating": "4.5", "review": "2", "address": "Brisbane QLD, Australia", "website": "http://www.dogtraining101.net/", "post_code": "4169"}, {"title": "The Links Pet Centre - Pet Boarding Brisbane", "phone": "--Not Provided--", "rating": "4.4", "review": "127", "address": "Goodna QLD, Australia", "website": "http://thelinkspetcentre.com.au/", "post_code": "4300"}, {"title": "Harvey Dog Training", "phone": "+61 414 744 942", "rating": "5.0", "review": "7", "address": "Ormiston QLD, Australia", "website": "http://www.harveydogtraining.com.au/", "post_code": "4160"}, {"title": "Dogiology Behaviour Modification and Training", "phone": "+61 402 751 464", "rating": "4.3", "review": "43", "address": "--Not Provided--", "website": "http://www.dogiology.com.au/", "post_code": "-"}, {"title": "Odin's Canine Obedience", "phone": "+61 401 910 866", "rating": "5.0", "review": "2", "address": "--Not Provided--", "website": "https://www.instagram.com/odinscanineobedience/", "post_code": "-"}, {"title": "Training with Dognity", "phone": "+61 420 735 358", "rating": "5.0", "review": "4", "address": "--Not Provided--", "website": "http://www.trainingwithdognity.com/", "post_code": "-"}, {"title": "Progressive Dog Training", "phone": "+61 434 020 858", "rating": "5.0", "review": "2", "address": "--Not Provided--", "website": "http://progressivedogtraining.com.au/", "post_code": "-"}, {"title": "Wolfhouse", "phone": "+61 448 477 860", "rating": "5.0", "review": "11", "address": "Carindale QLD, Australia", "website": "http://www.wolfhouse.com.au/", "post_code": "4152"}, {"title": "Infinite Canine", "phone": "--Not Provided--", "rating": "5.0", "review": "4", "address": "--Not Provided--", "website": "https://infinitecanine.simplybook.me/", "post_code": "-"}, {"title": "The K9 Centre Brisbane South", "phone": "+61 1300 225 559", "rating": "5.0", "review": "1", "address": "--Not Provided--", "website": "https://www.k9centre.com.au/", "post_code": "-"}, {"title": "Oz Wagtails Pty Ltd", "phone": "--Not Provided--", "rating": "4.5", "review": "161", "address": "Darra QLD, Australia", "website": "http://www.wagtails.com.au/", "post_code": "4076"}, {"title": "Panting Paws Behavioural Training", "phone": "+61 409 636 117", "rating": "4.5", "review": "2", "address": "--Not Provided--", "website": "http://www.pantingpaws.com.au/", "post_code": "-"}, {"title": "Australian Working Dog Providers", "phone": "+61 433 528 902", "rating": "5.0", "review": "10", "address": "Morayfield QLD, Australia", "website": "https://australianworkingdogproviders.wordpress.com/%28opens%20in%20a%20new%20tab%29", "post_code": "4506"}, {"title": "K9 Elite - Mobile Dog Running", "phone": "+61 432 646 909", "rating": "5.0", "review": "4", "address": "--Not Provided--", "website": "http://k9elite.com.au/", "post_code": "-"}, {"title": "The Canine Link", "phone": "+61 487 030 804", "rating": "5.0", "review": "4", "address": "--Not Provided--", "website": "http://www.thecaninelink.com.au/", "post_code": "-"}, {"title": "Dogtraining101", "phone": "+61 424 364 101", "rating": "5.0", "review": "2", "address": "--Not Provided--", "website": "http://www.dogtraining101.net/", "post_code": "-"}, {"title": "Doggy Day Care Brisbane", "phone": "--Not Provided--", "rating": "4.6", "review": "75", "address": "South Brisbane QLD, Australia", "website": "http://www.doggydaycarebrisbane.com.au/", "post_code": "3205"}, {"title": "My Dogs Daycare", "phone": "--Not Provided--", "rating": "4.9", "review": "84", "address": "Wilston QLD, Australia", "website": "http://www.mydogsdaycare.com.au/", "post_code": "4051"}, {"title": "Canine Cubby - Activity Centre For Dogs", "phone": "+61 405 396 731", "rating": "4.4", "review": "34", "address": "Loganholme QLD, Australia", "website": "http://www.caninecubby.com.au/", "post_code": "4129"}, {"title": "SitDropStay Brisbane", "phone": "+61 1300 306 887", "rating": "5.0", "review": "2", "address": "Beachmere QLD, Australia", "website": "https://www.sitdropstay.com/dog-training-brisbane/", "post_code": "4510"}, {"title": "Aylwards Dog School", "phone": "+61 7 5464 1810", "rating": "4.8", "review": "34", "address": "--Not Provided--", "website": "http://www.aylwardsdogschool.com.au/", "post_code": "-"}, {"title": "Develwood K9 Training and Rehabilitation", "phone": "+61 459 952 338", "rating": "5.0", "review": "4", "address": "--Not Provided--", "website": "https://develwoodtraining.com.au/", "post_code": "-"}, {"title": "Dogtraining101", "phone": "+61 424 364 101", "rating": "5.0", "review": "1", "address": "--Not Provided--", "website": "http://www.dogtraining101.net/", "post_code": "-"}, {"title": "Therapy and Support Animals Australia", "phone": "+61 404 269 855", "rating": "5.0", "review": "12", "address": "Yugar QLD, Australia", "website": "https://brisbanetherapyanimals.com.au/", "post_code": "4520"}, {"title": "Bayside K9 Training", "phone": "+61 411 668 696", "rating": "5.0", "review": "3", "address": "--Not Provided--", "website": "https://www.baysidek9training.com.au/", "post_code": "-"}, {"title": "Nanna Jen's Pet Services", "phone": "+61 404 127 469", "rating": "4.3", "review": "32", "address": "--Not Provided--", "website": "http://nannajenspetservices.com/", "post_code": "-"}, {"title": "Cam Day Consulting", "phone": "--Not Provided--", "rating": "4.4", "review": "19", "address": "Priestdale QLD, Australia", "website": "http://petbehaviour.com.au/", "post_code": "4127"}, {"title": "Best Dogs Australia", "phone": "+61 406 845 316", "rating": "5.0", "review": "2", "address": "--Not Provided--", "website": "https://www.bestdogs.com.au/", "post_code": "-"}, {"title": "Taking the Lead Pet Services", "phone": "+61 435 822 668", "rating": "5.0", "review": "8", "address": "Cedar Creek QLD, Australia", "website": "https://takingtheleadps.com.au/", "post_code": "4285"}, {"title": "Oodleway", "phone": "--Not Provided--", "rating": "5.0", "review": "4", "address": "--Not Provided--", "website": "http://oodleway.co/", "post_code": "-"}, {"title": "The Complete Pet Company", "phone": "--Not Provided--", "rating": "4.1", "review": "76", "address": "Enoggera QLD, Australia", "website": "https://www.completepet.com.au/", "post_code": "4051"}, {"title": "K9 Zen", "phone": "+61 431 902 048", "rating": "5.0", "review": "1", "address": "--Not Provided--", "website": "http://www.k9zen.com.au/", "post_code": "-"}, {"title": "Centenary Pet Companion", "phone": "+61 431 287 966", "rating": "5.0", "review": "6", "address": "--Not Provided--", "website": "http://www.centenarypetcompanion.com.au/", "post_code": "-"}, {"title": "Logan All Breeds Dog Obedience Club", "phone": "+61 415 611 121", "rating": "4.5", "review": "50", "address": "Kingston QLD, Australia", "website": "http://www.loganobedience.org.au/", "post_code": "4114"}, {"title": "Australian Canine Group - Detection Dog Services", "phone": "+61 411 530 861", "rating": "5.0", "review": "1", "address": "--Not Provided--", "website": "https://www.auscanine.com.au/", "post_code": "-"}, {"title": "Positive Response Dog Training", "phone": "+61 7 3459 2121", "rating": "4.0", "review": "2", "address": "--Not Provided--", "website": "https://www.positiveresponse.com.au/", "post_code": "-"}, {"title": "Hanrob Pet Hotels Brisbane", "phone": "--Not Provided--", "rating": "4.3", "review": "298", "address": "Eagle Farm QLD, Australia", "website": "https://hanrob.com.au/locations/brisbane/", "post_code": "4009"}, {"title": "Treat Me Calm Dog Training", "phone": "+61 400 297 266", "rating": "5.0", "review": "4", "address": "--Not Provided--", "website": "https://www.treatmecalmdogtraining.com.au/", "post_code": "-"}, {"title": "WOLF WITHIN Dog Training", "phone": "+61 431 369 625", "rating": "5.0", "review": "157", "address": "Banksia Beach QLD, Australia", "website": "https://www.wolfwithindogtraining.com/", "post_code": "2216"}, {"title": "Pet Certified Australia", "phone": "+61 7 3488 0398", "rating": "4.4", "review": "7", "address": "Shailer Park QLD, Australia", "website": "http://petcertified.com.au/", "post_code": "4128"}, {"title": "Here to Help Dog Training", "phone": "+61 432 867 192", "rating": "5.0", "review": "1", "address": "Crestmead QLD, Australia", "website": "https://heretohelpdogtraining.business.site/?utm_source=gmb&utm_medium=referral", "post_code": "4132"}, {"title": "Animal Stars Dog Training", "phone": "+61 419 032 996", "rating": "5.0", "review": "17", "address": "Guanaba QLD, Australia", "website": "https://animalstars.com.au/", "post_code": "4210"}, {"title": "PetCloud | Brisbane Pet Sitters and Dog Walkers", "phone": "--Not Provided--", "rating": "4.6", "review": "114", "address": "--Not Provided--", "website": "https://www.petcloud.com.au/?UTM_source=GMB_listing&UTM_medium=organic&utm_source=google&utm_medium=organic&utm_campaign=Google%20My%20Business&utm_content=PetCloud%20Pet%20Sitting%20and%20Dog%20Walking%20-%20Cannon%20Hill&utm_term=plcid_3560311224337588168", "post_code": "-"}, {"title": "Best Friends Pets West Ipswich", "phone": "--Not Provided--", "rating": "4.4", "review": "461", "address": "West Ipswich QLD, Australia", "website": "https://www.bestfriendspets.com.au/store-locator/west-ipswich?utm_source=googlemybusiness&utm_medium=organic&utm_campaign=gmb-website", "post_code": "3003"}, {"title": "Separation Anxiety In Dogs Decoded", "phone": "+61 421 057 129", "rating": "5.0", "review": "5", "address": "--Not Provided--", "website": "http://nessjones.com/", "post_code": "-"}, {"title": "One With The Dog", "phone": "--Not Provided--", "rating": "5.0", "review": "1", "address": "Morayfield QLD, Australia", "website": "http://www.onewiththedog.com.au/", "post_code": "4506"}]