[{"title": "Kloud9Pet", "phone": "+61 423 069 067", "rating": "4.5", "review": "111", "address": "South Melbourne VIC, Australia", "website": "http://kloud9pet.com.au/?nocache=1", "post_code": "3205"}, {"title": "Ange Pet Salon Port Melbourne", "phone": "+61 3 9646 5150", "rating": "4.3", "review": "115", "address": "Port Melbourne VIC, Australia", "website": "http://www.murphyspaw.com.au/", "post_code": "3207"}, {"title": "She Walks", "phone": "--Not Provided--", "rating": "5.0", "review": "45", "address": "--Not Provided--", "website": "https://shewalks.com.au/?utm_source=Google&utm_medium=Organic&utm_campaign=GMB", "post_code": "-"}, {"title": "John Paul Pooches", "phone": "+61 449 588 247", "rating": "5.0", "review": "29", "address": "South Melbourne VIC, Australia", "website": "https://johnpaulpooches.com.au/", "post_code": "3205"}, {"title": "Hachi & Co - Melbourne City | Dog Grooming", "phone": "--Not Provided--", "rating": "4.9", "review": "20", "address": "Melbourne VIC, Australia", "website": "http://www.hachiandco.com.au/", "post_code": "3002"}, {"title": "Groom-me by Lisa-Marie", "phone": "+61 3 9939 1079", "rating": "4.5", "review": "139", "address": "St Kilda VIC, Australia", "website": "http://www.groom-me.com.au/", "post_code": "3021"}, {"title": "Foxy's Mobile Dog Washing & Grooming Service", "phone": "+61 407 965 085", "rating": "4.0", "review": "30", "address": "--Not Provided--", "website": "http://foxysmobiledogwash.com.au/", "post_code": "-"}, {"title": "Top 2 Tail", "phone": "+61 448 178 381", "rating": "4.4", "review": "72", "address": "Murrumbeena VIC, Australia", "website": "http://www.top2tailmelbourne.com/", "post_code": "3163"}, {"title": "Shaggy Doo Mobile Dog Grooming", "phone": "+61 421 178 517", "rating": "5.0", "review": "39", "address": "St Kilda East VIC, Australia", "website": "http://www.shaggydoo.com.au/", "post_code": "3021"}, {"title": "Pinup Pooch Dog Grooming", "phone": "+61 421 804 547", "rating": "5.0", "review": "41", "address": "Collingwood VIC, Australia", "website": "https://www.facebook.com/Pinup-Pooch-Dog-Grooming-503615656437411/", "post_code": "3066"}, {"title": "Sandy Paws Dog Grooming Reservoir | Dog grooming near Preston | Thomastown | Bundoora", "phone": "+61 3 8590 8901", "rating": "4.9", "review": "136", "address": "Reservoir VIC, Australia", "website": "https://sandypaws3073.square.site/", "post_code": "3073"}, {"title": "Petiquette by Caroline \ud83d\udc15 Dog Grooming & Wash", "phone": "+61 452 056 723", "rating": "4.6", "review": "130", "address": "Elwood VIC, Australia", "website": "https://www.petiquettebycaroline.com.au/", "post_code": "3184"}, {"title": "Wen's Dog Grooming Salon", "phone": "+61 3 8528 3422", "rating": "4.2", "review": "75", "address": "Malvern VIC, Australia", "website": "https://www.wensdoggrooming.com/", "post_code": "3144"}, {"title": "Crackin Dog Grooming", "phone": "+61 490 410 839", "rating": "4.6", "review": "65", "address": "Ascot Vale VIC, Australia", "website": "http://www.crackindoggrooming.com.au/", "post_code": "3032"}, {"title": "Ange Pet Salon St Kilda", "phone": "+61 422 681 955", "rating": "4.7", "review": "28", "address": "St Kilda VIC, Australia", "website": "https://www.alphapet.com.au/pet-grooming-services/", "post_code": "3021"}, {"title": "My Fluffy Dog Grooming Services", "phone": "+61 499 310 013", "rating": "5.0", "review": "31", "address": "Richmond VIC, Australia", "website": "http://www.myfluffydog.com/", "post_code": "3121"}, {"title": "Pretty Kitty!", "phone": "+61 3 9489 4334", "rating": "4.9", "review": "143", "address": "Northcote VIC, Australia", "website": "https://www.prettykittyvic.com.au/", "post_code": "3070"}, {"title": "Superb Dog Grooming", "phone": "+61 406 298 111", "rating": "4.9", "review": "221", "address": "Wheelers Hill VIC, Australia", "website": "http://www.superbgrooming.com.au/", "post_code": "3150"}, {"title": "P2 Pets ( Dog & Cat Grooming )", "phone": "+61 451 229 274", "rating": "4.7", "review": "69", "address": "Caulfield North VIC, Australia", "website": "http://www.p2pets.com.au/", "post_code": "3161"}, {"title": "Western Dogwash", "phone": "+61 409 806 121", "rating": "4.1", "review": "26", "address": "--Not Provided--", "website": "http://westerndogwash.com.au/", "post_code": "-"}, {"title": "Tani's Mobile Doggy Wash", "phone": "+61 434 256 817", "rating": "4.3", "review": "53", "address": "--Not Provided--", "website": "http://www.tanismobiledoggywash.com.au/", "post_code": "-"}, {"title": "Howdy Dog Grooming", "phone": "+61 421 880 408", "rating": "4.9", "review": "13", "address": "--Not Provided--", "website": "http://www.howdydoggrooming.com/", "post_code": "-"}, {"title": "K9 Design Studio | Reservoir Dog Grooming", "phone": "+61 421 865 850", "rating": "4.7", "review": "105", "address": "Reservoir VIC, Australia", "website": "http://www.facebook.com/k9designstudio", "post_code": "3073"}, {"title": "Doggies Day Out Dog Grooming", "phone": "+61 403 418 835", "rating": "4.3", "review": "97", "address": "Bentleigh VIC, Australia", "website": "https://www.doggiesdayout.com.au/", "post_code": "3165"}, {"title": "The Pawfect Touch - Dog Grooming Salon, Dog wash Oakleigh", "phone": "+61 452 303 400", "rating": "4.7", "review": "19", "address": "--Not Provided--", "website": "https://www.thepawfecttouchsalon.com.au/", "post_code": "-"}, {"title": "The Dog Dazzlers", "phone": "+61 3 9808 3289", "rating": "4.7", "review": "149", "address": "Burwood VIC, Australia", "website": "https://thedogdazzlers.com.au/?utm_source=GMB&utm_medium=organic", "post_code": "3125"}, {"title": "Dogs of the North", "phone": "+61 425 717 119", "rating": "4.9", "review": "38", "address": "Northcote VIC, Australia", "website": "http://www.dogsofthenorth.com.au/", "post_code": "3070"}, {"title": "Transpawmers Dog Grooming & Boutique", "phone": "+61 410 990 344", "rating": "4.3", "review": "35", "address": "Preston VIC, Australia", "website": "https://www.facebook.com/transpawmers/", "post_code": "3072"}, {"title": "Diva Dogs Dog Grooming", "phone": "+61 421 280 530", "rating": "4.3", "review": "57", "address": "Oakleigh VIC, Australia", "website": "http://www.divadogs.com.au/", "post_code": "3166"}, {"title": "Spa Bark Dog Grooming", "phone": "+61 3 9370 1749", "rating": "4.1", "review": "116", "address": "Moonee Ponds VIC, Australia", "website": "http://www.spabark.com.au/", "post_code": "3039"}, {"title": "The Dogs Lounge", "phone": "+61 429 147 755", "rating": "4.7", "review": "77", "address": "Thornbury VIC, Australia", "website": "http://www.thedogslounge.com.au/", "post_code": "3071"}, {"title": "Pet Art Carlton North", "phone": "--Not Provided--", "rating": "4.3", "review": "80", "address": "Carlton North VIC, Australia", "website": "https://www.petart.net.au/", "post_code": "3053"}, {"title": "Kylies Cat Grooming Services", "phone": "+61 410 553 835", "rating": "4.6", "review": "94", "address": "Derrimut VIC, Australia", "website": "https://www.kyliescatgroomingservices.com.au/", "post_code": "3030"}, {"title": "Pitter Patter Paws Melbourne", "phone": "--Not Provided--", "rating": "4.6", "review": "109", "address": "Flemington VIC, Australia", "website": "http://www.pppmelbourne.com.au/", "post_code": "3031"}, {"title": "Blue Wheelers Caulfield", "phone": "+61 458 156 063", "rating": "4.9", "review": "10", "address": "--Not Provided--", "website": "http://www.bluewheelers.com.au/mobile-dog-grooming/blue-wheelers-caulfield/", "post_code": "-"}, {"title": "Paws & Pose", "phone": "+61 430 378 828", "rating": "4.8", "review": "33", "address": "Cberwell VIC, Australia", "website": "https://pawsandpose.business.site/", "post_code": "-"}, {"title": "Uncanny Animals", "phone": "+61 400 640 844", "rating": "5.0", "review": "101", "address": "Yarraville VIC, Australia", "website": "http://uncannyanimals.com/", "post_code": "3013"}, {"title": "Poochi Grooming", "phone": "+61 478 815 817", "rating": "4.8", "review": "36", "address": "Pascoe Vale South VIC, Australia", "website": "http://www.poochigrooming.com/", "post_code": "3044"}, {"title": "Mostly Mutts Pet Salon", "phone": "+61 3 9387 4504", "rating": "4.8", "review": "42", "address": "Brunswick West VIC, Australia", "website": "http://www.mmsalonbrunswick.wixsite.com/mostlymutts", "post_code": "3056"}, {"title": "Paw Parlour Dog Grooming Salon", "phone": "+61 432 118 960", "rating": "4.9", "review": "32", "address": "Doncaster VIC, Australia", "website": "https://www.pawparlourdoggrooming.com/", "post_code": "3108"}, {"title": "The Pink Poodle Dog Grooming", "phone": "+61 405 412 941", "rating": "4.7", "review": "12", "address": "Mount Waverley VIC, Australia", "website": "http://www.thepinkpoodledoggrooming.com.au/", "post_code": "3930"}, {"title": "Perros Coquetos", "phone": "+61 3 9818 0947", "rating": "4.6", "review": "26", "address": "Hawthorn VIC, Australia", "website": "http://www.perroscoquetos.com.au/", "post_code": "3122"}, {"title": "Circle of Fluff Dog Grooming", "phone": "--Not Provided--", "rating": "5.0", "review": "62", "address": "St Kilda VIC, Australia", "website": "https://www.circleoffluff.com.au/", "post_code": "3021"}, {"title": "Simply Stylish Dog Grooming Salon", "phone": "+61 431 984 684", "rating": "4.9", "review": "69", "address": "Balwyn North VIC, Australia", "website": "http://simplystylishdoggrooming.com.au/", "post_code": "3103"}, {"title": "Beanfeet Dog Grooming, Doggy Daycare and Pet Store Tullamarine", "phone": "+61 3 8658 1218", "rating": "4.3", "review": "87", "address": "Tullarine VIC, Australia", "website": "http://www.beanfeetdoggrooming.com.au/", "post_code": "-"}, {"title": "Doggy Dooz Dog Grooming", "phone": "+61 3 9687 0299", "rating": "4.5", "review": "145", "address": "Seddon VIC, Australia", "website": "https://doggydooz.com.au/", "post_code": "3011"}, {"title": "Yuppy Puppy Day Spa", "phone": "+61 3 9888 4993", "rating": "4.7", "review": "27", "address": "Balwyn North VIC, Australia", "website": "https://yuppypuppydayspa.com.au/", "post_code": "3103"}, {"title": "Diggiddydoggydaycare", "phone": "--Not Provided--", "rating": "4.7", "review": "97", "address": "South Melbourne VIC, Australia", "website": "http://digdog.com.au/", "post_code": "3205"}, {"title": "Animal Mad Dog Grooming", "phone": "+61 402 736 295", "rating": "5.0", "review": "44", "address": "Wheelers Hill VIC, Australia", "website": "http://www.animalmadpetgrooming.com/", "post_code": "3150"}, {"title": "Loving Lather dog grooming", "phone": "+61 452 068 251", "rating": "4.4", "review": "25", "address": "Caulfield South VIC, Australia", "website": "http://lovinglather.com.au/", "post_code": "3161"}, {"title": "Jim's Dog Wash", "phone": "--Not Provided--", "rating": "4.2", "review": "5", "address": "--Not Provided--", "website": "https://jimsdogwash.net.au/franchisees/kew/", "post_code": "-"}, {"title": "Wag & Bone Dog Grooming", "phone": "+61 401 332 762", "rating": "5.0", "review": "37", "address": "Brunswick VIC, Australia", "website": "http://wagandbone.net.au/", "post_code": "3056"}, {"title": "Local Dog Groomers", "phone": "+61 3 7018 0705", "rating": "5.0", "review": "8", "address": "--Not Provided--", "website": "https://www.localdoggroomers.com.au/", "post_code": "-"}, {"title": "Qpaw Pet Grooming", "phone": "+61 478 840 456", "rating": "4.7", "review": "39", "address": "Templestowe Lower VIC, Australia", "website": "https://qpaw-pet-grooming.business.site/?utm_source=gmb&utm_medium=referral", "post_code": "3106"}, {"title": "Shampers Dog Grooming Salon", "phone": "+61 423 737 356", "rating": "4.8", "review": "74", "address": "Hillside VIC, Australia", "website": "https://shampers-dog-grooming-salon.business.site/?utm_source=gmb&utm_medium=referral", "post_code": "3037"}, {"title": "Aunty Viv's Dog Grooming", "phone": "+61 448 438 752", "rating": "5.0", "review": "21", "address": "Coburg VIC, Australia", "website": "http://www.auntyvivsdogs.com.au/", "post_code": "3058"}, {"title": "The Happy Dog Hub", "phone": "+61 3 9498 6073", "rating": "5.0", "review": "33", "address": "Thornbury VIC, Australia", "website": "https://www.thehappydoghub.com.au/", "post_code": "3071"}, {"title": "Daisy Paw\u2019s dog grooming", "phone": "+61 408 339 201", "rating": "5.0", "review": "10", "address": "Avondale Heights VIC, Australia", "website": "https://www.daisypawsdoggrooming.com/", "post_code": "3034"}, {"title": "Spitz Groom", "phone": "+61 477 489 129", "rating": "5.0", "review": "62", "address": "Carlton North VIC, Australia", "website": "http://www.spitzgroom.com.au/", "post_code": "3053"}, {"title": "My Favourite Dog Grooming salon", "phone": "+61 402 214 167", "rating": "4.9", "review": "68", "address": "Fitzroy North VIC, Australia", "website": "http://myfavouritedogsalon.com/", "post_code": "3068"}, {"title": "Northern and Western Mobile Dogwash", "phone": "+61 420 533 534", "rating": "4.8", "review": "243", "address": "--Not Provided--", "website": "http://www.northernmobiledogwash.com.au/", "post_code": "-"}, {"title": "Kate\u2019s Top Dog Grooming of Rosanna", "phone": "+61 427 040 378", "rating": "4.5", "review": "26", "address": "Rosanna VIC, Australia", "website": "http://www.katestopdoggrooming.com.au/", "post_code": "3084"}, {"title": "Cruizi Jacuzzi Dog Grooming", "phone": "+61 421 900 090", "rating": "4.9", "review": "27", "address": "Airport West VIC, Australia", "website": "http://cruizijacuzzi.com.au/", "post_code": "3042"}, {"title": "Muddy Dogs - Dog Grooming & Pet Supplies", "phone": "+61 425 850 842", "rating": "4.4", "review": "37", "address": "St Albans VIC, Australia", "website": "https://www.muddydogspetsupplies.com.au/", "post_code": "3021"}, {"title": "Fluffy Puppies Dog Grooming Pty Ltd", "phone": "+61 408 184 298", "rating": "5.0", "review": "43", "address": "Mont Albert North VIC, Australia", "website": "http://www.fluffypuppiesgrooming.com.au/", "post_code": "3129"}, {"title": "Clippers Expert Hair Care for Dogs", "phone": "+61 3 9803 7070", "rating": "4.9", "review": "72", "address": "Glen Waverley VIC, Australia", "website": "http://www.clippersgrooming.com.au/", "post_code": "3150"}, {"title": "Best Friends Pets Richmond", "phone": "--Not Provided--", "rating": "4.7", "review": "169", "address": "Richmond VIC, Australia", "website": "https://www.bestfriendspets.com.au/store-locator/richmond?utm_source=googlemybusiness&utm_medium=organic&utm_campaign=gmb-website", "post_code": "3121"}, {"title": "Joni & Co", "phone": "+61 3 9069 9907", "rating": "4.5", "review": "37", "address": "Fitzroy VIC, Australia", "website": "https://www.joniandco.com.au/", "post_code": "3068"}, {"title": "Carnegie Mobile Dog Groomers", "phone": "+61 3 8592 4755", "rating": "4.7", "review": "6", "address": "--Not Provided--", "website": "https://www.carnegiedoggrooming.com.au/", "post_code": "-"}, {"title": "AUSDOG Grooming", "phone": "+61 422 066 816", "rating": "4.7", "review": "183", "address": "Essendon VIC, Australia", "website": "http://www.ausdoggrooming.com.au/", "post_code": "3040"}, {"title": "Smooch Ya Pooch Dog Grooming Salon", "phone": "+61 412 942 578", "rating": "4.8", "review": "35", "address": "Altona Meadows VIC, Australia", "website": "https://www.smoochyapooch.com.au/", "post_code": "3018"}, {"title": "Miso and me dog spa", "phone": "+61 434 354 984", "rating": "5.0", "review": "15", "address": "Prahran VIC, Australia", "website": "http://www.misoandmedogspa.com.au/", "post_code": "3181"}, {"title": "Williamstown Dog Grooming", "phone": "+61 3 9397 6998", "rating": "4.1", "review": "40", "address": "Willistown VIC, Australia", "website": "http://www.williamstowndoggrooming.com.au/", "post_code": "-"}, {"title": "Wagtime Co.", "phone": "--Not Provided--", "rating": "5.0", "review": "18", "address": "Cberwell VIC, Australia", "website": "http://wagtime.co/", "post_code": "-"}, {"title": "Get Fluffed Mobile Dog Grooming", "phone": "+61 431 554 795", "rating": "4.6", "review": "9", "address": "--Not Provided--", "website": "https://www.facebook.com/getfluffedmobiledoggrooming/", "post_code": "-"}, {"title": "Jeep's Dog Grooming (Glenroy)", "phone": "+61 432 289 265", "rating": "4.6", "review": "34", "address": "Glenroy VIC, Australia", "website": "https://www.facebook.com/Jeeps-Dog-Grooming-244150819482399/", "post_code": "3046"}, {"title": "Jim's Dog Wash", "phone": "--Not Provided--", "rating": "4.3", "review": "6", "address": "--Not Provided--", "website": "https://jimsdogwash.net.au/franchisees/west-footscray/", "post_code": "-"}, {"title": "M Dog Grooming Salon", "phone": "--Not Provided--", "rating": "4.3", "review": "29", "address": "Mulgrave VIC, Australia", "website": "https://mdogsalon.wixsite.com/mdog", "post_code": "3170"}, {"title": "Hachi", "phone": "+61 435 849 844", "rating": "4.3", "review": "86", "address": "South Yarra VIC, Australia", "website": "http://hachi-melbourne.com.au/", "post_code": "3205"}, {"title": "Furry Tale Pet Grooming", "phone": "+61 426 391 229", "rating": "5.0", "review": "24", "address": "Glen Waverley VIC, Australia", "website": "https://furrytale.me/", "post_code": "3150"}, {"title": "Salon Sebastian", "phone": "+61 401 022 186", "rating": "5.0", "review": "15", "address": "Brunswick VIC, Australia", "website": "http://salonsebastian.com.au/", "post_code": "3056"}, {"title": "Dooba Organic DIY Dog Wash", "phone": "+61 3 9005 7029", "rating": "4.8", "review": "42", "address": "Brunswick West VIC, Australia", "website": "http://www.dooba.com.au/", "post_code": "3056"}, {"title": "Baja's Groomer", "phone": "+61 3 9077 7633", "rating": "4.7", "review": "19", "address": "Preston VIC, Australia", "website": "https://bajasgroomer.com/", "post_code": "3072"}, {"title": "Furry Clippers Pet Grooming", "phone": "+61 401 276 662", "rating": "5.0", "review": "23", "address": "Donvale VIC, Australia", "website": "http://furryclippers.com.au/", "post_code": "3111"}, {"title": "No Woofing Around Dog Grooming", "phone": "--Not Provided--", "rating": "4.8", "review": "20", "address": "Altona Meadows VIC, Australia", "website": "http://www.facebook.com/nowoofingaround", "post_code": "3018"}, {"title": "Petstock South Melbourne", "phone": "--Not Provided--", "rating": "4.5", "review": "366", "address": "South Melbourne VIC, Australia", "website": "https://www.petstock.com.au/pages/store/petstock-south-melbourne?utm_source=google&utm_medium=organic&utm_campaign=Google%20My%20Business&utm_content=PETstock%20South%20Melbourne%20-%20South%20Melbourne&utm_term=plcid_7112500915902968053", "post_code": "3205"}, {"title": "Dooba Organic DIY Dog Wash", "phone": "+61 3 9005 7029", "rating": "4.8", "review": "42", "address": "Brunswick West VIC, Australia", "website": "http://www.dooba.com.au/", "post_code": "3056"}, {"title": "Howdy Dog Grooming", "phone": "+61 421 880 408", "rating": "4.9", "review": "13", "address": "--Not Provided--", "website": "http://www.howdydoggrooming.com/", "post_code": "-"}, {"title": "Get Fluffed Mobile Dog Grooming", "phone": "+61 431 554 795", "rating": "4.6", "review": "9", "address": "--Not Provided--", "website": "https://www.facebook.com/getfluffedmobiledoggrooming/", "post_code": "-"}, {"title": "Fantastic Felines Cat Grooming", "phone": "+61 478 970 420", "rating": "4.9", "review": "91", "address": "Moorabbin VIC, Australia", "website": "http://www.fantasticfelines.com.au/", "post_code": "3189"}, {"title": "Belvedere's Pet Supplies & Dog Grooming", "phone": "--Not Provided--", "rating": "4.7", "review": "40", "address": "Ivanhoe VIC, Australia", "website": "http://www.belvederespetsupplies.com.au/", "post_code": "3079"}, {"title": "The Grooming Studio", "phone": "+61 408 133 007", "rating": "5.0", "review": "7", "address": "Brooklyn VIC, Australia", "website": "https://www.fresha.com/a/the-grooming-studio-brooklyn-brooklyn-83-cypress-avenue-s08feufi", "post_code": "5032"}, {"title": "Kate\u2019s Top Dog Grooming of Rosanna", "phone": "+61 427 040 378", "rating": "4.5", "review": "26", "address": "Rosanna VIC, Australia", "website": "http://www.katestopdoggrooming.com.au/", "post_code": "3084"}, {"title": "Woofers World", "phone": "--Not Provided--", "rating": "4.4", "review": "110", "address": "Ormond VIC, Australia", "website": "http://www.woofersworld.com.au/", "post_code": "3204"}, {"title": "Styling Poochies Dog Grooming", "phone": "+61 433 170 942", "rating": "5.0", "review": "10", "address": "Sydenh VIC, Australia", "website": "http://styling-poochies-dog-grooming.business.site/", "post_code": "-"}, {"title": "All Paws Pet Grooming", "phone": "+61 416 522 017", "rating": "4.3", "review": "12", "address": "Mordialloc VIC, Australia", "website": "http://www.allpawspetgrooming.com.au/", "post_code": "3195"}, {"title": "Elegant Dog Grooming Service", "phone": "+61 421 218 723", "rating": "4.3", "review": "15", "address": "Lalor VIC, Australia", "website": "http://www.elegantdog.com.au/", "post_code": "3075"}, {"title": "DOGUE Williamstown", "phone": "+61 3 9975 7443", "rating": "4.6", "review": "49", "address": "Willistown VIC, Australia", "website": "https://dogue.com.au/pet-shops/williamstown/", "post_code": "-"}, {"title": "Fresh Pooch Mobile Dog Grooming", "phone": "+61 404 962 812", "rating": "5.0", "review": "3", "address": "--Not Provided--", "website": "https://www.instagram.com/invites/contact/?i=6vwo3fhtnshq&utm_content=mkstznc", "post_code": "-"}, {"title": "Best Friends Pets Richmond", "phone": "--Not Provided--", "rating": "4.7", "review": "169", "address": "Richmond VIC, Australia", "website": "https://www.bestfriendspets.com.au/store-locator/richmond?utm_source=googlemybusiness&utm_medium=organic&utm_campaign=gmb-website", "post_code": "3121"}, {"title": "Urban Paws", "phone": "--Not Provided--", "rating": "4.7", "review": "152", "address": "Yarraville VIC, Australia", "website": "http://www.urbanpaws.com.au/", "post_code": "3013"}, {"title": "DOGUE Brighton", "phone": "--Not Provided--", "rating": "4.4", "review": "124", "address": "Brighton VIC, Australia", "website": "https://dogue.com.au/pet-shops/brighton/", "post_code": "3186"}, {"title": "Shaggy Tails Dog Grooming", "phone": "+61 418 147 993", "rating": "5.0", "review": "8", "address": "Watsonia VIC, Australia", "website": "http://www.shaggytails.com.au/", "post_code": "3087"}, {"title": "Big And Small Dog Grooming", "phone": "+61 416 339 486", "rating": "5.0", "review": "9", "address": "Eaglemont VIC, Australia", "website": "https://www.facebook.com/bigandsmalldoggrooming64/", "post_code": "3084"}, {"title": "Jim's Dog Wash", "phone": "--Not Provided--", "rating": "4.3", "review": "6", "address": "--Not Provided--", "website": "https://jimsdogwash.net.au/franchisees/west-footscray/", "post_code": "-"}, {"title": "Big And Small Dog Grooming", "phone": "+61 416 339 486", "rating": "5.0", "review": "9", "address": "Eaglemont VIC, Australia", "website": "https://www.facebook.com/bigandsmalldoggrooming64/", "post_code": "3084"}, {"title": "Canterbury Dog Grooming", "phone": "+61 3 9836 9836", "rating": "4.4", "review": "12", "address": "Canterbury VIC, Australia", "website": "http://www.canterburydoggrooming.com.au/", "post_code": "3126"}, {"title": "Masters Pet Grooming", "phone": "+61 3 8316 1056", "rating": "4.5", "review": "144", "address": "Point Cook VIC, Australia", "website": "http://www.masterspetgrooming.com.au/", "post_code": "3030"}, {"title": "DOGUE Williamstown", "phone": "+61 3 9975 7443", "rating": "4.6", "review": "49", "address": "Willistown VIC, Australia", "website": "https://dogue.com.au/pet-shops/williamstown/", "post_code": "-"}, {"title": "Aussie Pooch Mobile Dog Wash Caroline Springs", "phone": "+61 1300 369 369", "rating": "4.2", "review": "6", "address": "--Not Provided--", "website": "https://www.aussiepm.com.au/dog-wash-grooming/caroline-springs", "post_code": "-"}, {"title": "Elegant Dog Grooming Service", "phone": "+61 421 218 723", "rating": "4.3", "review": "15", "address": "Lalor VIC, Australia", "website": "http://www.elegantdog.com.au/", "post_code": "3075"}, {"title": "SUPER AFRO DOG GROOMING", "phone": "+61 421 485 188", "rating": "5.0", "review": "5", "address": "--Not Provided--", "website": "http://superafro.com.au/", "post_code": "-"}, {"title": "Urban Paws", "phone": "--Not Provided--", "rating": "4.7", "review": "152", "address": "Yarraville VIC, Australia", "website": "http://www.urbanpaws.com.au/", "post_code": "3013"}, {"title": "Ginger & Gray", "phone": "+61 435 466 586", "rating": "5.0", "review": "117", "address": "Port Melbourne VIC, Australia", "website": "https://www.gingerandgray.com.au/", "post_code": "3207"}, {"title": "Doggy Dog Grooming", "phone": "+61 478 290 305", "rating": "5.0", "review": "16", "address": "Bellfield VIC, Australia", "website": "https://www.doggydoggrooming.com.au/", "post_code": "3081"}, {"title": "DOGUE Brighton", "phone": "--Not Provided--", "rating": "4.4", "review": "124", "address": "Brighton VIC, Australia", "website": "https://dogue.com.au/pet-shops/brighton/", "post_code": "3186"}, {"title": "Blue Wheelers Beaumaris", "phone": "+61 421 801 332", "rating": "4.8", "review": "5", "address": "--Not Provided--", "website": "https://www.bluewheelers.com.au/mobile-dog-grooming/beaumaris-vic/", "post_code": "-"}, {"title": "Modern Dog Grooming", "phone": "+61 466 005 572", "rating": "5.0", "review": "7", "address": "Tarneit VIC, Australia", "website": "http://www.moderndoggrooming.com.au/", "post_code": "3029"}, {"title": "Dog grooming by Nat", "phone": "+61 420 214 210", "rating": "5.0", "review": "20", "address": "Thornbury VIC, Australia", "website": "https://www.facebook.com/doggroomingbynat/", "post_code": "3071"}, {"title": "Petstock Prahran", "phone": "--Not Provided--", "rating": "4.5", "review": "206", "address": "Prahran VIC, Australia", "website": "https://www.petstock.com.au/pages/store/petstock-prahran?utm_source=google&utm_medium=organic&utm_campaign=Google%20My%20Business&utm_content=PETstock%20Prahran%20-%20Prahran&utm_term=plcid_4623127972699974805", "post_code": "3181"}, {"title": "Absolute PAWfection Dog Grooming", "phone": "+61 415 423 822", "rating": "5.0", "review": "5", "address": "Plumpton VIC, Australia", "website": "http://absolutepawfection.com.au/", "post_code": "2761"}, {"title": "Barks & Bubbles Dog Grooming Salon", "phone": "+61 402 729 722", "rating": "4.8", "review": "8", "address": "Langwarrin VIC, Australia", "website": "https://www.facebook.com/barksandbubblesdoggroomingsalon/", "post_code": "3910"}, {"title": "The Salon at Pitter Patter Paws", "phone": "+61 493 529 963", "rating": "5.0", "review": "9", "address": "Flemington VIC, Australia", "website": "http://pppmelbourne.com.au/", "post_code": "3031"}, {"title": "Urban Furdo Pet Styling", "phone": "+61 435 111 543", "rating": "5.0", "review": "4", "address": "--Not Provided--", "website": "https://urban-furdo-pet-styling.square.site/", "post_code": "-"}, {"title": "LOCAL MOBILE DOG GROOMING SERVICES", "phone": "+61 430 910 298", "rating": "5.0", "review": "2", "address": "Balwyn VIC, Australia", "website": "https://local-mobile-dog-grooming-services.business.site/?utm_source=gmb&utm_medium=referral", "post_code": "3103"}, {"title": "Pulse Dog Washing & Grooming Point Cook", "phone": "+61 484 337 684", "rating": "5.0", "review": "2", "address": "--Not Provided--", "website": "https://www.pulsedogwash.com.au/dog-washing-point-cook/", "post_code": "-"}, {"title": "TopKnotz Dog Grooming", "phone": "+61 432 611 900", "rating": "4.0", "review": "8", "address": "Clayton South VIC, Australia", "website": "https://www.facebook.com/Topknotz-Dog-Grooming-104679797696300/", "post_code": "3168"}, {"title": "Petbarn", "phone": "--Not Provided--", "rating": "4.4", "review": "277", "address": "Brunswick VIC, Australia", "website": "https://www.petbarn.com.au/store-finder/brunswick?utm_source=google&utm_medium=organic&utm_campaign=local_seo&utm_term=brunswick", "post_code": "3056"}, {"title": "Angelic Grooms", "phone": "+61 406 616 847", "rating": "5.0", "review": "4", "address": "--Not Provided--", "website": "https://richardudo.wixsite.com/angelicgrooms", "post_code": "-"}, {"title": "Jim's Dog Wash", "phone": "--Not Provided--", "rating": "5.0", "review": "3", "address": "--Not Provided--", "website": "https://jimsdogwash.net.au/", "post_code": "-"}, {"title": "Dooba Organic DIY Dog Wash", "phone": "+61 3 9005 7029", "rating": "5.0", "review": "6", "address": "--Not Provided--", "website": "http://www.dooba.com.au/", "post_code": "-"}, {"title": "Pawadise Pets", "phone": "+61 405 916 997", "rating": "5.0", "review": "3", "address": "--Not Provided--", "website": "http://www.pawadisepets.com.au/", "post_code": "-"}, {"title": "Johnston Street Veterinary Clinic", "phone": "--Not Provided--", "rating": "4.7", "review": "236", "address": "Fitzroy VIC, Australia", "website": "http://www.jsvet.com.au/", "post_code": "3068"}, {"title": "Jim's Dog Wash", "phone": "--Not Provided--", "rating": "5.0", "review": "2", "address": "--Not Provided--", "website": "https://booking.moego.pet/go/?name=JimsDogWashMoorabbin", "post_code": "-"}, {"title": "Studio Pets", "phone": "--Not Provided--", "rating": "4.7", "review": "37", "address": "Sandringh VIC, Australia", "website": "http://facebook.com/studiopets3191", "post_code": "-"}, {"title": "Pug Friday and Friends - Mobile Dog Wash", "phone": "--Not Provided--", "rating": "5.0", "review": "2", "address": "--Not Provided--", "website": "http://facebook.com/pugfridayandfriends", "post_code": "-"}, {"title": "Angelic Grooms", "phone": "+61 406 616 847", "rating": "5.0", "review": "4", "address": "--Not Provided--", "website": "https://richardudo.wixsite.com/angelicgrooms", "post_code": "-"}, {"title": "Nellys ark", "phone": "--Not Provided--", "rating": "4.9", "review": "89", "address": "Fairfield VIC, Australia", "website": "https://www.nellysark.com.au/", "post_code": "2165"}, {"title": "TopKnotz Dog Grooming", "phone": "+61 432 611 900", "rating": "4.0", "review": "8", "address": "Clayton South VIC, Australia", "website": "https://www.facebook.com/Topknotz-Dog-Grooming-104679797696300/", "post_code": "3168"}, {"title": "Happy Barkday Grooming", "phone": "+61 426 890 432", "rating": "5.0", "review": "4", "address": "Brunswick VIC, Australia", "website": "https://www.instagram.com/happybarkdaygrooming/", "post_code": "3056"}, {"title": "Fuzz'n Furry Dog grooming", "phone": "+61 407 941 866", "rating": "5.0", "review": "2", "address": "Aberfeldie VIC, Australia", "website": "http://facebook.com/fuzznfurry", "post_code": "3040"}, {"title": "A Bathing Hound Dog Grooming", "phone": "+61 421 479 435", "rating": "5.0", "review": "4", "address": "Forest Hill VIC, Australia", "website": "https://a-bathing-hound.business.site/?utm_source=gmb&utm_medium=referral", "post_code": "4078"}, {"title": "Petstock Ormond", "phone": "--Not Provided--", "rating": "4.6", "review": "404", "address": "Ormond VIC, Australia", "website": "https://www.petstock.com.au/pages/store/petstock-ormond?utm_source=google&utm_medium=organic&utm_campaign=Google%20My%20Business&utm_content=PETstock%20Ormond%20-%20Ormond&utm_term=plcid_14348122285501736090", "post_code": "3204"}, {"title": "Aussie Pooch Mobile Altona", "phone": "+61 430 099 691", "rating": "5.0", "review": "1", "address": "--Not Provided--", "website": "https://m.facebook.com/AussiePoochMobileDogWashAltona/", "post_code": "-"}, {"title": "LOCAL MOBILE DOG GROOMING SERVICES", "phone": "+61 430 910 298", "rating": "5.0", "review": "2", "address": "Balwyn VIC, Australia", "website": "https://local-mobile-dog-grooming-services.business.site/?utm_source=gmb&utm_medium=referral", "post_code": "3103"}, {"title": "The Doggy Grooming Room", "phone": "+61 413 197 655", "rating": "5.0", "review": "2", "address": "Taylors Hill VIC, Australia", "website": "https://m.facebook.com/doggygroomingroom/", "post_code": "3038"}, {"title": "kates wags dog grooming", "phone": "+61 415 229 189", "rating": "5.0", "review": "2", "address": "Sydenh VIC, Australia", "website": "https://www.facebook.com/W.A.G.Swesternanimalgroomingservices", "post_code": "-"}, {"title": "Johnston Street Veterinary Clinic", "phone": "--Not Provided--", "rating": "4.7", "review": "236", "address": "Fitzroy VIC, Australia", "website": "http://www.jsvet.com.au/", "post_code": "3068"}, {"title": "Pet Sitting Melbourne | Mad Paws | Overnight & Daytime Pet Care", "phone": "--Not Provided--", "rating": "4.4", "review": "290", "address": "--Not Provided--", "website": "https://www.madpaws.com.au/petsitters/melbourne-vic", "post_code": "-"}, {"title": "Hound Around Town - Mobile Dog Grooming", "phone": "--Not Provided--", "rating": "5.0", "review": "6", "address": "--Not Provided--", "website": "https://www.facebook.com/houndaroundtowngrooming", "post_code": "-"}]