[{"title": "Oscar's on Unley - Dog Grooming Adelaide", "phone": "--Not Provided--", "rating": "4.4", "review": "82", "address": "Unley SA, Australia", "website": "http://www.oscarsonunley.com.au/", "post_code": "5061"}, {"title": "Dog Grooming Adelaide ~ Paws of Distinction", "phone": "+61 405 396 757", "rating": "4.2", "review": "55", "address": "Beulah Park SA, Australia", "website": "http://www.pawsofdistinctionsa.com.au/", "post_code": "3395"}, {"title": "Mima's Grooming", "phone": "+61 8 7225 8800", "rating": "4.7", "review": "140", "address": "Allenby Gardens SA, Australia", "website": "http://www.facebook.com/mimasgrooming", "post_code": "5009"}, {"title": "The Spoilt Dog Prospect", "phone": "+61 473 228 494", "rating": "4.7", "review": "88", "address": "Prospect SA, Australia", "website": "https://www.facebook.com/thespoiltdogprospect?mibextid=ZbWKwL", "post_code": "5082"}, {"title": "Summer Pet Grooming", "phone": "+61 450 222 929", "rating": "4.8", "review": "57", "address": "Parkside SA, Australia", "website": "https://www.summer-pet.com/", "post_code": "4825"}, {"title": "MikeNeko Pet", "phone": "--Not Provided--", "rating": "5.0", "review": "56", "address": "Adelaide SA, Australia", "website": "http://mikenekopet.gettimely.com/", "post_code": "5006"}, {"title": "Paw by Paw Playhouse Dog Grooming & Daycare", "phone": "+61 8 8185 7098", "rating": "4.8", "review": "151", "address": "Lonsdale SA, Australia", "website": "http://www.pawbypawplayhouse.com/", "post_code": "3225"}, {"title": "Purple Pooch Dog Grooming", "phone": "+61 498 616 854", "rating": "4.3", "review": "36", "address": "Highgate SA, Australia", "website": "http://www.facebook.com/purplepoochdoggrooming", "post_code": "4101"}, {"title": "Dirty Dogs Clip N Clean", "phone": "+61 8 8165 1555", "rating": "4.7", "review": "73", "address": "Newton SA, Australia", "website": "http://www.dirtydogs.com.au/", "post_code": "5074"}, {"title": "Professional Canine Stylists", "phone": "+61 8 8272 9631", "rating": "4.9", "review": "27", "address": "Kings Park SA, Australia", "website": "http://professionalcaninestylists.com.au/", "post_code": "2147"}, {"title": "Little Dog Daycare", "phone": "+61 8 8151 1203", "rating": "5.0", "review": "28", "address": "North Adelaide SA, Australia", "website": "https://www.littledogdaycare.com.au/", "post_code": "3978"}, {"title": "Dog Lovers", "phone": "+61 8 8263 8550", "rating": "4.6", "review": "67", "address": "Para Vista SA, Australia", "website": "http://www.dog-lovers.com.au/", "post_code": "5096"}, {"title": "DogFX", "phone": "+61 8 8269 6622", "rating": "4.4", "review": "100", "address": "Prospect SA, Australia", "website": "http://dogfx.com.au/", "post_code": "5082"}, {"title": "Pampering Pooches", "phone": "+61 412 446 622", "rating": "4.7", "review": "40", "address": "Seacombe Gardens SA, Australia", "website": "http://www.pamperingpooches.com.au/", "post_code": "5047"}, {"title": "Paws Dog Day Care & Grooming", "phone": "+61 8 8166 6837", "rating": "4.6", "review": "63", "address": "Wayville SA, Australia", "website": "https://pawsdogdaycare.com.au/", "post_code": "5034"}, {"title": "City Slickers Dog Grooming", "phone": "+61 403 473 473", "rating": "4.4", "review": "94", "address": "Morphett Vale SA, Australia", "website": "http://www.cityslickers.com.au/", "post_code": "5162"}, {"title": "Cheeky Dog Salon", "phone": "+61 415 079 494", "rating": "4.8", "review": "35", "address": "Klemzig SA, Australia", "website": "https://www.facebook.com/cheekydogsalon/", "post_code": "5087"}, {"title": "Shear Heaven mobile dog grooming", "phone": "+61 436 465 234", "rating": "4.4", "review": "16", "address": "Adelaide SA, Australia", "website": "http://www.shearheaven.com.au/", "post_code": "5006"}, {"title": "Dog Lovers", "phone": "+61 8 8263 8550", "rating": "4.6", "review": "67", "address": "Para Vista SA, Australia", "website": "http://www.dog-lovers.com.au/", "post_code": "5096"}, {"title": "Paw by Paw Playhouse Dog Grooming & Daycare", "phone": "+61 8 8185 7098", "rating": "4.8", "review": "151", "address": "Lonsdale SA, Australia", "website": "http://www.pawbypawplayhouse.com/", "post_code": "3225"}, {"title": "Pup Boutique", "phone": "+61 413 535 131", "rating": "5.0", "review": "25", "address": "Cpbelltown SA, Australia", "website": "http://www.pupboutique.com.au/", "post_code": "-"}, {"title": "Shear Heaven mobile dog grooming", "phone": "+61 436 465 234", "rating": "4.4", "review": "16", "address": "Adelaide SA, Australia", "website": "http://www.shearheaven.com.au/", "post_code": "5006"}, {"title": "Paw Le Chic", "phone": "+61 401 720 895", "rating": "4.8", "review": "34", "address": "--Not Provided--", "website": "http://www.pawlechic.com.au/", "post_code": "-"}, {"title": "Blue Wheelers Modbury", "phone": "+61 428 118 999", "rating": "5.0", "review": "11", "address": "--Not Provided--", "website": "https://www.bluewheelers.com.au/mobile-dog-grooming/modbury-sa/", "post_code": "-"}, {"title": "City Slickers Dog Grooming", "phone": "+61 403 473 473", "rating": "4.4", "review": "94", "address": "Morphett Vale SA, Australia", "website": "http://www.cityslickers.com.au/", "post_code": "5162"}, {"title": "Dogs 4 Eve and Meg", "phone": "+61 406 475 207", "rating": "4.9", "review": "17", "address": "Maylands SA, Australia", "website": "http://www.dogs4eveandmeg.com.au/", "post_code": "6051"}, {"title": "Diamond Dogs Mobile Grooming", "phone": "+61 415 043 020", "rating": "5.0", "review": "18", "address": "--Not Provided--", "website": "http://www.diamonddogs.com.au/", "post_code": "-"}, {"title": "Newlife Grooming", "phone": "+61 450 292 582", "rating": "4.9", "review": "28", "address": "--Not Provided--", "website": "https://newlifegrooming.wixsite.com/salon", "post_code": "-"}, {"title": "Blue Wheelers Marion", "phone": "+61 427 619 542", "rating": "4.7", "review": "9", "address": "--Not Provided--", "website": "http://www.bluewheelers.com.au/mobile-dog-grooming/marion-sa/", "post_code": "-"}, {"title": "GROOMING with Shelley", "phone": "+61 404 762 667", "rating": "4.8", "review": "61", "address": "Albert Park SA, Australia", "website": "https://web.facebook.com/groomingwithshelley/", "post_code": "2650"}, {"title": "Dog Love Grooming", "phone": "+61 424 444 420", "rating": "5.0", "review": "25", "address": "Tranmere SA, Australia", "website": "http://dogloveservices.com.au/", "post_code": "5073"}, {"title": "Precious Paws Pet Grooming", "phone": "+61 403 697 703", "rating": "4.0", "review": "18", "address": "Royston Park SA, Australia", "website": "http://www.preciouspaws.com.au/", "post_code": "5070"}, {"title": "Metro Mutt Dog Salon", "phone": "+61 481 487 468", "rating": "4.8", "review": "76", "address": "Queenstown SA, Australia", "website": "https://www.facebook.com/profile.php?id=100052597015566&mibextid=LQQJ4d", "post_code": "7467"}, {"title": "Jim's Dog Wash Christies Beach", "phone": "--Not Provided--", "rating": "4.7", "review": "12", "address": "--Not Provided--", "website": "https://jimsdogwash.net.au/", "post_code": "-"}, {"title": "Dogcity Daycare East - Kent Town", "phone": "--Not Provided--", "rating": "4.7", "review": "114", "address": "Kent Town SA, Australia", "website": "https://dogcity.com.au/", "post_code": "5067"}, {"title": "Sweet Pup O' Mine", "phone": "+61 412 875 743", "rating": "4.9", "review": "19", "address": "Greenacres SA, Australia", "website": "https://www.facebook.com/sweetpupomineadl", "post_code": "5086"}, {"title": "Yuppy Puppy", "phone": "+61 414 276 442", "rating": "4.3", "review": "37", "address": "Flagstaff Hill SA, Australia", "website": "https://dog-grooming-adelaide.com.au/", "post_code": "5159"}, {"title": "Furkids Funhouse", "phone": "--Not Provided--", "rating": "5.0", "review": "41", "address": "Royal Park SA, Australia", "website": "http://furkidsfunhouse.com.au/", "post_code": "5014"}, {"title": "Dapper Dogs @ Brighton", "phone": "+61 438 808 930", "rating": "4.9", "review": "10", "address": "--Not Provided--", "website": "http://www.dapperdogsbrighton.com.au/", "post_code": "-"}, {"title": "Aussie Pooch Mobile Dog Wash Salisbury", "phone": "+61 1300 369 369", "rating": "4.4", "review": "7", "address": "--Not Provided--", "website": "https://www.aussiepm.com.au/dog-wash-grooming/salisbury", "post_code": "-"}, {"title": "Casey k9 Care Mobile Dog Wash and Grooming", "phone": "+61 422 550 750", "rating": "4.6", "review": "10", "address": "--Not Provided--", "website": "http://www.caseyk9care.com/", "post_code": "-"}, {"title": "Hairy Hounds Dog Grooming Salon", "phone": "+61 423 554 352", "rating": "4.1", "review": "27", "address": "Somerton Park SA, Australia", "website": "https://hairy-hounds-dog-grooming-salon.business.site/", "post_code": "5044"}, {"title": "Uncle Rogers Doggy Wash", "phone": "+61 434 049 844", "rating": "5.0", "review": "7", "address": "--Not Provided--", "website": "https://www.facebook.com/profile.php?id=100083292253431", "post_code": "-"}, {"title": "Dogcity Daycare West - Thebarton", "phone": "--Not Provided--", "rating": "4.8", "review": "75", "address": "Thebarton SA, Australia", "website": "https://dogcity.com.au/", "post_code": "5031"}, {"title": "Aussie Pooch Mobile Dog Wash North East Adelaide", "phone": "+61 1300 369 369", "rating": "4.8", "review": "23", "address": "--Not Provided--", "website": "https://www.aussiepm.com.au/dog-wash-grooming/munno-para", "post_code": "-"}, {"title": "Beau's Pet Hotel", "phone": "--Not Provided--", "rating": "4.5", "review": "231", "address": "Adelaide Airport SA, Australia", "website": "https://beaus.org.au/", "post_code": "5006"}, {"title": "Blue Wheelers Reynella", "phone": "+61 420 404 724", "rating": "4.2", "review": "5", "address": "--Not Provided--", "website": "http://www.bluewheelers.com.au/mobile-dog-grooming/reynella-sa/", "post_code": "-"}, {"title": "Aussie Pooch Mobile Dog Wash Morphett Vale", "phone": "+61 1300 369 369", "rating": "5.0", "review": "5", "address": "--Not Provided--", "website": "https://www.aussiepm.com.au/dog-wash-grooming/morphett-vale", "post_code": "-"}, {"title": "Aussie Pooch Mobile Dog Wash Campbelltown SA", "phone": "+61 1300 369 369", "rating": "4.2", "review": "5", "address": "--Not Provided--", "website": "https://www.aussiepm.com.au/dog-wash-grooming/", "post_code": "-"}, {"title": "Dash DogWash Greenwith", "phone": "+61 478 791 234", "rating": "5.0", "review": "8", "address": "--Not Provided--", "website": "http://dashdogwash.com.au/mobile-dog-grooming/greenwith-sa/", "post_code": "-"}, {"title": "Live Love Bark - Mobile & Salon Dog Grooming", "phone": "+61 476 499 141", "rating": "4.8", "review": "18", "address": "Munno Para West SA, Australia", "website": "https://livelovebark.business.site/?utm_source=gmb&utm_medium=referral", "post_code": "5115"}, {"title": "Dee's Dazzling Doggies", "phone": "+61 475 626 188", "rating": "5.0", "review": "13", "address": "Glenelg East SA, Australia", "website": "https://deesdazzlingdoggies.com.au/", "post_code": "5045"}, {"title": "The Funky Foxhound", "phone": "+61 448 149 590", "rating": "4.6", "review": "14", "address": "Seaview Downs SA, Australia", "website": "http://www.thefunkyfoxhound.com/", "post_code": "5049"}, {"title": "Blue Wheelers Morphett Vale", "phone": "+61 412 811 198", "rating": "5.0", "review": "5", "address": "--Not Provided--", "website": "http://www.bluewheelers.com.au/mobile-dog-grooming/morphett-vale-sa/", "post_code": "-"}, {"title": "Blue Wheelers Parafield Gardens", "phone": "+61 402 963 737", "rating": "4.1", "review": "8", "address": "--Not Provided--", "website": "http://www.bluewheelers.com.au/mobile-dog-grooming/parafield-gardens-sa/", "post_code": "-"}, {"title": "Scottie Clipz", "phone": "+61 450 678 036", "rating": "4.8", "review": "42", "address": "Blackwood SA, Australia", "website": "http://www.scottieclipzgrooming.com/", "post_code": "5051"}, {"title": "Delightful Pets", "phone": "+61 8 8341 6396", "rating": "4.6", "review": "14", "address": "Semaphore SA, Australia", "website": "http://www.delightfulpets.com.au/", "post_code": "5019"}, {"title": "Dogcity Daycare South - Keswick", "phone": "--Not Provided--", "rating": "4.8", "review": "33", "address": "Keswick SA, Australia", "website": "https://dogcity.com.au/", "post_code": "5035"}, {"title": "Aussie Pooch Mobile Dog Wash Woodville", "phone": "+61 1300 369 369", "rating": "5.0", "review": "4", "address": "--Not Provided--", "website": "https://www.aussiepm.com.au/dog-wash-grooming/woodville", "post_code": "-"}, {"title": "Paws! then play Rostrevor", "phone": "+61 438 604 664", "rating": "4.9", "review": "19", "address": "Rostrevor SA, Australia", "website": "http://www.pawsthenplay.com.au/", "post_code": "5073"}, {"title": "Jim's Dog Wash (Semaphore)", "phone": "--Not Provided--", "rating": "4.0", "review": "4", "address": "--Not Provided--", "website": "https://jimsdogwash.net.au/", "post_code": "-"}, {"title": "Blue Wheelers Aldinga Beach", "phone": "+61 478 936 929", "rating": "5.0", "review": "5", "address": "--Not Provided--", "website": "https://www.bluewheelers.com.au/mobile-dog-grooming/blue-wheelers-aldinga-beach/", "post_code": "-"}, {"title": "Petstock Sefton Park", "phone": "--Not Provided--", "rating": "4.5", "review": "361", "address": "Sefton Park SA, Australia", "website": "https://www.petstock.com.au/pages/store/petstock-sefton-park?utm_source=google&utm_medium=organic&utm_campaign=Google%20My%20Business&utm_content=PETstock%20Sefton%20Park%20-%20Sefton%20Park&utm_term=plcid_5864682113898934492", "post_code": "2162"}, {"title": "Blue Wheelers Angle Vale", "phone": "+61 404 492 757", "rating": "5.0", "review": "8", "address": "--Not Provided--", "website": "https://www.bluewheelers.com.au/mobile-dog-grooming/angle-vale-sa/", "post_code": "-"}, {"title": "Aussie Pooch Mobile Dog Wash Modbury", "phone": "+61 1300 369 369", "rating": "5.0", "review": "3", "address": "--Not Provided--", "website": "https://www.aussiepm.com.au/dog-wash-grooming/", "post_code": "-"}, {"title": "Blue Wheelers Largs Bay", "phone": "+61 427 714 068", "rating": "4.8", "review": "4", "address": "--Not Provided--", "website": "http://www.bluewheelers.com.au/mobile-dog-grooming/largs-bay-sa/", "post_code": "-"}, {"title": "Prada Paws Dog Salon", "phone": "+61 421 023 407", "rating": "5.0", "review": "2", "address": "--Not Provided--", "website": "http://pradapaws.com.au/", "post_code": "-"}, {"title": "Jim's Dog Wash (Pooraka)", "phone": "--Not Provided--", "rating": "4.0", "review": "4", "address": "--Not Provided--", "website": "https://jimsdogwash.net.au/", "post_code": "-"}, {"title": "Vesta dog grooming studio", "phone": "+61 411 989 301", "rating": "5.0", "review": "12", "address": "Aberfoyle Park SA, Australia", "website": "https://www.vestagrooming.com.au/", "post_code": "5159"}, {"title": "Dog Grooming by Rosslyn (NOT taking New Customer bookings)", "phone": "+61 418 811 705", "rating": "4.9", "review": "8", "address": "Brooklyn Park SA, Australia", "website": "https://dog-grooming-by-rosslyn.business.site/?utm_source=gmb&utm_medium=referral", "post_code": "5032"}, {"title": "Jim's Dog Wash (Parafield Gardens)", "phone": "--Not Provided--", "rating": "4.7", "review": "3", "address": "--Not Provided--", "website": "https://jimsdogwash.net.au/", "post_code": "-"}, {"title": "Doggy Styling. Professional Groomers", "phone": "+61 8 8298 6705", "rating": "4.0", "review": "20", "address": "Warradale SA, Australia", "website": "http://www.doggystylingpg.com/", "post_code": "5046"}, {"title": "Tea Tree Gully Dog Grooming", "phone": "+61 8 8289 5391", "rating": "4.4", "review": "14", "address": "Wynn Vale SA, Australia", "website": "https://tea-tree-gully-dog-grooming.business.site/", "post_code": "5127"}, {"title": "Big paws, Little claws", "phone": "+61 401 618 823", "rating": "5.0", "review": "3", "address": "--Not Provided--", "website": "https://www.facebook.com/BPLCAdelaide", "post_code": "-"}, {"title": "Jim's Dog Wash Bridgewater", "phone": "--Not Provided--", "rating": "5.0", "review": "2", "address": "--Not Provided--", "website": "http://www.jimsdogwash.net.au/", "post_code": "-"}, {"title": "Purrfect Paws Cat Grooming", "phone": "+61 422 031 796", "rating": "4.0", "review": "6", "address": "--Not Provided--", "website": "http://www.purrfectpawscatgrooming.com.au/", "post_code": "-"}, {"title": "Petstock Prospect", "phone": "+61 8 8121 3341", "rating": "4.4", "review": "85", "address": "Sefton Park SA, Australia", "website": "https://www.petstock.com.au/pages/store/petstock-prospect?utm_source=google&utm_medium=organic&utm_campaign=Google%20My%20Business&utm_content=Prospect&utm_term=plcid_6669578963668103325", "post_code": "2162"}, {"title": "Jim's Dog Wash Modbury", "phone": "+61 483 092 411", "rating": "4.8", "review": "6", "address": "--Not Provided--", "website": "https://jimsdogwash.net.au/franchisees/modbury/", "post_code": "-"}, {"title": "Jim's Dog Wash Klemzig", "phone": "--Not Provided--", "rating": "5.0", "review": "1", "address": "--Not Provided--", "website": "http://www.jimsdogwash.net.au/", "post_code": "-"}, {"title": "Pulse Dog Washing Glenelg", "phone": "+61 416 458 641", "rating": "5.0", "review": "2", "address": "--Not Provided--", "website": "http://www.pulsedogwashing.com.au/", "post_code": "-"}, {"title": "Fur Babies Grooming and Spa", "phone": "+61 411 634 639", "rating": "5.0", "review": "3", "address": "Holden Hill SA, Australia", "website": "https://fur-babies-mobile-grooming.business.site/?utm_source=gmb&utm_medium=referral", "post_code": "5088"}, {"title": "Blue Wheelers Walkley Heights", "phone": "+61 1300 659 055", "rating": "4.2", "review": "5", "address": "Walkley Heights SA, Australia", "website": "https://www.bluewheelers.com.au/mobile-dog-grooming/walkley-heights-sa/", "post_code": "5098"}, {"title": "Aussie Pooch Mobile Dog Wash Paralowie", "phone": "+61 1300 369 369", "rating": "5.0", "review": "6", "address": "--Not Provided--", "website": "https://www.aussiepm.com.au/dog-wash-grooming/paralowie", "post_code": "-"}, {"title": "Blue Wheelers Aberfoyle Park", "phone": "+61 421 637 743", "rating": "5.0", "review": "1", "address": "--Not Provided--", "website": "https://www.bluewheelers.com.au/mobile-dog-grooming/aberfoyle-park-sa/", "post_code": "-"}, {"title": "Blue Wheelers Walkley Heights", "phone": "+61 430 128 632", "rating": "5.0", "review": "1", "address": "--Not Provided--", "website": "http://www.bluewheelers.com.au/mobile-dog-grooming/walkley-heights-sa/", "post_code": "-"}, {"title": "Casey K9 Care", "phone": "+61 481 562 572", "rating": "5.0", "review": "1", "address": "--Not Provided--", "website": "https://caseyk9care.wixsite.com/caseyk9care", "post_code": "-"}, {"title": "Opie & Friends Dog Grooming", "phone": "+61 428 945 899", "rating": "5.0", "review": "3", "address": "Sellicks Beach SA, Australia", "website": "https://www.facebook.com/opieandfriendsdoggrooming", "post_code": "5174"}, {"title": "Jim's Dog Wash Glenelg", "phone": "--Not Provided--", "rating": "5.0", "review": "3", "address": "--Not Provided--", "website": "https://jimsdogwash.net.au/franchisees/glenelg/", "post_code": "-"}, {"title": "Kip Adelaide North", "phone": "--Not Provided--", "rating": "4.5", "review": "139", "address": "Virginia SA, Australia", "website": "http://kip.com.au/locations/adelaidenorth", "post_code": "4014"}, {"title": "AlfaDog", "phone": "--Not Provided--", "rating": "4.6", "review": "12", "address": "Glenelg North SA, Australia", "website": "https://www.alfadog.com.au/", "post_code": "5045"}, {"title": "Stephen Terrace Veterinary Clinic", "phone": "--Not Provided--", "rating": "4.8", "review": "47", "address": "St Peters SA, Australia", "website": "https://vetatstephen.com.au/", "post_code": "3021"}, {"title": "Tangled Tailz Dog Grooming", "phone": "+61 452 553 796", "rating": "5.0", "review": "3", "address": "Redwood Park SA, Australia", "website": "https://m.facebook.com/109831388317463", "post_code": "5097"}, {"title": "The Fur Factor! Mobile /salon Dogwash and Groom", "phone": "+61 431 321 586", "rating": "5.0", "review": "4", "address": "Burton SA, Australia", "website": "https://the-fur-factor-mobile-dogwash-and-groom.business.site/", "post_code": "5110"}, {"title": "ShamPuppies Mobile Dog Wash", "phone": "+61 450 767 727", "rating": "5.0", "review": "4", "address": "--Not Provided--", "website": "http://www.shampuppies.com.au/", "post_code": "-"}, {"title": "Petstock Melrose Park", "phone": "--Not Provided--", "rating": "4.4", "review": "916", "address": "Melrose Park SA, Australia", "website": "https://www.petstock.com.au/pages/store/petstock-melrose-park?utm_source=google&utm_medium=organic&utm_campaign=Google%20My%20Business&utm_content=PETstock%20Melrose%20Park%20-%20Melrose%20Park&utm_term=plcid_17192126003009980905", "post_code": "5039"}, {"title": "Jim's Dog Wash West Lakes", "phone": "--Not Provided--", "rating": "5.0", "review": "3", "address": "--Not Provided--", "website": "https://jimsdogwash.net.au/franchisees/west-lakes/", "post_code": "-"}, {"title": "Petstock Hollywood", "phone": "+61 8 8295 5990", "rating": "4.3", "review": "36", "address": "Salisbury Downs SA, Australia", "website": "https://www.petstock.com.au/pages/store/petstock-hollywood?utm_source=google&utm_medium=organic&utm_campaign=Google%20My%20Business&utm_content=Hollywood", "post_code": "4107"}, {"title": "Jim's Dog Wash Morphett Vale", "phone": "--Not Provided--", "rating": "5.0", "review": "1", "address": "Morphett Vale SA, Australia", "website": "https://jimsdogwash.net.au/", "post_code": "5162"}, {"title": "Aussie Pooch Mobile Dog Wash Burton", "phone": "+61 1300 369 369", "rating": "5.0", "review": "1", "address": "--Not Provided--", "website": "https://www.aussiepm.com.au/dog-wash-grooming/burton", "post_code": "-"}, {"title": "Happy Pet Helpers ~ Dog Walking | Pet Taxi | Moblie Pet Store", "phone": "--Not Provided--", "rating": "4.8", "review": "6", "address": "--Not Provided--", "website": "http://www.happypethelpers.com.au/", "post_code": "-"}, {"title": "Furry Friends Professional Pet Styling", "phone": "+61 448 004 266", "rating": "4.3", "review": "7", "address": "Balhannah SA, Australia", "website": "http://furry-friends-104121.square.site/", "post_code": "5242"}, {"title": "Pampered Pussycats", "phone": "+61 459 782 106", "rating": "5.0", "review": "6", "address": "--Not Provided--", "website": "http://www.pamperedpussycats.com.au/", "post_code": "-"}, {"title": "KYKY'S Cat & Dog Grooming", "phone": "+61 427 079 981", "rating": "5.0", "review": "1", "address": "--Not Provided--", "website": "https://kykys-dog-cat-grooming.business.site/?utm_source=gmb&utm_medium=referral", "post_code": "-"}, {"title": "Jim's Dog Wash and Grooming (Elizabeth)", "phone": "--Not Provided--", "rating": "5.0", "review": "3", "address": "--Not Provided--", "website": "http://www.jimsdogwash.net.au/", "post_code": "-"}]