[{"title": "Good Dog Behaviour & Training", "phone": "+61 439 331 354", "rating": "5.0", "review": "35", "address": "--Not Provided--", "website": "http://www.gooddogbehaviour.com.au/", "post_code": "-"}, {"title": "Bark Busters Home Dog Training Melbourne North", "phone": "+61 1800 067 710", "rating": "5.0", "review": "164", "address": "--Not Provided--", "website": "https://barkbusters.com.au/dog_trainers/stefanie-budiman/", "post_code": "-"}, {"title": "K-9iQ", "phone": "--Not Provided--", "rating": "4.9", "review": "176", "address": "Melbourne VIC, Australia", "website": "http://www.k-9iq.com/?utm_source=google&utm_medium=local", "post_code": "3002"}, {"title": "Good Dog Training Tips", "phone": "+61 400 508 944", "rating": "4.9", "review": "28", "address": "--Not Provided--", "website": "https://gooddogtrainingtips.com/", "post_code": "-"}, {"title": "Pet Pursuits Dog Training", "phone": "+61 408 058 886", "rating": "5.0", "review": "66", "address": "--Not Provided--", "website": "http://www.petpursuits.com.au/", "post_code": "-"}, {"title": "Melanie Scott K9 Training", "phone": "+61 448 395 797", "rating": "5.0", "review": "44", "address": "Melbourne VIC, Australia", "website": "http://www.melaniescottk9training.com/", "post_code": "3002"}, {"title": "Underdog Training and Behaviour Consulting", "phone": "+61 402 112 105", "rating": "4.7", "review": "29", "address": "Melbourne VIC, Australia", "website": "http://www.underdogtraining.com.au/", "post_code": "3002"}, {"title": "Positive K9 Training", "phone": "+61 409 759 759", "rating": "4.9", "review": "188", "address": "Balwyn North VIC, Australia", "website": "https://positivek9training.com.au/", "post_code": "3103"}, {"title": "The Art of Dog Training", "phone": "+61 403 000 122", "rating": "5.0", "review": "69", "address": "South Yarra VIC, Australia", "website": "http://www.theartofdogtraining.com.au/", "post_code": "3205"}, {"title": "Laura Mundy DOG TRAINING", "phone": "+61 412 732 771", "rating": "5.0", "review": "22", "address": "--Not Provided--", "website": "http://lauramundydogtraining.com.au/", "post_code": "-"}, {"title": "Dale For Dogs", "phone": "+61 403 512 189", "rating": "4.9", "review": "48", "address": "--Not Provided--", "website": "https://dalefordogs.com.au/", "post_code": "-"}, {"title": "Sankiri Dog Training", "phone": "+61 401 634 392", "rating": "4.8", "review": "69", "address": "--Not Provided--", "website": "http://www.sankiridogtraining.com.au/", "post_code": "-"}, {"title": "Melbourne Dog Trainers", "phone": "+61 3 8609 9700", "rating": "4.6", "review": "27", "address": "Ormond VIC, Australia", "website": "https://melbournedogtrainers.com.au/", "post_code": "3204"}, {"title": "Ian The Dog Trainer", "phone": "+61 408 374 444", "rating": "4.2", "review": "46", "address": "--Not Provided--", "website": "http://www.ianthedogtrainer.com.au/", "post_code": "-"}, {"title": "SitDropStay Melbourne", "phone": "+61 1300 306 887", "rating": "5.0", "review": "155", "address": "Reservoir VIC, Australia", "website": "http://www.sitdropstay.com/dog-training-melbourne/", "post_code": "3073"}, {"title": "Command Dog Training School", "phone": "+61 3 9877 6522", "rating": "4.6", "review": "86", "address": "Blackburn VIC, Australia", "website": "https://www.dogtraining.com.au/", "post_code": "3130"}, {"title": "Dog Tales Puppy & Dog Training", "phone": "+61 424 186 377", "rating": "5.0", "review": "22", "address": "--Not Provided--", "website": "http://www.dogtalestraining.co/", "post_code": "-"}, {"title": "The Dog Training Co", "phone": "+61 434 231 672", "rating": "5.0", "review": "22", "address": "--Not Provided--", "website": "http://www.thedogtrainingco.com.au/", "post_code": "-"}, {"title": "Zenergy K9 Training Co", "phone": "+61 497 538 665", "rating": "4.9", "review": "45", "address": "--Not Provided--", "website": "http://www.zenergyk9.com.au/", "post_code": "-"}, {"title": "DogzWalkabout Training", "phone": "+61 408 127 785", "rating": "5.0", "review": "24", "address": "--Not Provided--", "website": "http://www.dogzwalkabout.com/", "post_code": "-"}, {"title": "Tom's Dog Training", "phone": "+61 476 157 746", "rating": "5.0", "review": "33", "address": "--Not Provided--", "website": "http://www.tomsdogtraining.com.au/", "post_code": "-"}, {"title": "Four Paws K9 Training", "phone": "+61 412 523 998", "rating": "4.8", "review": "55", "address": "Sunshine West VIC, Australia", "website": "http://www.fourpawsk9training.com.au/", "post_code": "3020"}, {"title": "Secret Dogs Business", "phone": "+61 1300 223 364", "rating": "4.7", "review": "22", "address": "Cheltenh VIC, Australia", "website": "http://secretdogsbusiness.com.au/", "post_code": "-"}, {"title": "Dogs With Attitude", "phone": "--Not Provided--", "rating": "5.0", "review": "76", "address": "--Not Provided--", "website": "https://dogswithattitude.com.au/", "post_code": "-"}, {"title": "Reservoir Dogs Melbourne", "phone": "+61 415 653 364", "rating": "5.0", "review": "29", "address": "Northcote VIC, Australia", "website": "http://www.reservoirdogsmelbourne.com.au/", "post_code": "3070"}, {"title": "Beautiful Beasts Dog Training & Behaviour Modification", "phone": "--Not Provided--", "rating": "5.0", "review": "28", "address": "--Not Provided--", "website": "http://beautifulbeasts.com.au/", "post_code": "-"}, {"title": "Pro Dog Training", "phone": "+61 413 042 811", "rating": "4.8", "review": "118", "address": "West Footscray VIC, Australia", "website": "http://www.prodogtraining.com.au/", "post_code": "3003"}, {"title": "Dog Training Melbourne | Eastern Companion Dog Training", "phone": "+61 3 9723 4387", "rating": "4.8", "review": "25", "address": "Ringwood North VIC, Australia", "website": "https://www.companiondogtraining.com.au/", "post_code": "3135"}, {"title": "Ibex Canine Training and Behaviour", "phone": "+61 412 843 245", "rating": "5.0", "review": "22", "address": "--Not Provided--", "website": "http://www.ibexcanine.com.au/", "post_code": "-"}, {"title": "Delta Dogz", "phone": "+61 425 777 029", "rating": "5.0", "review": "28", "address": "--Not Provided--", "website": "http://www.deltadogz.com.au/", "post_code": "-"}, {"title": "Direct K9 Services", "phone": "+61 451 824 278", "rating": "5.0", "review": "21", "address": "--Not Provided--", "website": "https://directk9.com.au/", "post_code": "-"}, {"title": "Take A Paws In Home Mobile Dog Training Melbourne", "phone": "+61 422 505 707", "rating": "4.7", "review": "14", "address": "--Not Provided--", "website": "https://takeapaws.com.au/", "post_code": "-"}, {"title": "Manners For Paws", "phone": "--Not Provided--", "rating": "4.8", "review": "32", "address": "--Not Provided--", "website": "http://www.mannersforpaws.com.au/", "post_code": "-"}, {"title": "hellopuppy", "phone": "+61 417 325 938", "rating": "5.0", "review": "30", "address": "--Not Provided--", "website": "http://hellopuppy.com.au/", "post_code": "-"}, {"title": "True Dog Training", "phone": "+61 488 144 910", "rating": "5.0", "review": "38", "address": "--Not Provided--", "website": "http://www.truedog.com.au/", "post_code": "-"}, {"title": "Dog Manners - Dog Behaviour & Training", "phone": "+61 434 536 691", "rating": "5.0", "review": "24", "address": "--Not Provided--", "website": "http://www.dogmanners.com.au/", "post_code": "-"}, {"title": "Bayside Companion Dog Training School", "phone": "+61 400 551 042", "rating": "4.7", "review": "37", "address": "Bentleigh VIC, Australia", "website": "http://www.baysidedogs.org.au/", "post_code": "3165"}, {"title": "Melanie Norgate Pty Ltd", "phone": "+61 402 931 580", "rating": "5.0", "review": "26", "address": "--Not Provided--", "website": "http://www.melanienorgate.com/", "post_code": "-"}, {"title": "AUSDOG The Real Dog Trainer Melbourne", "phone": "+61 3 9870 5105", "rating": "4.8", "review": "13", "address": "--Not Provided--", "website": "http://www.ausdog.com.au/", "post_code": "-"}, {"title": "Hobsons Bay Obedience Dog Club", "phone": "+61 409 745 868", "rating": "4.8", "review": "11", "address": "Port Melbourne VIC, Australia", "website": "http://www.hbodc.asn.au/", "post_code": "3207"}, {"title": "All Dogs Are Good", "phone": "+61 490 510 924", "rating": "5.0", "review": "10", "address": "--Not Provided--", "website": "http://www.alldogsaregood.com/", "post_code": "-"}, {"title": "Ethical Dog Services", "phone": "+61 403 433 399", "rating": "5.0", "review": "50", "address": "--Not Provided--", "website": "http://www.ethicaldogservices.com.au/", "post_code": "-"}, {"title": "Smartypantz Dog Training", "phone": "+61 408 331 398", "rating": "5.0", "review": "15", "address": "--Not Provided--", "website": "https://smartypantzdogtraining.com.au/", "post_code": "-"}, {"title": "Kira Canine Code", "phone": "+61 400 354 092", "rating": "4.9", "review": "84", "address": "Bentleigh VIC, Australia", "website": "http://www.caninecode.com.au/", "post_code": "3165"}, {"title": "From A Dog's View", "phone": "+61 414 999 480", "rating": "5.0", "review": "28", "address": "--Not Provided--", "website": "https://www.fromadogsview.com.au/", "post_code": "-"}, {"title": "Point Cook Dog Training & Day Care", "phone": "+61 3 8360 7112", "rating": "4.8", "review": "173", "address": "Hoppers Crossing VIC, Australia", "website": "http://www.pointcookdogtraining.com.au/", "post_code": "3029"}, {"title": "Barkanine Training", "phone": "+61 431 331 093", "rating": "5.0", "review": "49", "address": "St Kilda VIC, Australia", "website": "http://barkanine.com.au/", "post_code": "3021"}, {"title": "Zen Dog behaviour", "phone": "+61 422 890 595", "rating": "5.0", "review": "32", "address": "--Not Provided--", "website": "https://www.facebook.com/zendogbehaviour", "post_code": "-"}, {"title": "The Kind Canine", "phone": "+61 491 735 599", "rating": "5.0", "review": "21", "address": "--Not Provided--", "website": "http://thekindcanine.com.au/", "post_code": "-"}, {"title": "Elite K9 Work Dogs Australia", "phone": "+61 478 126 835", "rating": "4.8", "review": "18", "address": "--Not Provided--", "website": "https://elitek9workdogsaustralia.com.au/", "post_code": "-"}, {"title": "D.O.G.S. of Vic", "phone": "+61 411 313 353", "rating": "4.6", "review": "40", "address": "Albert Park VIC, Australia", "website": "http://dogsofvic.com.au/", "post_code": "2650"}, {"title": "Shelby Thorn Dog Training", "phone": "+61 407 278 424", "rating": "4.6", "review": "10", "address": "--Not Provided--", "website": "http://www.thorntherapies.com.au/", "post_code": "-"}, {"title": "Puppy Professor", "phone": "+61 403 029 590", "rating": "5.0", "review": "14", "address": "--Not Provided--", "website": "http://www.puppyprofessor.com.au/", "post_code": "-"}, {"title": "Train Me Please", "phone": "+61 413 082 221", "rating": "5.0", "review": "9", "address": "--Not Provided--", "website": "http://www.trainmeplease.com.au/", "post_code": "-"}, {"title": "Take A Paws In Home Mobile Dog Training Melbourne", "phone": "+61 422 505 707", "rating": "5.0", "review": "7", "address": "--Not Provided--", "website": "https://takeapaws.com.au/", "post_code": "-"}, {"title": "Moorabbin Obedience Dog Club", "phone": "+61 437 508 477", "rating": "4.6", "review": "114", "address": "Moorabbin VIC, Australia", "website": "http://www.modc.org.au/", "post_code": "3189"}, {"title": "Eastern Companion Dog Training", "phone": "+61 3 9723 4387", "rating": "5.0", "review": "10", "address": "--Not Provided--", "website": "http://www.companiondogtraining.com.au/", "post_code": "-"}, {"title": "The Complete Canine", "phone": "--Not Provided--", "rating": "4.7", "review": "28", "address": "--Not Provided--", "website": "https://thecompletecanine.com.au/", "post_code": "-"}, {"title": "Woof Wonders", "phone": "--Not Provided--", "rating": "5.0", "review": "15", "address": "--Not Provided--", "website": "http://www.woofwonders.com/", "post_code": "-"}, {"title": "Barking Mad Dog Training", "phone": "+61 419 247 690", "rating": "5.0", "review": "7", "address": "--Not Provided--", "website": "https://barkingmaddogtraining.com.au/", "post_code": "-"}, {"title": "Focus On Dog Training", "phone": "+61 424 583 738", "rating": "4.9", "review": "7", "address": "--Not Provided--", "website": "https://focusondogtraining.com/", "post_code": "-"}, {"title": "Dog Solutions", "phone": "+61 414 415 728", "rating": "5.0", "review": "18", "address": "--Not Provided--", "website": "https://www.dogsolutions.com.au/", "post_code": "-"}, {"title": "Cooper and Kids", "phone": "+61 438 081 323", "rating": "5.0", "review": "12", "address": "--Not Provided--", "website": "http://www.cooperandkids.com/", "post_code": "-"}, {"title": "Chilled & Fulfilled", "phone": "+61 408 171 242", "rating": "5.0", "review": "51", "address": "--Not Provided--", "website": "http://chilledandfulfilled.com/", "post_code": "-"}, {"title": "Angela's Dog Training", "phone": "+61 409 300 886", "rating": "4.8", "review": "21", "address": "Moonee Ponds VIC, Australia", "website": "https://www.angelasdogtraining.com/", "post_code": "3039"}, {"title": "Paws for Assistance Dog Training (PADT)", "phone": "--Not Provided--", "rating": "5.0", "review": "7", "address": "--Not Provided--", "website": "http://www.pawsforassistance.com.au/", "post_code": "-"}, {"title": "German Shepherd K9 Training", "phone": "--Not Provided--", "rating": "5.0", "review": "10", "address": "--Not Provided--", "website": "http://thegsdk9.com.au/", "post_code": "-"}, {"title": "Croydon & District Obedience Dog Club", "phone": "--Not Provided--", "rating": "4.7", "review": "43", "address": "Croydon VIC, Australia", "website": "http://www.croydondogclub.com.au/", "post_code": "3136"}, {"title": "Rock Dog Training", "phone": "+61 408 180 152", "rating": "5.0", "review": "11", "address": "--Not Provided--", "website": "http://www.rockdogtraining.com.au/", "post_code": "-"}, {"title": "Diona The Trainer", "phone": "--Not Provided--", "rating": "5.0", "review": "96", "address": "--Not Provided--", "website": "http://www.dionathetrainer.com/", "post_code": "-"}, {"title": "Northern Obedience Dog Club", "phone": "+61 407 523 741", "rating": "4.6", "review": "31", "address": "Aberfeldie VIC, Australia", "website": "http://northernobedience.com.au/", "post_code": "3040"}, {"title": "Canine Clarity", "phone": "+61 493 627 384", "rating": "5.0", "review": "19", "address": "--Not Provided--", "website": "http://www.canineclarity.com.au/", "post_code": "-"}, {"title": "Formal Dogs", "phone": "+61 438 423 230", "rating": "4.3", "review": "7", "address": "--Not Provided--", "website": "http://formaldogs.com.au/", "post_code": "-"}, {"title": "Westside Paws", "phone": "+61 422 189 525", "rating": "5.0", "review": "11", "address": "--Not Provided--", "website": "http://www.westsidepaws.com.au/", "post_code": "-"}, {"title": "Northcote Obedience Dog Club", "phone": "+61 412 037 705", "rating": "4.6", "review": "28", "address": "Fairfield VIC, Australia", "website": "https://northcoteobediencedogclub.org.au/", "post_code": "2165"}, {"title": "Elisabeth's Positive Dog Training", "phone": "+61 480 236 055", "rating": "5.0", "review": "5", "address": "--Not Provided--", "website": "http://epdt.com.au/", "post_code": "-"}, {"title": "K9s with Confidence", "phone": "+61 408 774 687", "rating": "5.0", "review": "16", "address": "--Not Provided--", "website": "http://k9confidence.com.au/", "post_code": "-"}, {"title": "Knox Obedience Dog Club", "phone": "+61 3 9763 1444", "rating": "4.8", "review": "51", "address": "Knoxfield VIC, Australia", "website": "http://knoxodc.org.au/", "post_code": "3180"}, {"title": "Cloud Nine Canine", "phone": "+61 434 206 275", "rating": "5.0", "review": "6", "address": "--Not Provided--", "website": "https://instagram.com/cloud_nine_canine?igshid=OGQ5ZDc2ODk2ZA==", "post_code": "-"}, {"title": "Westside Paws", "phone": "+61 422 189 525", "rating": "5.0", "review": "11", "address": "--Not Provided--", "website": "http://www.westsidepaws.com.au/", "post_code": "-"}, {"title": "Gentle Modern School of Dog Training", "phone": "+61 418 371 060", "rating": "5.0", "review": "5", "address": "Heidelberg VIC, Australia", "website": "https://gentlemodernschoolofdogtraining.com.au/Melbourne", "post_code": "3084"}, {"title": "Elisabeth's Positive Dog Training", "phone": "+61 480 236 055", "rating": "5.0", "review": "5", "address": "--Not Provided--", "website": "http://epdt.com.au/", "post_code": "-"}, {"title": "Victorian Obedience Dog Club", "phone": "--Not Provided--", "rating": "4.5", "review": "18", "address": "Boxhill VIC, Australia", "website": "https://www.vicobedience.org/", "post_code": "-"}, {"title": "Cooper and Kids", "phone": "+61 438 081 323", "rating": "5.0", "review": "12", "address": "--Not Provided--", "website": "http://www.cooperandkids.com/", "post_code": "-"}, {"title": "Legion Dog Training", "phone": "--Not Provided--", "rating": "5.0", "review": "10", "address": "--Not Provided--", "website": "https://legiondogtraining.com/", "post_code": "-"}, {"title": "Glen Iris Dog Training Club Inc.", "phone": "+61 3 9885 7078", "rating": "4.9", "review": "15", "address": "Ashburton VIC, Australia", "website": "http://glenirisdogtrainingclub.org.au/", "post_code": "3147"}, {"title": "Trained Tails", "phone": "+61 431 608 696", "rating": "5.0", "review": "3", "address": "--Not Provided--", "website": "https://trainedtails.com.au/", "post_code": "-"}, {"title": "The Kind Canine", "phone": "+61 491 735 599", "rating": "5.0", "review": "21", "address": "--Not Provided--", "website": "http://thekindcanine.com.au/", "post_code": "-"}, {"title": "MollysK9Training", "phone": "+61 411 606 121", "rating": "5.0", "review": "9", "address": "--Not Provided--", "website": "http://www.mollysk9training.com.au/", "post_code": "-"}, {"title": "Mero Dog Training", "phone": "+61 433 992 910", "rating": "5.0", "review": "5", "address": "--Not Provided--", "website": "https://mero.dog/", "post_code": "-"}, {"title": "Serenity Canine Academy", "phone": "+61 481 318 797", "rating": "5.0", "review": "6", "address": "Ashwood VIC, Australia", "website": "http://serenitycanineacademy.com.au/", "post_code": "3147"}, {"title": "Trick and Treat Training", "phone": "+61 422 652 040", "rating": "5.0", "review": "6", "address": "Hawthorn East VIC, Australia", "website": "http://www.trickandtreattraining.com/", "post_code": "3122"}, {"title": "Westside Paws Pty Ltd", "phone": "+61 422 189 525", "rating": "5.0", "review": "19", "address": "--Not Provided--", "website": "http://www.westsidepaws.com.au/", "post_code": "-"}, {"title": "Diamond Valley Dog Obedience Club", "phone": "--Not Provided--", "rating": "4.1", "review": "8", "address": "Greensborough VIC, Australia", "website": "https://www.facebook.com/diamondvalleydogobedience", "post_code": "3088"}, {"title": "Woofers World", "phone": "--Not Provided--", "rating": "4.4", "review": "110", "address": "Ormond VIC, Australia", "website": "http://www.woofersworld.com.au/", "post_code": "3204"}, {"title": "Paw Prints Across Melbourne Dog Walking & Pet Minding", "phone": "--Not Provided--", "rating": "5.0", "review": "8", "address": "--Not Provided--", "website": "https://pawprintsacrossmelbourne.com/", "post_code": "-"}, {"title": "Pawsome Interactions", "phone": "+61 409 011 003", "rating": "5.0", "review": "11", "address": "Capel Sound VIC, Australia", "website": "https://www.pawsomeinteractions.com.au/", "post_code": "6271"}, {"title": "Trained Tails", "phone": "+61 431 608 696", "rating": "5.0", "review": "3", "address": "--Not Provided--", "website": "https://trainedtails.com.au/", "post_code": "-"}, {"title": "Good Dog Canine Education", "phone": "+61 407 077 430", "rating": "5.0", "review": "7", "address": "--Not Provided--", "website": "http://www.gooddogcanineeducation.com/", "post_code": "-"}, {"title": "Crosspaws", "phone": "+61 425 713 227", "rating": "5.0", "review": "4", "address": "--Not Provided--", "website": "http://www.crosspaws.com.au/", "post_code": "-"}, {"title": "Diamond Valley Dog Obedience Club", "phone": "--Not Provided--", "rating": "4.1", "review": "8", "address": "Greensborough VIC, Australia", "website": "https://www.facebook.com/diamondvalleydogobedience", "post_code": "3088"}, {"title": "The Kintala Club", "phone": "+61 400 444 024", "rating": "4.9", "review": "7", "address": "Heidelberg VIC, Australia", "website": "http://kintala.com.au/", "post_code": "3084"}, {"title": "Altona Civic Obedience Dog Club", "phone": "+61 432 745 303", "rating": "4.4", "review": "5", "address": "Altona VIC, Australia", "website": "http://www.altonadogobedience.org.au/", "post_code": "3018"}, {"title": "Cerberus K9 Academy", "phone": "+61 438 595 570", "rating": "5.0", "review": "4", "address": "--Not Provided--", "website": "https://www.cerberusk9academy.com/", "post_code": "-"}, {"title": "Wild Things Veterinary Behaviour Services", "phone": "+61 414 588 586", "rating": "5.0", "review": "7", "address": "Rosanna VIC, Australia", "website": "http://wildthingsvbs.com.au/", "post_code": "3084"}, {"title": "Trick and Treat Training", "phone": "+61 422 652 040", "rating": "5.0", "review": "6", "address": "Hawthorn East VIC, Australia", "website": "http://www.trickandtreattraining.com/", "post_code": "3122"}, {"title": "Pawsome Interactions", "phone": "+61 409 011 003", "rating": "5.0", "review": "11", "address": "Capel Sound VIC, Australia", "website": "https://www.pawsomeinteractions.com.au/", "post_code": "6271"}, {"title": "South Paws Dog Training & Dog Walking.", "phone": "+61 499 170 003", "rating": "5.0", "review": "4", "address": "Wheelers Hill VIC, Australia", "website": "http://www.southpawsdogtraining.com.au/", "post_code": "3150"}, {"title": "Queen of the Hounds", "phone": "--Not Provided--", "rating": "4.7", "review": "15", "address": "Yarraville VIC, Australia", "website": "http://www.queenofthehounds.com.au/", "post_code": "3013"}, {"title": "Perfect Paws Behaviour Solutions", "phone": "+61 479 151 920", "rating": "5.0", "review": "4", "address": "--Not Provided--", "website": "http://www.perfectpawsbehavioursolutions.com/", "post_code": "-"}, {"title": "Therapy Animals Australia", "phone": "+61 438 770 994", "rating": "4.0", "review": "2", "address": "--Not Provided--", "website": "https://therapyanimals.com.au/", "post_code": "-"}, {"title": "Laika Pet Training", "phone": "+61 3 9070 5435", "rating": "4.3", "review": "16", "address": "Kew East VIC, Australia", "website": "http://laikapettraining.com/", "post_code": "3101"}, {"title": "KCC Park", "phone": "--Not Provided--", "rating": "4.5", "review": "331", "address": "Skye VIC, Australia", "website": "http://www.dogsvictoria.org.au", "post_code": "3977"}, {"title": "VICDOG - Dog Training & Behaviour Specialists", "phone": "+61 423 021 824", "rating": "5.0", "review": "1", "address": "--Not Provided--", "website": "http://www.vicdog.com.au/", "post_code": "-"}, {"title": "How To Train a Dog", "phone": "+61 401 405 050", "rating": "5.0", "review": "1", "address": "--Not Provided--", "website": "http://howtotrainadog.com.au/", "post_code": "-"}, {"title": "The Doghouse Pet Services", "phone": "--Not Provided--", "rating": "5.0", "review": "12", "address": "--Not Provided--", "website": "https://thedoghouse.au/", "post_code": "-"}, {"title": "Dogs and Bonds", "phone": "+61 424 879 617", "rating": "5.0", "review": "1", "address": "--Not Provided--", "website": "http://www.dogsandbonds.com.au/", "post_code": "-"}, {"title": "K9 Ease", "phone": "+61 408 587 400", "rating": "5.0", "review": "2", "address": "--Not Provided--", "website": "http://www.k9ease.com/", "post_code": "-"}, {"title": "Mis Mannered Pups", "phone": "+61 422 697 519", "rating": "5.0", "review": "6", "address": "Wantirna VIC, Australia", "website": "https://www.mismanneredpups.com.au/", "post_code": "3152"}, {"title": "Calmk9", "phone": "+61 422 900 190", "rating": "5.0", "review": "2", "address": "--Not Provided--", "website": "http://calmk9.com.au/", "post_code": "-"}, {"title": "Puddles and Pippin", "phone": "--Not Provided--", "rating": "5.0", "review": "6", "address": "--Not Provided--", "website": "http://www.puddlesandpippin.com/", "post_code": "-"}, {"title": "Animal People", "phone": "--Not Provided--", "rating": "5.0", "review": "1", "address": "--Not Provided--", "website": "http://animalpeople.com.au/", "post_code": "-"}, {"title": "Windsor Walkies Pty Ltd", "phone": "--Not Provided--", "rating": "5.0", "review": "36", "address": "--Not Provided--", "website": "http://www.windsorwalkies.com.au/", "post_code": "-"}, {"title": "Calm k9 training", "phone": "+61 422 900 190", "rating": "5.0", "review": "3", "address": "--Not Provided--", "website": "http://calmk9.com.au/", "post_code": "-"}, {"title": "Dogtime Pet Services - Dog Trainer", "phone": "+61 435 179 200", "rating": "5.0", "review": "1", "address": "Brighton East VIC, Australia", "website": "http://dogtime.com.au/", "post_code": "3186"}, {"title": "HavaWalk", "phone": "+61 411 919 315", "rating": "5.0", "review": "4", "address": "--Not Provided--", "website": "https://havawalk.com.au/", "post_code": "-"}, {"title": "Works For Birds - Training & Behavior", "phone": "+61 408 350 942", "rating": "5.0", "review": "5", "address": "Burwood VIC, Australia", "website": "http://www.worksforbirds.com.au/", "post_code": "3125"}, {"title": "Wag It Dog Walking", "phone": "--Not Provided--", "rating": "5.0", "review": "1", "address": "--Not Provided--", "website": "http://www.wagit.com.au/", "post_code": "-"}, {"title": "HavaWalk", "phone": "+61 411 919 315", "rating": "5.0", "review": "1", "address": "--Not Provided--", "website": "http://www.havawalk.com.au/", "post_code": "-"}, {"title": "Diggers Herding & K9 Education", "phone": "--Not Provided--", "rating": "4.8", "review": "24", "address": "Sunbury VIC, Australia", "website": "http://www.diggersherding.com/", "post_code": "3429"}, {"title": "Lead From The Front Dog Training", "phone": "+61 402 918 585", "rating": "5.0", "review": "1", "address": "--Not Provided--", "website": "https://www.leadfromthefront.com.au/", "post_code": "-"}, {"title": "Jess' Canine College", "phone": "+61 433 487 683", "rating": "5.0", "review": "7", "address": "--Not Provided--", "website": "http://www.jesscaninecollege.com/", "post_code": "-"}, {"title": "Get Your Dog Walking", "phone": "+61 438 161 113", "rating": "4.9", "review": "14", "address": "--Not Provided--", "website": "https://www.getyourdogwalking.com.au/", "post_code": "-"}, {"title": "Puppy School", "phone": "+61 3 9480 1333", "rating": "5.0", "review": "1", "address": "Thornbury VIC, Australia", "website": "https://www.thornburyvet.com.au/about-us", "post_code": "3071"}, {"title": "Triple RRR Dog Training-Rescue Rehabilitate Retrain", "phone": "+61 438 767 745", "rating": "5.0", "review": "1", "address": "--Not Provided--", "website": "http://triplerrrdogtraining.com.au/", "post_code": "-"}, {"title": "Andy's Doggy Day Care", "phone": "--Not Provided--", "rating": "4.6", "review": "76", "address": "Brunswick East VIC, Australia", "website": "http://www.andysdoggydaycare.com.au/", "post_code": "3056"}, {"title": "From A Dog's View (Puppy School)", "phone": "+61 414 999 480", "rating": "5.0", "review": "1", "address": "West Footscray VIC, Australia", "website": "https://www.fromadogsview.com.au/puppy-classes/", "post_code": "3003"}, {"title": "Whyte Whispers Dog Trainer", "phone": "+61 484 097 314", "rating": "5.0", "review": "3", "address": "--Not Provided--", "website": "http://www.whytewhispers.com/", "post_code": "-"}, {"title": "Nose A Lot", "phone": "+61 437 669 022", "rating": "5.0", "review": "1", "address": "--Not Provided--", "website": "http://nosealot.com.au/", "post_code": "-"}]