[
    {
        "title": "K9 Trainer",
        "phone": "+61 406 873 308",
        "rating": "4.8",
        "review": "235",
        "address": "--Not Provided--",
        "website": "https://www.k9trainer.com.au/?utm_source=google&utm_medium=organic&utm_campaign=gmb",
        "post_code": "-"
    },
    {
        "title": "Mutts with Manners",
        "phone": "+61 410 626 677",
        "rating": "4.8",
        "review": "83",
        "address": "Glebe NSW, Australia",
        "website": "http://www.muttswithmanners.com.au/",
        "post_code": "2037"
    },
    {
        "title": "Eastern Suburbs Dog Training",
        "phone": "+61 404 331 741",
        "rating": "5.0",
        "review": "232",
        "address": "--Not Provided--",
        "website": "http://www.easternsuburbsdogtraining.com.au/",
        "post_code": "-"
    },
    {
        "title": "The Sydney Dog Trainer",
        "phone": "+61 490 545 437",
        "rating": "5.0",
        "review": "48",
        "address": "--Not Provided--",
        "website": "https://www.thesydneydogtrainer.com.au/",
        "post_code": "-"
    },
    {
        "title": "The Dog Brigade",
        "phone": "+61 405 534 034",
        "rating": "5.0",
        "review": "98",
        "address": "Sydney NSW, Australia",
        "website": "https://www.thedogbrigade.com.au/",
        "post_code": "2060"
    },
    {
        "title": "Polite Paws Dog Training, Puppy Preschool, Manners Classes & Behaviour Modification",
        "phone": "+61 432 633 250",
        "rating": "4.6",
        "review": "65",
        "address": "Bexley NSW, Australia",
        "website": "http://www.politepaws.com.au/",
        "post_code": "2207"
    },
    {
        "title": "Canine Counselling",
        "phone": "+61 448 599 663",
        "rating": "5.0",
        "review": "154",
        "address": "--Not Provided--",
        "website": "https://www.k9counselling.com.au/",
        "post_code": "-"
    },
    {
        "title": "Eazy Dog Training",
        "phone": "+61 404 022 114",
        "rating": "4.8",
        "review": "166",
        "address": "--Not Provided--",
        "website": "https://eazydogtraining.com/",
        "post_code": "-"
    },
    {
        "title": "Pet Professor - Dog Training Sydney",
        "phone": "+61 433 612 059",
        "rating": "5.0",
        "review": "21",
        "address": "--Not Provided--",
        "website": "https://www.petprofessor.com.au/",
        "post_code": "-"
    },
    {
        "title": "Bark Busters Inner West Sydney",
        "phone": "+61 1800 067 710",
        "rating": "5.0",
        "review": "47",
        "address": "--Not Provided--",
        "website": "https://barkbusters.com.au/dog-training-inner-west-sydney",
        "post_code": "-"
    },
    {
        "title": "DogTech",
        "phone": "+61 2 8018 5200",
        "rating": "4.3",
        "review": "80",
        "address": "Hurlstone Park NSW, Australia",
        "website": "https://dogtech.com.au/",
        "post_code": "2193"
    },
    {
        "title": "Rejoice Dogs Team",
        "phone": "+61 452 506 357",
        "rating": "4.7",
        "review": "79",
        "address": "--Not Provided--",
        "website": "https://rejoicedogsteam.com.au/",
        "post_code": "-"
    },
    {
        "title": "Dog Behaviour Specialist",
        "phone": "+61 422 528 600",
        "rating": "4.4",
        "review": "182",
        "address": "Norwest NSW, Australia",
        "website": "http://www.dogbehaviourspecialist.com.au/",
        "post_code": "-"
    },
    {
        "title": "Witty Woofs - Force Free Games Based Dog Behaviour and Training",
        "phone": "--Not Provided--",
        "rating": "5.0",
        "review": "22",
        "address": "--Not Provided--",
        "website": "http://www.wittywoofs.com/",
        "post_code": "-"
    },
    {
        "title": "Bondi Behaviourist",
        "phone": "+61 2 9130 2415",
        "rating": "5.0",
        "review": "71",
        "address": "--Not Provided--",
        "website": "https://www.bondibehaviourist.com/",
        "post_code": "-"
    },
    {
        "title": "Kizuna Canine: Southern Sydney Dog Training",
        "phone": "--Not Provided--",
        "rating": "5.0",
        "review": "27",
        "address": "--Not Provided--",
        "website": "http://www.kizunacanine.com/",
        "post_code": "-"
    },
    {
        "title": "Bark Busters Eastern Suburbs & Sydney Southern",
        "phone": "+61 416 015 589",
        "rating": "5.0",
        "review": "183",
        "address": "--Not Provided--",
        "website": "https://www.barkbusters.com.au/dog-training-sydney-southern",
        "post_code": "-"
    },
    {
        "title": "Paws And Think Animal Training",
        "phone": "+61 415 314 970",
        "rating": "5.0",
        "review": "32",
        "address": "St Peters NSW, Australia",
        "website": "http://www.pawsandthink.com.au/",
        "post_code": "3021"
    },
    {
        "title": "Guard Dog Training Centre",
        "phone": "+61 2 4572 5338",
        "rating": "4.5",
        "review": "559",
        "address": "Berkshire Park NSW, Australia",
        "website": "https://www.guarddogtraining.com.au/",
        "post_code": "2765"
    },
    {
        "title": "Paws & Train",
        "phone": "+61 402 543 945",
        "rating": "5.0",
        "review": "36",
        "address": "--Not Provided--",
        "website": "http://pawsandtrain.com.au/",
        "post_code": "-"
    },
    {
        "title": "so help me dog",
        "phone": "+61 434 088 150",
        "rating": "5.0",
        "review": "34",
        "address": "Bondi Junction NSW, Australia",
        "website": "http://www.sohelpmedog.net/",
        "post_code": "2026"
    },
    {
        "title": "Kizuna Canine: Southern Sydney Dog Training",
        "phone": "--Not Provided--",
        "rating": "5.0",
        "review": "27",
        "address": "--Not Provided--",
        "website": "http://www.kizunacanine.com/",
        "post_code": "-"
    },
    {
        "title": "Mali The Dog Trainer",
        "phone": "+61 408 606 967",
        "rating": "5.0",
        "review": "45",
        "address": "Castlecrag NSW, Australia",
        "website": "http://www.malithedogtrainer.com.au/",
        "post_code": "2068"
    },
    {
        "title": "Dog's Natural Ability",
        "phone": "+61 411 556 634",
        "rating": "5.0",
        "review": "62",
        "address": "--Not Provided--",
        "website": "https://dogsnaturalability.com.au/",
        "post_code": "-"
    },
    {
        "title": "H & C Dog Training",
        "phone": "+61 422 264 049",
        "rating": "5.0",
        "review": "23",
        "address": "--Not Provided--",
        "website": "https://www.handcdogtraining.com.au/",
        "post_code": "-"
    },
    {
        "title": "Dog Behaviour Specialist",
        "phone": "+61 422 528 600",
        "rating": "4.4",
        "review": "182",
        "address": "Norwest NSW, Australia",
        "website": "http://www.dogbehaviourspecialist.com.au/",
        "post_code": "-"
    },
    {
        "title": "Speak Dog - Positive Dog Training Sydney",
        "phone": "+61 450 461 210",
        "rating": "5.0",
        "review": "13",
        "address": "Annandale NSW, Australia",
        "website": "http://www.speakdog.com.au/",
        "post_code": "2038"
    },
    {
        "title": "dogLOGIC",
        "phone": "+61 419 999 975",
        "rating": "4.9",
        "review": "55",
        "address": "Lewish NSW, Australia",
        "website": "http://doglogic.com.au/",
        "post_code": "-"
    },
    {
        "title": "Working with Woofers Pty Ltd",
        "phone": "+61 421 416 281",
        "rating": "5.0",
        "review": "31",
        "address": "--Not Provided--",
        "website": "https://www.workingwithwoofers.com/",
        "post_code": "-"
    },
    {
        "title": "Happy Funny Paws",
        "phone": "+61 424 232 721",
        "rating": "5.0",
        "review": "25",
        "address": "--Not Provided--",
        "website": "https://www.happyfunnypaws.com/",
        "post_code": "-"
    },
    {
        "title": "Sophia Gillis - Dog Behaviourist",
        "phone": "+61 423 411 336",
        "rating": "5.0",
        "review": "17",
        "address": "--Not Provided--",
        "website": "http://sophiagillisdogbehaviourist.com.au/?utm_source=gmb&utm_medium=referral",
        "post_code": "-"
    },
    {
        "title": "Sydney All Breeds Dog Training Club",
        "phone": "+61 2 0227 2238",
        "rating": "4.7",
        "review": "18",
        "address": "Concord NSW, Australia",
        "website": "http://www.sabdtc.com/membership/",
        "post_code": "2138"
    },
    {
        "title": "Affinity Dog Training & Behaviour Modification",
        "phone": "+61 412 258 203",
        "rating": "4.9",
        "review": "19",
        "address": "Kellyville Ridge NSW, Australia",
        "website": "http://www.affinitydog.com.au/",
        "post_code": "2155"
    },
    {
        "title": "See Spot Run",
        "phone": "+61 405 291 339",
        "rating": "4.7",
        "review": "26",
        "address": "Willoughby NSW, Australia",
        "website": "http://seespotrun.com.au/",
        "post_code": "2068"
    },
    {
        "title": "Chasing tails dog training",
        "phone": "+61 456 268 547",
        "rating": "5.0",
        "review": "27",
        "address": "--Not Provided--",
        "website": "http://www.chasingtailsdogtraining.com.au/",
        "post_code": "-"
    },
    {
        "title": "Guard Dog Training Centre",
        "phone": "+61 2 4572 5338",
        "rating": "4.5",
        "review": "559",
        "address": "Berkshire Park NSW, Australia",
        "website": "https://www.guarddogtraining.com.au/",
        "post_code": "2765"
    },
    {
        "title": "Training Mutts - Where Anything is Pawsible Dog Training",
        "phone": "+61 423 105 395",
        "rating": "5.0",
        "review": "11",
        "address": "--Not Provided--",
        "website": "https://www.trainingmutts.au/",
        "post_code": "-"
    },
    {
        "title": "K9Fun - Dog Training & Behaviour",
        "phone": "+61 424 293 692",
        "rating": "4.9",
        "review": "18",
        "address": "--Not Provided--",
        "website": "http://www.k9fun.com.au/",
        "post_code": "-"
    },
    {
        "title": "Balanced Pack - Doggy Daycare and Behavioural Dog Training",
        "phone": "+61 452 565 629",
        "rating": "4.5",
        "review": "21",
        "address": "--Not Provided--",
        "website": "https://www.balancedpack.com.au/",
        "post_code": "-"
    },
    {
        "title": "Barking Mad Dogs walking and training",
        "phone": "+61 400 388 199",
        "rating": "5.0",
        "review": "13",
        "address": "Matraville NSW, Australia",
        "website": "http://www.barkingmaddogs.com.au/",
        "post_code": "2036"
    },
    {
        "title": "The Successful Hound",
        "phone": "+61 403 763 535",
        "rating": "5.0",
        "review": "15",
        "address": "North Sydney NSW, Australia",
        "website": "http://www.thesuccessfulhound.com.au/",
        "post_code": "3978"
    },
    {
        "title": "Jenny Harlow Dog Training",
        "phone": "+61 419 535 236",
        "rating": "5.0",
        "review": "7",
        "address": "--Not Provided--",
        "website": "https://jhdogtraining.com.au/",
        "post_code": "-"
    },
    {
        "title": "Dog On It",
        "phone": "+61 435 462 432",
        "rating": "5.0",
        "review": "53",
        "address": "Queenscliff NSW, Australia",
        "website": "http://www.dogonit.com.au/",
        "post_code": "2096"
    },
    {
        "title": "Pawsitive Mindset",
        "phone": "+61 416 208 071",
        "rating": "5.0",
        "review": "8",
        "address": "--Not Provided--",
        "website": "http://www.pawsitivemindset.com.au/",
        "post_code": "-"
    },
    {
        "title": "Dog & Bone Sydney",
        "phone": "+61 416 814 250",
        "rating": "5.0",
        "review": "11",
        "address": "Croydon Park NSW, Australia",
        "website": "https://dogandbonetraining.com/",
        "post_code": "3136"
    },
    {
        "title": "Not So Wild | Dog Training",
        "phone": "+61 433 600 652",
        "rating": "5.0",
        "review": "18",
        "address": "--Not Provided--",
        "website": "https://notsowild.co/",
        "post_code": "-"
    },
    {
        "title": "Puppy to Dog School",
        "phone": "+61 404 016 836",
        "rating": "4.8",
        "review": "15",
        "address": "--Not Provided--",
        "website": "http://www.puppytodogschool.com.au/",
        "post_code": "-"
    },
    {
        "title": "Bond & Beyond Dog Specialist",
        "phone": "+61 401 225 405",
        "rating": "5.0",
        "review": "45",
        "address": "--Not Provided--",
        "website": "http://www.bondbeyond.com.au/",
        "post_code": "-"
    },
    {
        "title": "Maddy's Dog School",
        "phone": "+61 451 113 184",
        "rating": "5.0",
        "review": "11",
        "address": "Clovelly NSW, Australia",
        "website": "http://www.maddysdogschool.com/",
        "post_code": "5042"
    },
    {
        "title": "Howling Success Dog Training",
        "phone": "+61 425 349 326",
        "rating": "5.0",
        "review": "22",
        "address": "--Not Provided--",
        "website": "https://howlingsuccessdogtraining.com/",
        "post_code": "-"
    },
    {
        "title": "Pawprint Dog Training",
        "phone": "+61 402 446 417",
        "rating": "4.7",
        "review": "54",
        "address": "--Not Provided--",
        "website": "https://www.pawprintdogtraining.com.au/",
        "post_code": "-"
    },
    {
        "title": "K9 Connection Dog Training",
        "phone": "+61 418 188 804",
        "rating": "5.0",
        "review": "14",
        "address": "--Not Provided--",
        "website": "http://www.k9connectiondogtraining.com.au/",
        "post_code": "-"
    },
    {
        "title": "Positively Rewarding",
        "phone": "+61 421 188 819",
        "rating": "5.0",
        "review": "21",
        "address": "Balmain NSW, Australia",
        "website": "http://www.positivelyrewarding.com.au/",
        "post_code": "2041"
    },
    {
        "title": "Dogwise Behaviour and Training - North Shore",
        "phone": "+61 400 707 388",
        "rating": "5.0",
        "review": "6",
        "address": "--Not Provided--",
        "website": "http://www.dogwisetraining.com.au/",
        "post_code": "-"
    },
    {
        "title": "Amy's Puppy Pre-School",
        "phone": "+61 410 485 175",
        "rating": "5.0",
        "review": "26",
        "address": "Narraweena NSW, Australia",
        "website": "http://www.puppypre-school.com.au/",
        "post_code": "2099"
    },
    {
        "title": "Rascals and Mutts Dog Walking & Training",
        "phone": "+61 423 412 406",
        "rating": "5.0",
        "review": "14",
        "address": "--Not Provided--",
        "website": "http://www.rascalsandmutts.com/",
        "post_code": "-"
    },
    {
        "title": "Nooch's Pooches",
        "phone": "+61 423 706 676",
        "rating": "4.9",
        "review": "68",
        "address": "Monterey NSW, Australia",
        "website": "http://www.npdogtraining.com/",
        "post_code": "2217"
    },
    {
        "title": "Paws Plus Consulting",
        "phone": "+61 410 667 414",
        "rating": "4.8",
        "review": "37",
        "address": "Caringbah NSW, Australia",
        "website": "http://www.pawsplusconsulting.com/",
        "post_code": "2229"
    },
    {
        "title": "Paddington Puppy School by The Dog Sessions",
        "phone": "+61 411 494 346",
        "rating": "5.0",
        "review": "18",
        "address": "Paddington NSW, Australia",
        "website": "http://www.thedogsessions.com.au/",
        "post_code": "4064"
    },
    {
        "title": "ZVER Canine - Professional Dog Training",
        "phone": "+61 435 192 167",
        "rating": "5.0",
        "review": "46",
        "address": "--Not Provided--",
        "website": "https://www.zver.com.au/",
        "post_code": "-"
    },
    {
        "title": "Bark Busters Home Dog Training Northern Suburbs Sydney",
        "phone": "+61 1800 067 710",
        "rating": "5.0",
        "review": "7",
        "address": "--Not Provided--",
        "website": "https://barkbusters.com.au/dog_trainers/sharon-scott-birrell/",
        "post_code": "-"
    },
    {
        "title": "Happy Chappy dog training",
        "phone": "+61 479 054 116",
        "rating": "5.0",
        "review": "16",
        "address": "--Not Provided--",
        "website": "https://www.happychappydogtraining.com/",
        "post_code": "-"
    },
    {
        "title": "Dog Modo",
        "phone": "+61 434 812 130",
        "rating": "5.0",
        "review": "7",
        "address": "Balgowlah NSW, Australia",
        "website": "http://www.dogmodo.com.au/",
        "post_code": "2093"
    },
    {
        "title": "Animal Wellness and Behaviour",
        "phone": "+61 414 179 056",
        "rating": "5.0",
        "review": "60",
        "address": "Penrith NSW, Australia",
        "website": "https://www.animalwellnessandbehaviour.com.au/",
        "post_code": "2750"
    },
    {
        "title": "Gold Class K9",
        "phone": "+61 434 700 046",
        "rating": "5.0",
        "review": "22",
        "address": "--Not Provided--",
        "website": "http://www.goldclassk9.net/",
        "post_code": "-"
    },
    {
        "title": "Cheeky Pup! Dog Training",
        "phone": "+61 433 533 139",
        "rating": "4.4",
        "review": "9",
        "address": "--Not Provided--",
        "website": "http://cheekypup.com.au/",
        "post_code": "-"
    },
    {
        "title": "Canine Evolution",
        "phone": "+61 1800 226 463",
        "rating": "4.9",
        "review": "12",
        "address": "--Not Provided--",
        "website": "http://canineevolution.com.au/",
        "post_code": "-"
    },
    {
        "title": "Curious Canine Training",
        "phone": "+61 434 413 165",
        "rating": "5.0",
        "review": "26",
        "address": "--Not Provided--",
        "website": "https://curiouscaninetraining.com.au/",
        "post_code": "-"
    },
    {
        "title": "The Dog Jogger",
        "phone": "--Not Provided--",
        "rating": "5.0",
        "review": "7",
        "address": "--Not Provided--",
        "website": "https://www.thedogjogger.com.au/",
        "post_code": "-"
    },
    {
        "title": "Goodog Positive Dog Training",
        "phone": "+61 424 740 234",
        "rating": "5.0",
        "review": "19",
        "address": "--Not Provided--",
        "website": "http://goodog.com.au/",
        "post_code": "-"
    },
    {
        "title": "Take a lead",
        "phone": "--Not Provided--",
        "rating": "5.0",
        "review": "11",
        "address": "Rose Bay NSW, Australia",
        "website": "http://www.takealead.com.au/",
        "post_code": "2029"
    },
    {
        "title": "Pro Paws Professional Dog Training, Walking and Pet Sitting",
        "phone": "+61 402 310 463",
        "rating": "4.3",
        "review": "12",
        "address": "Gladesville NSW, Australia",
        "website": "https://www.propaws.com.au/",
        "post_code": "2111"
    },
    {
        "title": "Skill Up my Pup",
        "phone": "+61 452 090 605",
        "rating": "5.0",
        "review": "21",
        "address": "--Not Provided--",
        "website": "http://www.skillupmypup.com/",
        "post_code": "-"
    },
    {
        "title": "Dog Goals",
        "phone": "+61 431 378 985",
        "rating": "5.0",
        "review": "11",
        "address": "--Not Provided--",
        "website": "http://www.doggoals.com.au/",
        "post_code": "-"
    },
    {
        "title": "Dog manners sydney",
        "phone": "+61 405 716 442",
        "rating": "5.0",
        "review": "8",
        "address": "Engadine NSW, Australia",
        "website": "http://www.dogmannerssydney.com.au/",
        "post_code": "2233"
    },
    {
        "title": "Problems On Paws",
        "phone": "+61 406 649 633",
        "rating": "5.0",
        "review": "13",
        "address": "--Not Provided--",
        "website": "https://www.problemsonpaws.com.au/",
        "post_code": "-"
    },
    {
        "title": "Pawsitive Training Solutions",
        "phone": "+61 432 228 607",
        "rating": "5.0",
        "review": "17",
        "address": "--Not Provided--",
        "website": "http://www.pawsitivetraining.com.au/",
        "post_code": "-"
    },
    {
        "title": "R+ Dog Training",
        "phone": "+61 430 006 045",
        "rating": "4.9",
        "review": "16",
        "address": "Dural NSW, Australia",
        "website": "https://www.rplusdogtraining.com.au/",
        "post_code": "2158"
    },
    {
        "title": "The Hound Lounge",
        "phone": "--Not Provided--",
        "rating": "4.9",
        "review": "76",
        "address": "Cperdown NSW, Australia",
        "website": "http://www.thehoundlounge.com.au/",
        "post_code": "-"
    },
    {
        "title": "Pups Academy",
        "phone": "+61 466 800 347",
        "rating": "5.0",
        "review": "11",
        "address": "--Not Provided--",
        "website": "https://app.acuityscheduling.com/schedule.php?owner=20016932",
        "post_code": "-"
    },
    {
        "title": "DOG STAR Training",
        "phone": "+61 420 722 148",
        "rating": "5.0",
        "review": "3",
        "address": "--Not Provided--",
        "website": "http://www.dogstartraining.com.au/",
        "post_code": "-"
    },
    {
        "title": "Serenity Scent Work",
        "phone": "+61 492 916 505",
        "rating": "5.0",
        "review": "8",
        "address": "--Not Provided--",
        "website": "https://serenitydogtraining.com.au/",
        "post_code": "-"
    },
    {
        "title": "Champagne Paws Surry Hills",
        "phone": "+61 422 393 267",
        "rating": "5.0",
        "review": "5",
        "address": "--Not Provided--",
        "website": "https://bio.site/ChampagnePaws",
        "post_code": "-"
    },
    {
        "title": "Mad Dogs & Englishmen Strathfield & Five Dock - Dog Walking & Doggy Daycare",
        "phone": "--Not Provided--",
        "rating": "5.0",
        "review": "20",
        "address": "--Not Provided--",
        "website": "http://www.maddogsdogwalking.com.au/",
        "post_code": "-"
    },
    {
        "title": "Pawsitive Vibe Fitness",
        "phone": "+61 490 493 471",
        "rating": "5.0",
        "review": "9",
        "address": "Centennial Park NSW, Australia",
        "website": "http://www.pawsitivevibefitness.com/",
        "post_code": "6330"
    },
    {
        "title": "Sydney dog behavioural centre",
        "phone": "+61 477 330 800",
        "rating": "5.0",
        "review": "21",
        "address": "Catherine Field NSW, Australia",
        "website": "https://sydneydogbehaviouralcentre.com.au/",
        "post_code": "2557"
    },
    {
        "title": "Dogs On Cue",
        "phone": "+61 451 919 302",
        "rating": "5.0",
        "review": "5",
        "address": "Brookvale NSW, Australia",
        "website": "http://www.dogsoncue.com.au/",
        "post_code": "2100"
    },
    {
        "title": "Stellar Paws",
        "phone": "--Not Provided--",
        "rating": "4.8",
        "review": "24",
        "address": "Naremburn NSW, Australia",
        "website": "https://stellarpaws.com.au/",
        "post_code": "2065"
    },
    {
        "title": "Miss Behaviour Dog Training Services",
        "phone": "--Not Provided--",
        "rating": "4.5",
        "review": "10",
        "address": "Hebersh NSW, Australia",
        "website": "http://www.miss-behaviour.com.au/",
        "post_code": "-"
    },
    {
        "title": "The Dog Exorcist Dog Behaviourist",
        "phone": "+61 432 750 250",
        "rating": "5.0",
        "review": "4",
        "address": "--Not Provided--",
        "website": "https://noonies.org/dog-behaviour-guru/",
        "post_code": "-"
    },
    {
        "title": "The Unemployed Dogs",
        "phone": "+61 426 613 601",
        "rating": "5.0",
        "review": "10",
        "address": "--Not Provided--",
        "website": "http://www.theunemployeddogs.com.au/",
        "post_code": "-"
    },
    {
        "title": "Lamarra Canine",
        "phone": "+61 415 776 161",
        "rating": "4.9",
        "review": "13",
        "address": "Vineyard NSW, Australia",
        "website": "http://www.lamarracanine.com.au/",
        "post_code": "2765"
    },
    {
        "title": "I walk your dog",
        "phone": "+61 435 141 157",
        "rating": "5.0",
        "review": "5",
        "address": "--Not Provided--",
        "website": "https://www.iwalkyourdog.com.au/",
        "post_code": "-"
    },
    {
        "title": "Sydney Canine School",
        "phone": "+61 450 911 154",
        "rating": "5.0",
        "review": "2",
        "address": "--Not Provided--",
        "website": "http://sydneycanineschool.com.au/",
        "post_code": "-"
    },
    {
        "title": "Puppy Playground",
        "phone": "--Not Provided--",
        "rating": "4.6",
        "review": "109",
        "address": "Zetland NSW, Australia",
        "website": "http://www.puppyplaygroundsydney.com.au/",
        "post_code": "2017"
    },
    {
        "title": "Total Dog",
        "phone": "+61 403 779 336",
        "rating": "5.0",
        "review": "6",
        "address": "Beacon Hill NSW, Australia",
        "website": "http://www.totaldog.biz/",
        "post_code": "2100"
    },
    {
        "title": "Megan's Dog Training",
        "phone": "+61 417 237 407",
        "rating": "5.0",
        "review": "19",
        "address": "--Not Provided--",
        "website": "https://www.facebook.com/profile.php?id=100057685448630",
        "post_code": "-"
    },
    {
        "title": "Positive Dogs",
        "phone": "+61 416 090 600",
        "rating": "5.0",
        "review": "3",
        "address": "--Not Provided--",
        "website": "http://www.positivedogs.com.au/",
        "post_code": "-"
    },
    {
        "title": "Pets Training & Boarding | Dog Kennels & Cat Hotels in Sydney",
        "phone": "+61 1300 889 263",
        "rating": "4.3",
        "review": "182",
        "address": "Berkshire Park NSW, Australia",
        "website": "https://www.petstrainingandboarding.com.au/",
        "post_code": "2765"
    },
    {
        "title": "Bayside Dogs",
        "phone": "+61 404 679 216",
        "rating": "5.0",
        "review": "7",
        "address": "--Not Provided--",
        "website": "https://www.baysidedogs.com.au/",
        "post_code": "-"
    },
    {
        "title": "Happy Tails Dog Services",
        "phone": "--Not Provided--",
        "rating": "4.4",
        "review": "7",
        "address": "Camperdown NSW, Australia",
        "website": "https://thehappiestoftails.com.au/",
        "post_code": "3260"
    },
    {
        "title": "Dog 'n' Puppy Training",
        "phone": "--Not Provided--",
        "rating": "5.0",
        "review": "1",
        "address": "--Not Provided--",
        "website": "https://sites.google.com/view/puppyndogtraining/home",
        "post_code": "-"
    },
    {
        "title": "Promising Pups Dog Training",
        "phone": "+61 402 280 868",
        "rating": "5.0",
        "review": "10",
        "address": "--Not Provided--",
        "website": "https://promisingpups.com.au/",
        "post_code": "-"
    },
    {
        "title": "Understanding Canine Dog Training",
        "phone": "--Not Provided--",
        "rating": "5.0",
        "review": "13",
        "address": "--Not Provided--",
        "website": "https://www.understandingcanine.com/",
        "post_code": "-"
    },
    {
        "title": "Mad Dogs & Englishmen Inner West - Dog Walking & Doggy Daycare",
        "phone": "--Not Provided--",
        "rating": "4.5",
        "review": "17",
        "address": "--Not Provided--",
        "website": "http://www.maddogsandenglishmen.com.au/",
        "post_code": "-"
    },
    {
        "title": "Margi & Me",
        "phone": "+61 431 927 315",
        "rating": "5.0",
        "review": "3",
        "address": "--Not Provided--",
        "website": "http://www.margiandme.com.au/",
        "post_code": "-"
    },
    {
        "title": "WOOFLES Professional Dog Services - Inner West",
        "phone": "--Not Provided--",
        "rating": "5.0",
        "review": "17",
        "address": "Leichhardt NSW, Australia",
        "website": "http://www.woofles.com.au/",
        "post_code": "4305"
    },
    {
        "title": "Shake & Wag",
        "phone": "+61 416 116 432",
        "rating": "5.0",
        "review": "3",
        "address": "--Not Provided--",
        "website": "http://shakeandwag.com.au/",
        "post_code": "-"
    },
    {
        "title": "Mad Dogs & Englishmen Coogee - Dog Walking and Doggy Daycare",
        "phone": "--Not Provided--",
        "rating": "4.7",
        "review": "12",
        "address": "--Not Provided--",
        "website": "http://www.mdae.com.au/",
        "post_code": "-"
    },
    {
        "title": "Curious Paws",
        "phone": "+61 474 955 695",
        "rating": "5.0",
        "review": "3",
        "address": "--Not Provided--",
        "website": "http://www.curiouspaws.com.au/",
        "post_code": "-"
    },
    {
        "title": "Adore The Paw",
        "phone": "--Not Provided--",
        "rating": "5.0",
        "review": "8",
        "address": "--Not Provided--",
        "website": "http://www.adorethepaw.com.au/",
        "post_code": "-"
    },
    {
        "title": "Paws Mindfully",
        "phone": "+61 452 280 543",
        "rating": "5.0",
        "review": "2",
        "address": "--Not Provided--",
        "website": "https://www.pawsmindfully.com.au/",
        "post_code": "-"
    },
    {
        "title": "Austins' Dog Training Education",
        "phone": "--Not Provided--",
        "rating": "5.0",
        "review": "4",
        "address": "--Not Provided--",
        "website": "https://www.austinsdogtrainingeducation.com.au/",
        "post_code": "-"
    },
    {
        "title": "Formidable k9",
        "phone": "+61 477 330 800",
        "rating": "5.0",
        "review": "3",
        "address": "--Not Provided--",
        "website": "http://www.formidablek9.com/",
        "post_code": "-"
    },
    {
        "title": "Trained by Phoebe",
        "phone": "+61 424 728 483",
        "rating": "5.0",
        "review": "4",
        "address": "--Not Provided--",
        "website": "https://www.facebook.com/TrainedbyPhoebe",
        "post_code": "-"
    },
    {
        "title": "Puppy School Hills District | Dog Training Hills District",
        "phone": "+61 2 8294 5356",
        "rating": "5.0",
        "review": "2",
        "address": "--Not Provided--",
        "website": "https://puppyschoolhillsdistrict.com/",
        "post_code": "-"
    },
    {
        "title": "K9 VARSITY",
        "phone": "+61 422 174 818",
        "rating": "5.0",
        "review": "3",
        "address": "--Not Provided--",
        "website": "http://www.facebook.com/k9varsity",
        "post_code": "-"
    },
    {
        "title": "Dogtastic Training Sydney",
        "phone": "+61 404 588 993",
        "rating": "5.0",
        "review": "3",
        "address": "--Not Provided--",
        "website": "http://www.dogtasticsydney.com.au/",
        "post_code": "-"
    },
    {
        "title": "Doggie Does Good",
        "phone": "+61 418 208 583",
        "rating": "5.0",
        "review": "1",
        "address": "Leichhardt NSW, Australia",
        "website": "http://www.doggiedoesgood.com.au/",
        "post_code": "4305"
    },
    {
        "title": "Agility Dog Club of NSW Inc.",
        "phone": "+61 411 763 280",
        "rating": "4.0",
        "review": "7",
        "address": "Baulkham Hills NSW, Australia",
        "website": "https://www.agilitydogclubnsw.com.au/",
        "post_code": "2153"
    },
    {
        "title": "Hanrob",
        "phone": "--Not Provided--",
        "rating": "4.6",
        "review": "221",
        "address": "Mascot NSW, Australia",
        "website": "https://hanrob.com.au/locations/sydney-airport/",
        "post_code": "2020"
    },
    {
        "title": "Oh My Woof",
        "phone": "--Not Provided--",
        "rating": "5.0",
        "review": "10",
        "address": "Arncliffe NSW, Australia",
        "website": "https://ohmywoof.com.au/",
        "post_code": "2205"
    },
    {
        "title": "Dogster",
        "phone": "--Not Provided--",
        "rating": "4.4",
        "review": "29",
        "address": "--Not Provided--",
        "website": "http://www.dogster.com.au/",
        "post_code": "-"
    },
    {
        "title": "Animal Talent",
        "phone": "+61 437 148 402",
        "rating": "4.8",
        "review": "35",
        "address": "Woy Woy NSW, Australia",
        "website": "https://animaltalent.com.au/",
        "post_code": "2256"
    },
    {
        "title": "Dog Walking Adventures & Pet Care Services",
        "phone": "--Not Provided--",
        "rating": "5.0",
        "review": "7",
        "address": "Alexandria NSW, Australia",
        "website": "http://www.dogwalkingadventures.com.au/",
        "post_code": "1435"
    },
    {
        "title": "Canine C.A.R.E.GIVERS",
        "phone": "--Not Provided--",
        "rating": "5.0",
        "review": "2",
        "address": "--Not Provided--",
        "website": "https://caninecaregivers.com.au/",
        "post_code": "-"
    },
    {
        "title": "Caio Lopes Lamarra Canine Dog Training",
        "phone": "+61 415 776 161",
        "rating": "5.0",
        "review": "1",
        "address": "Vineyard NSW, Australia",
        "website": "http://www.lamarracanine.com.au/",
        "post_code": "2765"
    },
    {
        "title": "Paws of DownUnder",
        "phone": "+61 450 183 260",
        "rating": "5.0",
        "review": "3",
        "address": "--Not Provided--",
        "website": "http://www.pawsofdownunder.com.au/",
        "post_code": "-"
    },
    {
        "title": "The Dog Nose",
        "phone": "+61 434 842 447",
        "rating": "5.0",
        "review": "2",
        "address": "--Not Provided--",
        "website": "http://www.thedognose.com.au/",
        "post_code": "-"
    },
    {
        "title": "Steve Austin Canine Behaviour and Training",
        "phone": "+61 419 983 164",
        "rating": "5.0",
        "review": "1",
        "address": "Arcadia NSW, Australia",
        "website": "https://www.austinsdogtrainingeducation.com.au/",
        "post_code": "2159"
    },
    {
        "title": "Dogs @ Play",
        "phone": "--Not Provided--",
        "rating": "4.6",
        "review": "155",
        "address": "Surry Hills NSW, Australia",
        "website": "http://dogsplay.com.au/",
        "post_code": "2010"
    },
    {
        "title": "Tails R Wagging",
        "phone": "--Not Provided--",
        "rating": "4.1",
        "review": "82",
        "address": "Rozelle NSW, Australia",
        "website": "http://www.tailsrwagging.com/",
        "post_code": "2039"
    },
    {
        "title": "Noonies Pet Care",
        "phone": "--Not Provided--",
        "rating": "4.7",
        "review": "108",
        "address": "--Not Provided--",
        "website": "http://www.noonies.org/",
        "post_code": "-"
    },
    {
        "title": "Little Urban Wolves",
        "phone": "--Not Provided--",
        "rating": "5.0",
        "review": "25",
        "address": "Homebush NSW, Australia",
        "website": "https://littleurbanwolves.com.au/",
        "post_code": "2140"
    },
    {
        "title": "The Dog Sessions",
        "phone": "--Not Provided--",
        "rating": "4.3",
        "review": "6",
        "address": "--Not Provided--",
        "website": "http://www.thedogsessions.com.au/",
        "post_code": "-"
    },
    {
        "title": "Goin' Muttz",
        "phone": "+61 435 139 880",
        "rating": "5.0",
        "review": "36",
        "address": "Dunlop ACT, Australia",
        "website": "https://www.goinmuttz.com.au/",
        "post_code": "2615"
    },
    {
        "title": "That Dog Trainer Dude",
        "phone": "+61 409 365 222",
        "rating": "5.0",
        "review": "16",
        "address": "--Not Provided--",
        "website": "https://thatdogtrainerdude.com/",
        "post_code": "-"
    },
    {
        "title": "Dogs in Town",
        "phone": "--Not Provided--",
        "rating": "4.8",
        "review": "218",
        "address": "Alexandria NSW, Australia",
        "website": "http://www.dogsintown.com.au/",
        "post_code": "1435"
    },
    {
        "title": "Canine Fun Sports",
        "phone": "+61 2 9918 2375",
        "rating": "4.0",
        "review": "1",
        "address": "Avalon Beach NSW, Australia",
        "website": "http://caninefunsports.com.au/",
        "post_code": "2107"
    },
    {
        "title": "PetCloud",
        "phone": "--Not Provided--",
        "rating": "4.6",
        "review": "44",
        "address": "--Not Provided--",
        "website": "https://www.petcloud.com.au/?UTM_source=GMB_listing&UTM_medium=organic&utm_source=google&utm_medium=organic&utm_campaign=Google%20My%20Business&utm_content=Pet%20Sitters%20Sydney%20%7C%20PetCloud%20%7C%20Find%20RSPCA%20Accredited%20Pet%20Carers%20-%20Potts%20Point&utm_term=plcid_2744026086882989294",
        "post_code": "-"
    },
    {
        "title": "Bark Brigade",
        "phone": "--Not Provided--",
        "rating": "5.0",
        "review": "2",
        "address": "--Not Provided--",
        "website": "http://barkbrigade.com.au/",
        "post_code": "-"
    }
]