[{"title": "Pawdressers Dog Grooming", "phone": "+61 429 901 504", "rating": "5.0", "review": "82", "address": "Darlinghurst NSW, Australia", "website": "http://www.pawdressers.com.au/", "post_code": "2010"}, {"title": "Newtown Sakura la Dog Grooming Salon", "phone": "+61 2 9557 4861", "rating": "4.6", "review": "146", "address": "Newtown NSW, Australia", "website": "http://www.sakuralagrooming.com/", "post_code": "3220"}, {"title": "Flawless Paws Pet Grooming", "phone": "+61 468 460 234", "rating": "5.0", "review": "100", "address": "Potts Point NSW, Australia", "website": "https://www.flawlesspaws.com.au/", "post_code": "2011"}, {"title": "NOSE PET GROOMING Sydney", "phone": "+61 2 8399 3138", "rating": "4.8", "review": "39", "address": "Surry Hills NSW, Australia", "website": "http://www.nosesyd.com/", "post_code": "2010"}, {"title": "Spoilt Rotten Dogs", "phone": "--Not Provided--", "rating": "4.6", "review": "123", "address": "Lilyfield NSW, Australia", "website": "https://www.spoiltrottendogs.com.au/", "post_code": "2040"}, {"title": "Puppy Square", "phone": "+61 416 922 345", "rating": "4.7", "review": "75", "address": "Queens Park NSW, Australia", "website": "http://www.puppysquare.com.au/", "post_code": "2022"}, {"title": "Fuzzy Monsters Pet Boutique & Salon", "phone": "+61 426 110 322", "rating": "4.6", "review": "47", "address": "Chippendale NSW, Australia", "website": "https://fuzzy-monsters-pet-boutique-salon.business.site/?utm_source=gmb&utm_medium=referral", "post_code": "2008"}, {"title": "Hachi Sydney", "phone": "+61 2 7202 9233", "rating": "4.7", "review": "34", "address": "Haymarket NSW, Australia", "website": "http://www.hachi-sydney.com.au/", "post_code": "2000"}, {"title": "Hair of the Dog", "phone": "+61 433 835 106", "rating": "4.4", "review": "64", "address": "Newtown NSW, Australia", "website": "https://www.hairofthedog.net.au/", "post_code": "3220"}, {"title": "Pets On The Point", "phone": "+61 2 9660 0011", "rating": "4.7", "review": "199", "address": "Glebe NSW, Australia", "website": "http://www.petsonthepoint.com.au/", "post_code": "2037"}, {"title": "Pepper & Murphy's Dog Grooming Salon", "phone": "+61 450 728 505", "rating": "4.9", "review": "84", "address": "Marrickville NSW, Australia", "website": "http://www.pepperandmurphys.com/", "post_code": "2204"}, {"title": "SYDNEY DOG CLUB PTY LTD", "phone": "+61 432 184 302", "rating": "4.9", "review": "45", "address": "Paddington NSW, Australia", "website": "http://www.thedogclub.com.au/", "post_code": "4064"}, {"title": "Hot Dog Cool Cat Pet Salon", "phone": "+61 2 9058 8566", "rating": "4.5", "review": "78", "address": "Erskineville NSW, Australia", "website": "http://www.hotdogcoolcat.com.au/", "post_code": "2043"}, {"title": "Dainty Dog grooming salon", "phone": "+61 414 889 128", "rating": "4.0", "review": "99", "address": "Bexley NSW, Australia", "website": "https://daintydog.com.au/", "post_code": "2207"}, {"title": "Hills Grooming and Georgie's Play Park", "phone": "+61 2 9688 6685", "rating": "4.7", "review": "145", "address": "Bella Vista NSW, Australia", "website": "http://www.hillsgrooming.com.au/", "post_code": "2153"}, {"title": "Dog de Miow Potts Point", "phone": "+61 404 127 576", "rating": "4.8", "review": "53", "address": "Potts Point NSW, Australia", "website": "http://www.dogdemiow.com.au/", "post_code": "2011"}, {"title": "Darlo Dogs", "phone": "--Not Provided--", "rating": "4.8", "review": "116", "address": "Darlinghurst NSW, Australia", "website": "http://www.darlodogs.com.au/", "post_code": "2010"}, {"title": "Sparkling Paws Dog Grooming", "phone": "+61 416 538 695", "rating": "4.7", "review": "93", "address": "--Not Provided--", "website": "http://www.facebook.com/sparklingpaws", "post_code": "-"}, {"title": "Bloomingtails", "phone": "+61 1300 282 457", "rating": "4.9", "review": "122", "address": "Artarmon NSW, Australia", "website": "http://www.bloomingtailsgrooming.com.au/", "post_code": "1570"}, {"title": "Puppy Avenue", "phone": "+61 410 703 415", "rating": "4.6", "review": "36", "address": "Sydney Olympic Park NSW, Australia", "website": "https://www.instagram.com/puppyavenue_olypk/", "post_code": "2060"}, {"title": "Bath to Bow Dog Groomer", "phone": "+61 2 8021 7626", "rating": "4.7", "review": "114", "address": "Rosebery NSW, Australia", "website": "http://www.bathtobow.com.au/", "post_code": "2018"}, {"title": "Orange Dogs", "phone": "+61 468 711 775", "rating": "4.6", "review": "25", "address": "Lilyfield NSW, Australia", "website": "http://orangedogs.vpweb.com.au/", "post_code": "2040"}, {"title": "Sunny Dogs Salon", "phone": "+61 402 635 186", "rating": "4.6", "review": "65", "address": "Mascot NSW, Australia", "website": "http://sunnydogssalon.com.au/", "post_code": "2020"}, {"title": "Doggy Splash", "phone": "+61 2 7900 8057", "rating": "4.6", "review": "71", "address": "St Peters NSW, Australia", "website": "http://www.doggysplash.com.au/", "post_code": "3021"}, {"title": "Maru Maru Pet Services", "phone": "+61 2 9568 2088", "rating": "4.7", "review": "118", "address": "Stanmore NSW, Australia", "website": "http://www.marumarupets.com.au/", "post_code": "4514"}, {"title": "PAWFECT DOGGY DAY SPA", "phone": "+61 2 8592 6668", "rating": "4.8", "review": "41", "address": "Balmain NSW, Australia", "website": "http://www.pawfectdoggydayspa.com.au/", "post_code": "2041"}, {"title": "Barker Ark", "phone": "+61 2 8068 4286", "rating": "4.8", "review": "85", "address": "Waterloo NSW, Australia", "website": "http://www.barkerark.com.au/", "post_code": "2017"}, {"title": "PatPal Dog Grooming", "phone": "+61 432 173 330", "rating": "4.7", "review": "67", "address": "North Willoughby NSW, Australia", "website": "http://www.patpaldoggrooming.com/", "post_code": "3978"}, {"title": "Drools Dog Grooming & Day Care", "phone": "+61 2 9587 2574", "rating": "4.8", "review": "63", "address": "Kogarah NSW, Australia", "website": "http://www.droolsgrooming.com.au/", "post_code": "2217"}, {"title": "Puppuccino Pet Spa Waterloo (Previous Pet Palette Studio)", "phone": "+61 2 8861 5725", "rating": "4.6", "review": "44", "address": "Waterloo NSW, Australia", "website": "https://www.puppuccino.com.au/", "post_code": "2017"}, {"title": "Dogs Empire Grooming Service", "phone": "+61 2 8021 7240", "rating": "4.3", "review": "45", "address": "Coogee NSW, Australia", "website": "http://dogsempire.com.au/", "post_code": "6166"}, {"title": "Qpet Rosebery", "phone": "+61 2 8313 8988", "rating": "4.6", "review": "101", "address": "Rosebery NSW, Australia", "website": "http://qpet.com.au/", "post_code": "2018"}, {"title": "Lovely Pets Grooming Salon", "phone": "+61 449 686 810", "rating": "4.4", "review": "68", "address": "Penshurst NSW, Australia", "website": "http://www.lovelypets.com.au/", "post_code": "2222"}, {"title": "Happy Paws Pethouse Chatswood", "phone": "+61 2 8959 0142", "rating": "4.7", "review": "85", "address": "Sydney NSW, Australia", "website": "https://happypawspethouse.com/", "post_code": "2060"}, {"title": "A\u200e Dapper Dog Grooming Parlour", "phone": "+61 408 601 687", "rating": "4.7", "review": "70", "address": "Maroubra NSW, Australia", "website": "http://www.adapperdog.com.au/", "post_code": "2035"}, {"title": "Dogs @ Play", "phone": "--Not Provided--", "rating": "4.6", "review": "155", "address": "Surry Hills NSW, Australia", "website": "http://dogsplay.com.au/", "post_code": "2010"}, {"title": "Inner West Dog Wash & Grooming", "phone": "+61 412 173 883", "rating": "4.9", "review": "29", "address": "Petersh NSW, Australia", "website": "https://innerwestdogwash.com.au/", "post_code": "-"}, {"title": "Pawsum", "phone": "+61 1300 671 774", "rating": "4.5", "review": "79", "address": "Leichhardt NSW, Australia", "website": "http://pawsum.com.au/", "post_code": "4305"}, {"title": "Scruffy's Doggy Day Care, Grooming and Training", "phone": "+61 2 9939 8899", "rating": "4.7", "review": "65", "address": "Brookvale NSW, Australia", "website": "https://www.scruffys.com.au/", "post_code": "2100"}, {"title": "Paws of Fun", "phone": "--Not Provided--", "rating": "4.7", "review": "111", "address": "Cperdown NSW, Australia", "website": "https://www.pawsoffun.com.au/", "post_code": "-"}, {"title": "Palette Studio Dog Grooming", "phone": "+61 2 9719 3635", "rating": "4.2", "review": "66", "address": "Drummoyne NSW, Australia", "website": "http://www.palettestudio.com.au/", "post_code": "2047"}, {"title": "CENTENNIAL BARK", "phone": "--Not Provided--", "rating": "4.8", "review": "81", "address": "Waterloo NSW, Australia", "website": "http://www.centennialbark.com.au/", "post_code": "2017"}, {"title": "Dogcom Pet Grooming & Day Care Studio", "phone": "+61 488 888 933", "rating": "4.7", "review": "62", "address": "Gordon NSW, Australia", "website": "https://www.instagram.com/p/Csupi3lSSUF/?igshid=MzRlODBiNWFlZA==", "post_code": "2072"}, {"title": "Dogs Only Grooming", "phone": "+61 2 9938 6563", "rating": "4.5", "review": "43", "address": "Brookvale NSW, Australia", "website": "http://www.dogsonlygrooming.com.au/", "post_code": "2100"}, {"title": "Talk of The Tail Dog Grooming Eastwood", "phone": "--Not Provided--", "rating": "4.9", "review": "26", "address": "--Not Provided--", "website": "http://www.talkofthetail.com.au/", "post_code": "-"}, {"title": "Puppcorn Potts Point", "phone": "+61 450 878 977", "rating": "4.6", "review": "32", "address": "Potts Point NSW, Australia", "website": "https://puppcornpet.wixsite.com/puppcornpetboutique", "post_code": "2011"}, {"title": "El Jefe & Co.", "phone": "+61 415 364 977", "rating": "4.8", "review": "71", "address": "--Not Provided--", "website": "http://www.eljefeandco.com/", "post_code": "-"}, {"title": "Phil's Dog Salon", "phone": "+61 423 416 275", "rating": "5.0", "review": "54", "address": "Rydalmere NSW, Australia", "website": "https://philsdogsalon.wixsite.com/oodle", "post_code": "2116"}, {"title": "Sugar Paws", "phone": "+61 408 309 993", "rating": "4.8", "review": "19", "address": "St Leonards NSW, Australia", "website": "http://sugarpaws.com.au/", "post_code": "3021"}, {"title": "Noonies Pet Care", "phone": "--Not Provided--", "rating": "4.7", "review": "108", "address": "--Not Provided--", "website": "http://www.noonies.org/", "post_code": "-"}, {"title": "Dogs in Town", "phone": "--Not Provided--", "rating": "4.8", "review": "218", "address": "Alexandria NSW, Australia", "website": "http://www.dogsintown.com.au/", "post_code": "1435"}, {"title": "Mucky Mutz Dog Grooming", "phone": "+61 421 149 126", "rating": "4.6", "review": "100", "address": "Asquith NSW, Australia", "website": "http://www.muckymutz.com.au/", "post_code": "2077"}, {"title": "Qpet Rosebery", "phone": "+61 2 8313 8988", "rating": "4.6", "review": "101", "address": "Rosebery NSW, Australia", "website": "http://qpet.com.au/", "post_code": "2018"}, {"title": "Paw Republic, Crows Nest", "phone": "--Not Provided--", "rating": "4.8", "review": "135", "address": "Crows Nest NSW, Australia", "website": "http://www.pawrepublic.com.au/", "post_code": "2065"}, {"title": "Mosman Paws Doggy Daycare and Grooming", "phone": "+61 2 8964 0042", "rating": "4.6", "review": "53", "address": "Mosman NSW, Australia", "website": "http://www.mosmanpaws.com.au/", "post_code": "6012"}, {"title": "Barber Paw dog grooming Naremburn/Crows Nest 2065", "phone": "+61 421 541 662", "rating": "4.9", "review": "67", "address": "Naremburn NSW, Australia", "website": "https://nancypipi2005.wixsite.com/barberpawdogdaycareg", "post_code": "2065"}, {"title": "Planet Pooch", "phone": "+61 2 9399 8284", "rating": "4.7", "review": "24", "address": "Randwick NSW, Australia", "website": "http://www.planetpooch.com.au/", "post_code": "2031"}, {"title": "Palette Studio Dog Grooming", "phone": "+61 2 9719 3635", "rating": "4.2", "review": "66", "address": "Drummoyne NSW, Australia", "website": "http://www.palettestudio.com.au/", "post_code": "2047"}, {"title": "Furever Friends Dog Grooming", "phone": "+61 414 249 589", "rating": "5.0", "review": "12", "address": "--Not Provided--", "website": "http://www.fureverfriends.com.au/", "post_code": "-"}, {"title": "Pawz In Style", "phone": "+61 468 452 000", "rating": "4.6", "review": "119", "address": "Croydon Park NSW, Australia", "website": "http://www.pawzinstyle.com.au/", "post_code": "3136"}, {"title": "Talk of The Tail Dog Grooming Eastwood", "phone": "--Not Provided--", "rating": "4.9", "review": "26", "address": "--Not Provided--", "website": "http://www.talkofthetail.com.au/", "post_code": "-"}, {"title": "Darling Paws Grooming Boutique", "phone": "+61 406 338 333", "rating": "4.1", "review": "65", "address": "Lane Cove NSW, Australia", "website": "https://a1029127366.wixsite.com/mysite", "post_code": "2066"}, {"title": "Paw4Friends", "phone": "+61 432 902 875", "rating": "4.8", "review": "91", "address": "Darlinghurst NSW, Australia", "website": "https://paw4friends.com/", "post_code": "2010"}, {"title": "PETFECTIONS", "phone": "+61 455 788 111", "rating": "4.8", "review": "65", "address": "Crows Nest NSW, Australia", "website": "http://petfections.com.au/", "post_code": "2065"}, {"title": "Paws & Palms", "phone": "+61 2 9519 8876", "rating": "4.1", "review": "38", "address": "Marrickville NSW, Australia", "website": "https://pawsnpalms.com.au/", "post_code": "2204"}, {"title": "The Groom Lounge", "phone": "+61 466 455 685", "rating": "5.0", "review": "13", "address": "--Not Provided--", "website": "http://www.thegroomlounge.com.au/", "post_code": "-"}, {"title": "Paw Stars", "phone": "+61 402 164 441", "rating": "4.7", "review": "42", "address": "Rose Bay NSW, Australia", "website": "https://www.pawstars.com.au/", "post_code": "2029"}, {"title": "Puppy Playground", "phone": "--Not Provided--", "rating": "4.6", "review": "109", "address": "Zetland NSW, Australia", "website": "http://www.puppyplaygroundsydney.com.au/", "post_code": "2017"}, {"title": "Pet Time Grooming Shop Miranda", "phone": "+61 452 668 277", "rating": "4.8", "review": "22", "address": "Miranda NSW, Australia", "website": "https://sydneypettime.com.au/", "post_code": "5700"}, {"title": "Planet Pooch", "phone": "+61 2 9399 8284", "rating": "4.7", "review": "24", "address": "Randwick NSW, Australia", "website": "http://www.planetpooch.com.au/", "post_code": "2031"}, {"title": "Jim's Dog Wash and Grooming Casula", "phone": "--Not Provided--", "rating": "4.5", "review": "11", "address": "--Not Provided--", "website": "https://jimsdogwash.net.au/", "post_code": "-"}, {"title": "The Fur Salon by Rufus & Coco (Balgowlah)", "phone": "+61 2 9959 4640", "rating": "4.6", "review": "25", "address": "Balgowlah NSW, Australia", "website": "http://thefursalon.com.au/", "post_code": "2093"}, {"title": "Mosman Paws Doggy Daycare and Grooming", "phone": "+61 2 8964 0042", "rating": "4.6", "review": "53", "address": "Mosman NSW, Australia", "website": "http://www.mosmanpaws.com.au/", "post_code": "6012"}, {"title": "The Fur Salon by Rufus & Coco (Mosman)", "phone": "+61 2 9960 5019", "rating": "4.7", "review": "67", "address": "Mosman NSW, Australia", "website": "http://www.thefursalon.com.au/", "post_code": "6012"}, {"title": "Barkly's & Co", "phone": "+61 401 833 858", "rating": "4.5", "review": "24", "address": "Dolls Point NSW, Australia", "website": "http://instagram.com/barklys_co/", "post_code": "2219"}, {"title": "Carolcity Pet Studio", "phone": "+61 405 300 305", "rating": "4.7", "review": "27", "address": "Croydon NSW, Australia", "website": "http://www.carolcity.com.au/", "post_code": "3136"}, {"title": "DOGUE Balmain", "phone": "--Not Provided--", "rating": "4.6", "review": "206", "address": "Balmain NSW, Australia", "website": "https://dogue.com.au/pet-shops/balmain/", "post_code": "2041"}, {"title": "Blue Wheelers Mascot", "phone": "+61 450 661 391", "rating": "4.8", "review": "20", "address": "--Not Provided--", "website": "http://bluewheelers.com.au/mobile-dog-grooming/mascot-nsw", "post_code": "-"}, {"title": "Barber Paw dog grooming Naremburn/Crows Nest 2065", "phone": "+61 421 541 662", "rating": "4.9", "review": "67", "address": "Naremburn NSW, Australia", "website": "https://nancypipi2005.wixsite.com/barberpawdogdaycareg", "post_code": "2065"}, {"title": "Tails R Wagging", "phone": "--Not Provided--", "rating": "4.1", "review": "82", "address": "Rozelle NSW, Australia", "website": "http://www.tailsrwagging.com/", "post_code": "2039"}, {"title": "Groomer Girl Personalised Dog Grooming", "phone": "+61 2 9569 5781", "rating": "4.9", "review": "9", "address": "Stanmore NSW, Australia", "website": "https://www.facebook.com/Groomergirlpdg", "post_code": "4514"}, {"title": "Paw Stars Alexandria", "phone": "+61 402 164 441", "rating": "4.9", "review": "23", "address": "Alexandria NSW, Australia", "website": "https://www.pawstars.com.au/", "post_code": "1435"}, {"title": "Pawz In Style", "phone": "+61 468 452 000", "rating": "4.6", "review": "119", "address": "Croydon Park NSW, Australia", "website": "http://www.pawzinstyle.com.au/", "post_code": "3136"}, {"title": "Bow Wow Dog Wash and Grooming", "phone": "+61 433 107 418", "rating": "4.5", "review": "23", "address": "The Ponds NSW, Australia", "website": "http://bowwowdogwashandgrooming.com.au/", "post_code": "4061"}, {"title": "PawsAbout Pet Boutique", "phone": "+61 2 8021 7708", "rating": "4.3", "review": "44", "address": "Coogee NSW, Australia", "website": "http://www.pawsabout.com.au/", "post_code": "6166"}, {"title": "Pooch Empire Dog Wash & Grooming", "phone": "+61 425 217 273", "rating": "4.6", "review": "10", "address": "Seven Hills NSW, Australia", "website": "https://pooch-empire-grooming-service.business.site/?utm_source=gmb&utm_medium=referral", "post_code": "2147"}, {"title": "The Canine Collective", "phone": "--Not Provided--", "rating": "4.5", "review": "24", "address": "Narraweena NSW, Australia", "website": "http://www.caninecollective.com.au/", "post_code": "2099"}, {"title": "Tomoko's Dog Grooming", "phone": "+61 416 657 727", "rating": "4.4", "review": "14", "address": "Putney NSW, Australia", "website": "https://tomokodoggrooming.wixsite.com/website", "post_code": "2112"}, {"title": "The Groom Lounge", "phone": "+61 466 455 685", "rating": "5.0", "review": "13", "address": "--Not Provided--", "website": "http://www.thegroomlounge.com.au/", "post_code": "-"}, {"title": "Puppuccino Pet Spa Mosman", "phone": "+61 455 989 952", "rating": "4.2", "review": "33", "address": "Mosman NSW, Australia", "website": "http://www.puppuccino.com.au/", "post_code": "6012"}, {"title": "Jim's Dog Wash and Grooming Harrington Park", "phone": "--Not Provided--", "rating": "4.6", "review": "17", "address": "--Not Provided--", "website": "https://jimsdogwash.net.au/franchisees/harrington-park/", "post_code": "-"}, {"title": "DOGUE Bondi", "phone": "--Not Provided--", "rating": "4.6", "review": "118", "address": "Bondi Junction NSW, Australia", "website": "http://www.dogue.com.au/dogue-stores/bondi-store/", "post_code": "2026"}, {"title": "Paw Pleasure", "phone": "+61 478 833 661", "rating": "5.0", "review": "7", "address": "Ashfield NSW, Australia", "website": "http://www.pawpleasure.com.au/", "post_code": "2131"}, {"title": "The Fur Salon by Rufus & Coco (Queens Park)", "phone": "+61 2 9389 4588", "rating": "4.4", "review": "19", "address": "Queens Park NSW, Australia", "website": "https://www.thefursalon.com.au/", "post_code": "2022"}, {"title": "Puppy Pawlour", "phone": "+61 432 877 363", "rating": "4.7", "review": "12", "address": "--Not Provided--", "website": "http://www.puppypawlour.com/", "post_code": "-"}, {"title": "The Well Groomed - Riverview Dog Grooming", "phone": "+61 2 8964 1072", "rating": "5.0", "review": "16", "address": "Riverview NSW, Australia", "website": "http://www.thewellgroomed.com.au/", "post_code": "4303"}, {"title": "Bubble and Groom", "phone": "+61 430 711 787", "rating": "4.7", "review": "40", "address": "Cherrybrook NSW, Australia", "website": "https://bubble-and-groom.business.site/?utm_source=gmb&utm_medium=referral", "post_code": "2126"}, {"title": "K-PUP dog grooming", "phone": "+61 430 114 678", "rating": "5.0", "review": "8", "address": "Penshurst NSW, Australia", "website": "http://www.instagram.com/kpupdoggrooming", "post_code": "2222"}, {"title": "Suprepet pet boutique Bondi Junction", "phone": "--Not Provided--", "rating": "5.0", "review": "11", "address": "Bondi Junction NSW, Australia", "website": "https://rarapetcare.com/", "post_code": "2026"}, {"title": "Dash DogWash Mascot", "phone": "+61 413 338 523", "rating": "5.0", "review": "5", "address": "--Not Provided--", "website": "https://dashdogwash.com.au/mobile-dog-grooming/mascot-nsw/", "post_code": "-"}, {"title": "Ultimo Dog Grooming", "phone": "+61 430 221 307", "rating": "4.3", "review": "6", "address": "Ultimo NSW, Australia", "website": "http://www.ultimodoggrooming.com.au/", "post_code": "2007"}, {"title": "Marley and Friends", "phone": "+61 2 9363 9927", "rating": "4.3", "review": "11", "address": "Double Bay NSW, Australia", "website": "http://www.marleyandfriends.com.au/", "post_code": "2028"}, {"title": "Best Buddies Mobile Dog Wash And Grooming", "phone": "+61 452 656 876", "rating": "4.3", "review": "9", "address": "--Not Provided--", "website": "http://bestbuddiesdoggrooming.com.au/", "post_code": "-"}, {"title": "Rara Petcare \uff5cSeaforth", "phone": "+61 451 515 364", "rating": "4.0", "review": "21", "address": "Seaforth NSW, Australia", "website": "http://rarapetcare.com/", "post_code": "2092"}, {"title": "Doggy BnG Grooming", "phone": "+61 425 257 509", "rating": "5.0", "review": "13", "address": "Pendle Hill NSW, Australia", "website": "http://doggybng.com/?utm_source=gmb&utm_medium=referral", "post_code": "2145"}, {"title": "Groomed by Karyn", "phone": "+61 401 997 023", "rating": "5.0", "review": "10", "address": "North Narrabeen NSW, Australia", "website": "https://m.facebook.com/Groomed-by-Karyn-109503111711617/?ref=bookmarks", "post_code": "3978"}, {"title": "HPET", "phone": "+61 468 456 688", "rating": "4.8", "review": "21", "address": "Pymble NSW, Australia", "website": "http://www.hpet.com.au/", "post_code": "2073"}, {"title": "Poochtopia Grooming", "phone": "+61 449 705 857", "rating": "4.4", "review": "7", "address": "--Not Provided--", "website": "http://poochtopia.com.au/", "post_code": "-"}, {"title": "Pets in the City", "phone": "+61 2 9953 1264", "rating": "4.0", "review": "9", "address": "Neutral Bay NSW, Australia", "website": "https://www.petsinthecity.com.au/?utm_source=google&utm_medium=organic&utm_campaign=gmb", "post_code": "2089"}, {"title": "POSH PAWS MOBILE GROOMING", "phone": "+61 425 204 092", "rating": "5.0", "review": "8", "address": "--Not Provided--", "website": "http://poshpaws.com.au/", "post_code": "-"}, {"title": "PetCloud", "phone": "--Not Provided--", "rating": "4.6", "review": "44", "address": "--Not Provided--", "website": "https://www.petcloud.com.au/?UTM_source=GMB_listing&UTM_medium=organic&utm_source=google&utm_medium=organic&utm_campaign=Google%20My%20Business&utm_content=Pet%20Sitters%20Sydney%20%7C%20PetCloud%20%7C%20Find%20RSPCA%20Accredited%20Pet%20Carers%20-%20Potts%20Point&utm_term=plcid_2744026086882989294", "post_code": "-"}, {"title": "Dog Addiction", "phone": "+61 447 822 144", "rating": "4.4", "review": "14", "address": "--Not Provided--", "website": "https://bowralcoop.com.au/?utm_source=google&utm_medium=organic&utm_campaign=gmb", "post_code": "-"}, {"title": "hound-hub", "phone": "+61 2 9908 5006", "rating": "5.0", "review": "7", "address": "Cremorne NSW, Australia", "website": "http://www.hound-hub.com.au/", "post_code": "2090"}, {"title": "Blue Wheelers Wattle Grove", "phone": "+61 1300 659 055", "rating": "4.9", "review": "9", "address": "--Not Provided--", "website": "http://www.bluewheelers.com.au/mobile-dog-grooming/wattlegrove-nsw/", "post_code": "-"}, {"title": "Bambo and Pochi", "phone": "+61 411 889 071", "rating": "4.8", "review": "5", "address": "--Not Provided--", "website": "http://www.bamboandpochi.com.au/", "post_code": "-"}, {"title": "Barkers Grooming & Dog Washing", "phone": "+61 430 245 309", "rating": "4.6", "review": "9", "address": "West Pymble NSW, Australia", "website": "https://barkers-grooming-dog-washing.business.site/?utm_source=gmb&utm_medium=referral", "post_code": "3003"}, {"title": "Petstock Zetland", "phone": "--Not Provided--", "rating": "4.2", "review": "208", "address": "Zetland NSW, Australia", "website": "https://www.petstock.com.au/pages/store/petstock-zetland?utm_source=google&utm_medium=organic&utm_campaign=Google%20My%20Business&utm_content=Zetland&utm_term=plcid_2702576902371131765", "post_code": "2017"}, {"title": "Adore The Paw", "phone": "--Not Provided--", "rating": "5.0", "review": "8", "address": "--Not Provided--", "website": "http://www.adorethepaw.com.au/", "post_code": "-"}, {"title": "Petbarn", "phone": "--Not Provided--", "rating": "4.4", "review": "484", "address": "Taren Point NSW, Australia", "website": "https://www.petbarn.com.au/store-finder/caringbah?utm_source=google&utm_medium=organic&utm_campaign=local_seo&utm_term=taren-point", "post_code": "2229"}, {"title": "Dirty Dog Lazy Cat", "phone": "+61 402 161 265", "rating": "5.0", "review": "14", "address": "Collaroy Plateau NSW, Australia", "website": "http://www.dirtydoglazycat.com.au/", "post_code": "2097"}, {"title": "Bubble Dog Grooming Services", "phone": "+61 422 567 728", "rating": "4.8", "review": "66", "address": "Blacktown NSW, Australia", "website": "http://bubbledoggrooming.com.au/", "post_code": "2148"}, {"title": "Petbarn Alexandria McEvoy", "phone": "--Not Provided--", "rating": "4.3", "review": "741", "address": "Alexandria NSW, Australia", "website": "https://www.petbarn.com.au/store-finder/alexandria-mcevoy?utm_source=google&utm_medium=organic&utm_campaign=local_seo&utm_term=alexandria", "post_code": "1435"}, {"title": "Groom Club", "phone": "+61 451 534 663", "rating": "5.0", "review": "7", "address": "Neutral Bay NSW, Australia", "website": "http://groomclub.com.au/", "post_code": "2089"}, {"title": "Shaggy Babies", "phone": "+61 411 847 644", "rating": "5.0", "review": "10", "address": "Neutral Bay NSW, Australia", "website": "http://shaggybabies.com.au/", "post_code": "2089"}, {"title": "Petite Dog Grooming", "phone": "+61 492 997 007", "rating": "5.0", "review": "1", "address": "--Not Provided--", "website": "http://www.petitedoggrooming.com/", "post_code": "-"}, {"title": "Petbarn Neutral Bay", "phone": "--Not Provided--", "rating": "4.1", "review": "162", "address": "Neutral Bay NSW, Australia", "website": "https://www.petbarn.com.au/store-finder/neutral-bay?utm_source=google&utm_medium=organic&utm_campaign=local_seo&utm_term=neutral-bay", "post_code": "2089"}, {"title": "Aussie Pooch Mobile Dog Wash Thornleigh", "phone": "+61 1300 369 369", "rating": "5.0", "review": "4", "address": "--Not Provided--", "website": "https://www.aussiepm.com.au/dog-wash-grooming/thornleigh", "post_code": "-"}, {"title": "Sydney Animal Hospitals Inner West", "phone": "--Not Provided--", "rating": "4.8", "review": "217", "address": "Stanmore NSW, Australia", "website": "https://sydneyanimalhospitals.com.au/contact/inner-west?utm_source=Google&utm_medium=GMB&utm_campaign=Maps-inner-west", "post_code": "4514"}, {"title": "Petite Dog Grooming", "phone": "+61 492 997 007", "rating": "5.0", "review": "1", "address": "--Not Provided--", "website": "http://www.petitedoggrooming.com/", "post_code": "-"}, {"title": "Sydney Animal Hospitals Norwest", "phone": "--Not Provided--", "rating": "4.3", "review": "198", "address": "Bella Vista NSW, Australia", "website": "https://sydneyanimalhospitals.com.au/contact/norwest?utm_source=Google&utm_medium=GMB&utm_campaign=Maps-norwest", "post_code": "2153"}, {"title": "4 Paws Neutral Bay", "phone": "--Not Provided--", "rating": "4.7", "review": "137", "address": "Neutral Bay NSW, Australia", "website": "https://www.4pawsvet.com.au/?utm_source=google&utm_medium=organic&utm_campaign=gmb", "post_code": "2089"}, {"title": "Petbarn", "phone": "--Not Provided--", "rating": "4.4", "review": "484", "address": "Taren Point NSW, Australia", "website": "https://www.petbarn.com.au/store-finder/caringbah?utm_source=google&utm_medium=organic&utm_campaign=local_seo&utm_term=taren-point", "post_code": "2229"}, {"title": "Sydney Animal Hospitals Newtown", "phone": "--Not Provided--", "rating": "4.5", "review": "331", "address": "Erskineville NSW, Australia", "website": "https://sydneyanimalhospitals.com.au/contact/newtown?utm_source=Google&utm_medium=GMB&utm_campaign=Maps-newtown", "post_code": "2043"}, {"title": "Sydney Animal Hospitals Kellyville", "phone": "--Not Provided--", "rating": "4.5", "review": "214", "address": "Kellyville NSW, Australia", "website": "https://sydneyanimalhospitals.com.au/contact/kellyville?utm_source=Google&utm_medium=GMB&utm_campaign=Maps-kellyville", "post_code": "2155"}, {"title": "Magic Mutts", "phone": "+61 417 807 902", "rating": "5.0", "review": "1", "address": "Five Dock NSW, Australia", "website": "http://www.magicmutts.com.au/", "post_code": "2046"}, {"title": "Gorgeous Pets - Dog Daycare, Boarding & Cavoodle Breeder", "phone": "--Not Provided--", "rating": "4.2", "review": "46", "address": "Randwick NSW, Australia", "website": "https://www.gorgeouspets.com.au/", "post_code": "2031"}, {"title": "Vetmed Northbridge", "phone": "--Not Provided--", "rating": "4.6", "review": "46", "address": "Northbridge NSW, Australia", "website": "https://www.vetmed.com.au/?utm_source=google&utm_medium=GMB&utm_campaign=Map/Northbridge", "post_code": "2063"}, {"title": "Blue Wheelers Matraville", "phone": "+61 434 629 933", "rating": "5.0", "review": "1", "address": "--Not Provided--", "website": "http://www.bluewheelers.com.au/mobile-dog-grooming/matraville-nsw/", "post_code": "-"}, {"title": "The Perfect Buddy", "phone": "+61 435 533 010", "rating": "5.0", "review": "6", "address": "--Not Provided--", "website": "http://www.theperfectbuddy.com.au/", "post_code": "-"}, {"title": "Aussie Pooch Mobile Dog Wash Richmond", "phone": "+61 1300 369 369", "rating": "5.0", "review": "1", "address": "--Not Provided--", "website": "https://www.aussiepm.com.au/dog-wash-grooming/richmond", "post_code": "-"}, {"title": "Happy Paws Fitness", "phone": "--Not Provided--", "rating": "4.8", "review": "23", "address": "Darlinghurst NSW, Australia", "website": "http://www.happypawsfitness.com/", "post_code": "2010"}, {"title": "4 Paws Neutral Bay", "phone": "--Not Provided--", "rating": "4.7", "review": "137", "address": "Neutral Bay NSW, Australia", "website": "https://www.4pawsvet.com.au/?utm_source=google&utm_medium=organic&utm_campaign=gmb", "post_code": "2089"}]